AXXXABC FLIGHT RECORDER TEST
HFDTE200926
HFPLTPILOTINCHARGE:VIENTO-N
HFGTYGLIDERTYPE:Test Wing
HFFTYFRTYPE:Test Vario
HOFTYFRTYPE:none
HODTM100GPSDATUM:WGS-1984
B1030041921043N10007354WA0210102104
B1030081921039N10007352WA0210202105
B1030121921035N10007350WA0210402103
B1030161921030N10007348WA0210502103
B1030201921026N10007346WA0210602108
B1030241921022N10007344WA0210802107
B1030281921017N10007343WA0210902111
B1030321921012N10007341WA0211002108
B1030361921007N10007339WA0211102111
B1030401921003N10007336WA0211302111
B1030441920999N10007334WA0211402113
B1030481920994N10007332WA0211502113
B1030521920989N10007329WA0211702116
B1030561920984N10007327WA0211802117
B1031001920980N10007324WA0211902116
B1031041920975N10007322WA0212002117
B1031081920970N10007320WA0212202120
B1031121920965N10007317WA0212302125
B1031161920960N10007314WA0212402124
B1031201920956N10007311WA0212502124
B1031241920951N10007309WA0212602126
B1031281920946N10007305WA0212702128
B1031321920941N10007302WA0212802129
B1031361920937N10007300WA0213002130
B1031401920932N10007297WA0213102133
B1031441920927N10007294WA0213202135
B1031481920922N10007292WA0213302135
B1031521920917N10007289WA0213402136
B1031561920912N10007286WA0213502134
B1032001920907N10007283WA0213702140
B1032041920903N10007279WA0213802135
B1032081920898N10007277WA0213902140
B1032121920892N10007273WA0214002143
B1032161920887N10007269WA0214102140
B1032201920881N10007266WA0214302144
B1032241920876N10007263WA0214402143
B1032281920870N10007260WA0214502146
B1032321920865N10007256WA0214602145
B1032361920860N10007253WA0214702150
B1032401920854N10007250WA0214902148
B1032441920836N10007244WA0214702148
B1032481920818N10007237WA0214502144
B1032521920799N10007230WA0214302141
B1032561920782N10007223WA0214102142
B1033001920763N10007216WA0213802140
B1033041920744N10007208WA0213602134
B1033081920725N10007201WA0213402133
B1033121920706N10007194WA0213102130
B1033161920688N10007187WA0212902132
B1033201920668N10007179WA0212702125
B1033241920650N10007173WA0212502128
B1033281920632N10007167WA0212302125
B1033321920614N10007159WA0212102122
B1033361920596N10007152WA0211802120
B1033401920577N10007144WA0211602118
B1033441920558N10007137WA0211302115
B1033481920539N10007129WA0211102109
B1033521920521N10007123WA0210902108
B1033561920503N10007116WA0210702108
B1034001920485N10007109WA0210502103
B1034041920467N10007103WA0210302103
B1034081920448N10007096WA0210002103
B1034121920429N10007090WA0209802098
B1034161920410N10007083WA0209602096
B1034201920390N10007075WA0209402094
B1034241920372N10007067WA0209102094
B1034281920352N10007059WA0208902090
B1034321920332N10007051WA0208602087
B1034361920314N10007044WA0208402085
B1034401920294N10007037WA0208102079
B1034441920275N10007029WA0207902076
B1034481920255N10007020WA0207602078
B1034521920237N10007012WA0207402075
B1034561920218N10007005WA0207202072
B1035001920198N10006998WA0206902067
B1035041920180N10006990WA0206702065
B1035081920161N10006983WA0206502067
B1035121920141N10006975WA0206302060
B1035161920123N10006968WA0206102062
B1035201920104N10006962WA0205902059
B1035241920085N10006955WA0205602054
B1035281920066N10006949WA0205402052
B1035321920047N10006941WA0205202053
B1035361920028N10006935WA0205002051
B1035401920008N10006927WA0204702045
B1035441919989N10006920WA0204502044
B1035481919970N10006913WA0204202045
B1035521919952N10006907WA0204002038
B1035561919935N10006900WA0203802037
B1036001919915N10006893WA0203602037
B1036041919896N10006886WA0203302034
B1036081919879N10006879WA0203102034
B1036121919860N10006872WA0202902028
B1036161919841N10006865WA0202702029
B1036201919821N10006857WA0202402026
B1036241919803N10006849WA0202202020
B1036281919784N10006841WA0202002018
B1036321919764N10006834WA0201702019
B1036361919746N10006828WA0201502017
B1036401919728N10006821WA0201302012
B1036441919710N10006814WA0201102012
B1036481919691N10006806WA0200802007
B1036521919672N10006799WA0200602006
B1036561919654N10006792WA0200402006
B1037001919635N10006785WA0200202004
B1037041919617N10006779WA0199901997
B1037081919599N10006772WA0199701998
B1037121919580N10006765WA0199501993
B1037161919561N10006759WA0199301992
B1037201919542N10006750WA0199001993
B1037241919524N10006744WA0198801987
B1037281919504N10006735WA0198601984
B1037321919486N10006728WA0198301982
B1037361919467N10006721WA0198101982
B1037401919448N10006712WA0197901977
B1037441919429N10006705WA0197601974
B1037481919410N10006698WA0197401972
B1037521919391N10006691WA0197201974
B1037561919373N10006684WA0196901971
B1038001919354N10006677WA0196701966
B1038041919335N10006670WA0196501963
B1038081919316N10006662WA0196201962
B1038121919298N10006656WA0196001959
B1038161919280N10006649WA0195801959
B1038201919262N10006643WA0195601959
B1038241919243N10006636WA0195401954
B1038281919224N10006627WA0195101954
B1038321919206N10006620WA0194901950
B1038361919188N10006613WA0194701948
B1038401919169N10006606WA0194401947
B1038441919150N10006599WA0194201945
B1038481919131N10006591WA0194001941
B1038521919111N10006584WA0193801940
B1038561919092N10006577WA0193501933
B1039001919074N10006570WA0193301931
B1039041919055N10006563WA0193101931
B1039081919036N10006555WA0192801926
B1039121919017N10006547WA0192601925
B1039161918999N10006541WA0192401926
B1039201918980N10006534WA0192201923
B1039241918961N10006526WA0192001922
B1039281918942N10006519WA0191701915
B1039321918923N10006512WA0191501916
B1039361918905N10006505WA0191301911
B1039401918886N10006497WA0191001913
B1039441918866N10006489WA0190801910
B1039481918847N10006481WA0190601907
B1039521918827N10006473WA0190301903
B1039561918809N10006466WA0190101898
B1040001918790N10006459WA0189801898
B1040041918771N10006453WA0189601893
B1040081918752N10006446WA0189401895
B1040121918733N10006439WA0189101892
B1040161918714N10006432WA0188901890
B1040201918695N10006425WA0188701887
B1040241918676N10006418WA0188401887
B1040281918658N10006412WA0188201879
B1040321918639N10006405WA0188001882
B1040361918621N10006398WA0187801878
B1040401918602N10006391WA0187601878
B1040441918582N10006384WA0187301875
B1040481918564N10006377WA0187101872
B1040521918545N10006369WA0186801869
B1040561918527N10006363WA0186601865
B1041001918507N10006357WA0186401861
B1041041918488N10006349WA0186201862
B1041081918469N10006342WA0185901857
B1041121918451N10006336WA0185701856
B1041161918432N10006330WA0185501855
B1041201918414N10006324WA0185301853
B1041241918395N10006316WA0185101849
B1041281918376N10006309WA0184801851
B1041321918358N10006302WA0184601845
B1041361918339N10006295WA0184401845
B1041401918321N10006288WA0184201840
B1041441918303N10006282WA0184001841
B1041481918283N10006274WA0183701839
B1041521918264N10006265WA0183401835
B1041561918245N10006258WA0183201833
B1042001918226N10006250WA0183001828
B1042041918207N10006244WA0182801825
B1042081918188N10006236WA0182501825
B1042121918170N10006230WA0182301821
B1042161918151N10006223WA0182101820
B1042201918131N10006215WA0181801817
B1042241918113N10006209WA0181601818
B1042281918096N10006203WA0181401814
B1042321918078N10006196WA0181201815
B1042361918059N10006188WA0181001811
B1042401918041N10006181WA0180801805
B1042441918023N10006174WA0180501806
B1042481918004N10006167WA0180301802
B1042521917986N10006160WA0180101804
B1042561917966N10006152WA0179801799
B1043001917948N10006145WA0179601799
B1043041917929N10006139WA0179401792
B1043081917910N10006131WA0179201792
B1043121917891N10006125WA0178901792
B1043161917873N10006118WA0178701788
B1043201917854N10006110WA0178501786
B1043241917835N10006103WA0178301784
B1043281917816N10006096WA0178001780
B1043321917796N10006088WA0177801775
B1043361917778N10006080WA0177601774
B1043401917759N10006073WA0177301774
B1043441917741N10006065WA0177101772
B1043481917723N10006059WA0176901767
B1043521917703N10006051WA0176601768
B1043561917684N10006044WA0176401766
B1044001917665N10006036WA0176201763
B1044041917646N10006029WA0176001762
B1044081917627N10006022WA0175701756
B1044121917609N10006016WA0175501758
B1044161917590N10006009WA0175301754
B1044201917571N10006002WA0175101751
B1044241917551N10005994WA0174901746
B1044281917533N10005987WA0174601744
B1044321917513N10005979WA0174401744
B1044361917495N10005973WA0174201742
B1044401917475N10005964WA0173901737
B1044441917456N10005957WA0173701738
B1044481917437N10005950WA0173501733
B1044521917420N10005943WA0173301735
B1044561917400N10005935WA0173001731
B1045001917382N10005928WA0172801729
B1045041917363N10005921WA0172501727
B1045081917345N10005914WA0172301724
B1045121917327N10005906WA0172101718
B1045161917308N10005900WA0171901721
B1045201917289N10005893WA0171601716
B1045241917269N10005884WA0171401712
B1045281917251N10005878WA0171201709
B1045321917233N10005870WA0170901712
B1045361917213N10005862WA0170701705
B1045401917193N10005854WA0170401702
B1045441917175N10005847WA0170201701
B1045481917156N10005840WA0170001703
B1045521917137N10005833WA0169801695
B1045561917119N10005827WA0169601693
B1046001917100N10005820WA0169301695
B1046041917080N10005813WA0169101694
B1046081917061N10005805WA0168801686
B1046121917042N10005798WA0168601684
B1046161917024N10005791WA0168401682
B1046201917005N10005785WA0168201680
B1046241916986N10005776WA0168001677
B1046281916967N10005769WA0167701678
B1046321916948N10005762WA0167501672
B1046361916929N10005754WA0167201674
B1046401916909N10005747WA0167001671
B1046441916891N10005739WA0166801667
B1046481916872N10005733WA0166601668
B1046521916853N10005726WA0166301661
B1046561916835N10005718WA0166101660
B1047001916815N10005711WA0165801655
B1047041916796N10005703WA0165601653
B1047081916778N10005697WA0165401656
B1047121916759N10005690WA0165101648
B1047161916741N10005683WA0164901646
B1047201916721N10005676WA0164601643
B1047241916702N10005667WA0164301643
B1047281916683N10005660WA0164101639
B1047321916664N10005653WA0163901638
B1047361916645N10005646WA0163601634
B1047401916626N10005639WA0163401633
B1047441916607N10005632WA0163201629
B1047481916588N10005624WA0162901631
B1047521916569N10005617WA0162701629
B1047561916551N10005610WA0162501623
B1048001916531N10005601WA0162201624
B1048041916512N10005594WA0162001618
B1048081916493N10005587WA0161801616
B1048121916474N10005580WA0161501616
B1048161916456N10005574WA0161301613
B1048201916437N10005567WA0161101611
B1048241916417N10005560WA0160801608
B1048281916397N10005552WA0160601603
B1048321916379N10005545WA0160301606
B1048361916360N10005538WA0160101599
B1048401916341N10005530WA0159901597
B1048441916322N10005522WA0159601598
B1048481916302N10005515WA0159401592
B1048521916283N10005508WA0159101594
B1048561916265N10005501WA0158901592
B1049001916246N10005494WA0158701588
B1049041916228N10005488WA0158501586
B1049081916209N10005480WA0158301582
B1049121916190N10005472WA0158001579
B1049161916171N10005464WA0157801576
B1049201916152N10005456WA0157601576
B1049241916133N10005449WA0157301573
B1049281916121N10005475WA0158001580
B1049321916116N10005499WA0158701586
B1049361916115N10005521WA0159401592
B1049401916120N10005538WA0160101600
B1049441916129N10005551WA0160801610
B1049481916140N10005557WA0161501615
B1049521916151N10005557WA0162201622
B1049561916162N10005551WA0162901630
B1050001916171N10005538WA0163601638
B1050041916176N10005521WA0164401645
B1050081916176N10005499WA0165101651
B1050121916170N10005475WA0165801657
B1050161916158N10005449WA0166501665
B1050201916140N10005425WA0167201671
B1050241916116N10005403WA0167901678
B1050281916087N10005386WA0168601688
B1050321916055N10005373WA0169301690
B1050361916020N10005367WA0170001699
B1050401915984N10005367WA0170701706
B1050441915949N10005373WA0171401715
B1050481915917N10005386WA0172101720
B1050521915888N10005403WA0172801729
B1050561915864N10005425WA0173501737
B1051001915846N10005449WA0174201739
B1051041915834N10005475WA0174901750
B1051081915828N10005499WA0175601755
B1051121915828N10005521WA0176301761
B1051161915833N10005538WA0177001770
B1051201915841N10005551WA0177701780
B1051241915852N10005557WA0178401785
B1051281915864N10005557WA0179101791
B1051321915875N10005551WA0179801796
B1051361915883N10005538WA0180501803
B1051401915888N10005521WA0181201811
B1051441915888N10005499WA0181901822
B1051481915882N10005475WA0182601828
B1051521915870N10005449WA0183301831
B1051561915852N10005425WA0184001840
B1052001915828N10005403WA0184701845
B1052041915800N10005386WA0185401852
B1052081915767N10005373WA0186201863
B1052121915732N10005367WA0186901866
B1052161915697N10005367WA0187501873
B1052201915662N10005373WA0188201885
B1052241915629N10005386WA0188901891
B1052281915600N10005403WA0189601898
B1052321915577N10005425WA0190301903
B1052361915558N10005449WA0191001909
B1052401915546N10005475WA0191701918
B1052441915541N10005499WA0192401926
B1052481915540N10005521WA0193101929
B1052521915545N10005538WA0193801936
B1052561915554N10005551WA0194501946
B1053001915565N10005557WA0195201953
B1053041915577N10005557WA0195901961
B1053081915587N10005551WA0196601969
B1053121915596N10005538WA0197301975
B1053161915601N10005521WA0198001978
B1053201915601N10005499WA0198701989
B1053241915595N10005475WA0199401997
B1053281915583N10005449WA0200102000
B1053321915565N10005425WA0200802009
B1053361915541N10005403WA0201502016
B1053401915512N10005386WA0202202020
B1053441915480N10005373WA0202902031
B1053481915445N10005367WA0203602036
B1053521915409N10005367WA0204302046
B1053561915374N10005373WA0205002051
B1054001915342N10005386WA0205702060
B1054041915313N10005403WA0206402062
B1054081915289N10005425WA0207102068
B1054121915271N10005449WA0207802076
B1054161915259N10005475WA0208502087
B1054201915253N10005499WA0209202090
B1054241915253N10005521WA0209902099
B1054281915258N10005538WA0210602104
B1054321915266N10005551WA0211302113
B1054361915277N10005557WA0212002118
B1054401915289N10005557WA0212702126
B1054441915300N10005551WA0213402135
B1054481915309N10005538WA0214102139
B1054521915313N10005521WA0214802150
B1054561915313N10005499WA0215502155
B1055001915307N10005475WA0216202164
B1055041915295N10005449WA0216902168
B1055081915277N10005425WA0217602175
B1055121915253N10005403WA0218302184
B1055161915225N10005386WA0219002191
B1055201915192N10005373WA0219702200
B1055241915157N10005367WA0220402203
B1055281915122N10005367WA0221102214
B1055321915087N10005373WA0221802218
B1055361915054N10005386WA0222502225
B1055401915025N10005403WA0223202230
B1055441915002N10005425WA0223902242
B1055481914984N10005449WA0224602247
B1055521914972N10005475WA0225302256
B1055561914966N10005499WA0226002263
B1056001914966N10005521WA0226702268
B1056041914970N10005538WA0227402272
B1056081914979N10005551WA0228102282
B1056121914990N10005557WA0228802290
B1056161915002N10005557WA0229502296
B1056201915013N10005551WA0230202305
B1056241915021N10005538WA0230902308
B1056281915026N10005521WA0231602316
B1056321915026N10005499WA0232302322
B1056361915020N10005475WA0233002331
B1056401915008N10005449WA0233702335
B1056441914990N10005425WA0234402342
B1056481914966N10005403WA0235102351
B1056521914937N10005386WA0235802356
B1056561914905N10005373WA0236502363
B1057001914870N10005367WA0237202375
B1057041914834N10005367WA0237902378
B1057081914799N10005373WA0238702386
B1057121914767N10005386WA0239402392
B1057161914738N10005403WA0240002401
B1057201914714N10005425WA0240702405
B1057241914696N10005449WA0241402415
B1057281914676N10005455WA0241202414
B1057321914655N10005460WA0240902411
B1057361914636N10005466WA0240702408
B1057401914615N10005472WA0240402407
B1057441914594N10005478WA0240202404
B1057481914574N10005484WA0239902400
B1057521914554N10005490WA0239702398
B1057561914533N10005495WA0239402394
B1058001914513N10005501WA0239202389
B1058041914494N10005506WA0239002390
B1058081914474N10005512WA0238702386
B1058121914454N10005518WA0238502387
B1058161914434N10005523WA0238202382
B1058201914413N10005529WA0238002378
B1058241914394N10005534WA0237702380
B1058281914372N10005540WA0237502374
B1058321914352N10005546WA0237202372
B1058361914331N10005552WA0237002370
B1058401914313N10005558WA0236702367
B1058441914293N10005564WA0236502365
B1058481914274N10005569WA0236302363
B1058521914255N10005575WA0236102361
B1058561914235N10005580WA0235802360
B1059001914215N10005585WA0235602354
B1059041914196N10005591WA0235402353
B1059081914175N10005597WA0235102351
B1059121914155N10005603WA0234902347
B1059161914135N10005608WA0234702344
B1059201914115N10005614WA0234402342
B1059241914097N10005619WA0234202340
B1059281914076N10005625WA0233902342
B1059321914058N10005629WA0233702335
B1059361914037N10005636WA0233402335
B1059401914016N10005642WA0233202330
B1059441913996N10005647WA0233002331
B1059481913977N10005652WA0232802325
B1059521913958N10005657WA0232602328
B1059561913937N10005663WA0232302323
B1100001913917N10005668WA0232102321
B1100041913897N10005675WA0231802317
B1100081913877N10005680WA0231602317
B1100121913858N10005685WA0231402316
B1100161913838N10005690WA0231202309
B1100201913818N10005696WA0230902308
B1100241913798N10005701WA0230702305
B1100281913778N10005706WA0230502307
B1100321913757N10005712WA0230202301
B1100361913737N10005719WA0230002301
B1100401913718N10005724WA0229802297
B1100441913699N10005729WA0229502295
B1100481913679N10005734WA0229302295
B1100521913659N10005739WA0229102290
B1100561913638N10005744WA0228902289
B1101001913618N10005751WA0228602288
B1101041913598N10005757WA0228402286
B1101081913578N10005762WA0228102281
B1101121913558N10005768WA0227902280
B1101161913538N10005773WA0227602276
B1101201913517N10005780WA0227402273
B1101241913497N10005785WA0227102269
B1101281913477N10005790WA0226902272
B1101321913457N10005795WA0226702266
B1101361913437N10005801WA0226402265
B1101401913418N10005805WA0226202260
B1101441913398N10005811WA0226002261
B1101481913378N10005816WA0225802255
B1101521913357N10005821WA0225502256
B1101561913337N10005827WA0225302256
B1102001913316N10005833WA0225002250
B1102041913296N10005838WA0224802246
B1102081913276N10005844WA0224602248
B1102121913256N10005850WA0224302243
B1102161913235N10005856WA0224102243
B1102201913215N10005863WA0223802235
B1102241913196N10005867WA0223602237
B1102281913176N10005873WA0223302235
B1102321913157N10005878WA0223102229
B1102361913138N10005884WA0222902227
B1102401913117N10005890WA0222602229
B1102441913098N10005895WA0222402227
B1102481913077N10005901WA0222202222
B1102521913058N10005906WA0222002220
B1102561913039N10005912WA0221702215
B1103001913019N10005918WA0221502212
B1103041912999N10005924WA0221202214
B1103081912979N10005929WA0221002212
B1103121912960N10005935WA0220702208
B1103161912941N10005940WA0220502205
B1103201912921N10005946WA0220302202
B1103241912900N10005951WA0220102203
B1103281912881N10005957WA0219802198
B1103321912861N10005963WA0219602198
B1103361912842N10005968WA0219402193
B1103401912822N10005974WA0219102193
B1103441912801N10005979WA0218902187
B1103481912781N10005984WA0218702188
B1103521912762N10005990WA0218402185
B1103561912741N10005996WA0218202184
B1104001912721N10006001WA0217902182
B1104041912700N10006007WA0217702175
B1104081912681N10006013WA0217502172
B1104121912662N10006018WA0217202174
B1104161912642N10006024WA0217002171
B1104201912622N10006029WA0216802167
B1104241912602N10006035WA0216502165
B1104281912583N10006041WA0216302165
B1104321912563N10006046WA0216002162
B1104361912542N10006051WA0215802161
B1104401912523N10006057WA0215602153
B1104441912504N10006063WA0215302156
B1104481912485N10006069WA0215102149
B1104521912463N10006074WA0214802150
B1104561912444N10006080WA0214602149
B1105001912423N10006086WA0214402143
B1105041912403N10006091WA0214102139
B1105081912382N10006097WA0213902139
B1105121912363N10006102WA0213602135
B1105161912342N10006108WA0213402135
B1105201912323N10006113WA0213202133
B1105241912303N10006118WA0212902128
B1105281912284N10006124WA0212702127
B1105321912265N10006129WA0212502123
B1105361912245N10006135WA0212302124
B1105401912226N10006140WA0212002120
B1105441912207N10006145WA0211802116
B1105481912187N10006151WA0211602114
B1105521912168N10006156WA0211302115
B1105561912149N10006161WA0211102111
B1106001912128N10006167WA0210902107
B1106041912107N10006174WA0210602108
B1106081912088N10006179WA0210402104
B1106121912067N10006186WA0210102104
B1106161912047N10006191WA0209902099
B1106201912026N10006198WA0209602099
B1106241912006N10006203WA0209402096
B1106281911986N10006209WA0209102094
B1106321911966N10006214WA0208902087
B1106361911947N10006218WA0208702086
B1106401911927N10006224WA0208502083
B1106441911906N10006231WA0208202085
B1106481911886N10006237WA0208002080
B1106521911865N10006243WA0207702075
B1106561911846N10006248WA0207502073
B1107001911826N10006254WA0207302076
B1107041911806N10006259WA0207102072
B1107081911785N10006264WA0206802070
B1107121911764N10006270WA0206602066
B1107161911744N10006276WA0206302061
B1107201911724N10006282WA0206102060
B1107241911703N10006289WA0205802060
B1107281911683N10006294WA0205602054
B1107321911661N10006300WA0205302052
B1107361911642N10006306WA0205102048
B1107401911621N10006312WA0204802051
B1107441911602N10006317WA0204602046
B1107481911582N10006323WA0204402047
B1107521911562N10006329WA0204202042
B1107561911542N10006335WA0203902042
B1108001911521N10006341WA0203702038
B1108041911501N10006346WA0203402035
B1108081911482N10006351WA0203202034
B1108121911463N10006356WA0203002028
B1108161911442N10006363WA0202702025
B1108201911422N10006368WA0202502024
B1108241911402N10006374WA0202202021
B1108281911382N10006379WA0202002019
B1108321911361N10006384WA0201802020
B1108361911342N10006390WA0201502015
B1108401911322N10006396WA0201302015
B1108441911304N10006400WA0201102013
B1108481911283N10006406WA0200802010
B1108521911265N10006411WA0200602006
B1108561911245N10006416WA0200402006
B1109001911225N10006422WA0200102003
B1109041911204N10006427WA0199902002
B1109081911184N10006434WA0199601995
B1109121911163N10006440WA0199401993
B1109161911143N10006445WA0199101990
B1109201911123N10006450WA0198901989
B1109241911103N10006455WA0198701986
B1109281911082N10006461WA0198401982
B1109321911061N10006468WA0198201983
B1109361911042N10006474WA0198001978
B1109401911023N10006478WA0197801981
B1109441911004N10006483WA0197601978
B1109481910986N10006488WA0197401976
B1109521910965N10006495WA0197101969
B1109561910944N10006501WA0196901971
B1110001910924N10006507WA0196601966
B1110041910904N10006513WA0196401961
B1110081910883N10006517WA0196101964
B1110121910864N10006523WA0195901962
B1110161910845N10006528WA0195701955
B1110201910825N10006534WA0195401956
B1110241910805N10006540WA0195201955
B1110281910784N10006545WA0195001950
B1110321910764N10006552WA0194701947
B1110361910744N10006557WA0194501943
B1110401910723N10006562WA0194201944
B1110441910704N10006568WA0194001942
B1110481910684N10006573WA0193801936
B1110521910664N10006579WA0193601936
B1110561910644N10006585WA0193301934
B1111001910624N10006591WA0193101932
B1111041910603N10006596WA0192801930
B1111081910583N10006601WA0192601927
B1111121910563N10006607WA0192401923
B1111161910544N10006612WA0192101922
B1111201910523N10006619WA0191901917
B1111241910503N10006624WA0191701914
B1111281910483N10006630WA0191501912
B1111321910464N10006636WA0191201915
B1111361910444N10006641WA0191001911
B1111401910425N10006646WA0190801909
B1111441910405N10006652WA0190501905
B1111481910385N10006658WA0190301900
B1111521910364N10006664WA0190101898
B1111561910344N10006670WA0189801895
B1112001910324N10006675WA0189601895
B1112041910303N10006681WA0189401891
B1112081910284N10006686WA0189101892
B1112121910264N10006691WA0188901889
B1112161910243N10006698WA0188601888
B1112201910222N10006703WA0188401884
B1112241910202N10006709WA0188101881
B1112281910183N10006714WA0187901879
B1112321910163N10006720WA0187601877
B1112361910143N10006726WA0187401873
B1112401910124N10006731WA0187201869
B1112441910105N10006736WA0187001868
B1112481910084N10006742WA0186701865
B1112521910064N10006748WA0186501867
B1112561910044N10006754WA0186201861
B1113001910024N10006759WA0186001859
B1113041910005N10006764WA0185801855
B1113081909985N10006771WA0185601856
B1113121909964N10006777WA0185301850
B1113161909945N10006783WA0185101850
B1113201909925N10006789WA0184801848
B1113241909904N10006795WA0184601845
B1113281909884N10006801WA0184301843
B1113321909864N10006807WA0184101841
B1113361909845N10006812WA0183901837
B1113401909825N10006818WA0183601835
B1113441909805N10006823WA0183401834
B1113481909785N10006829WA0183201832
B1113521909765N10006836WA0182901827
B1113561909746N10006840WA0182701826
B1114001909727N10006844WA0182501825
B1114041909708N10006849WA0182301821
B1114081909688N10006856WA0182001823
B1114121909669N10006860WA0181801815
B1114161909649N10006867WA0181601813
B1114201909630N10006873WA0181301812
B1114241909609N10006879WA0181101813
B1114281909590N10006885WA0180801806
B1114321909570N10006889WA0180601805
B1114361909551N10006895WA0180401802
B1114401909533N10006899WA0180201800
B1114441909512N10006906WA0179901798
B1114481909491N10006911WA0179701795
B1114521909472N10006916WA0179401796
B1114561909451N10006921WA0179201794
B1115001909431N10006926WA0179001791
B1115041909410N10006933WA0178701785
B1115081909390N10006939WA0178501785
B1115121909369N10006944WA0178201783
B1115161909348N10006950WA0178001781
B1115201909329N10006955WA0177801780
B1115241909309N10006961WA0177501776
B1115281909288N10006967WA0177301775
B1115321909269N10006972WA0177001768
B1115361909249N10006978WA0176801770
B1115401909230N10006984WA0176501763
B1115441909210N10006990WA0176301762
B1115481909191N10006995WA0176101759
B1115521909170N10007001WA0175801761
B1115561909150N10007007WA0175601755
B1116001909129N10007013WA0175301754
B1116041909110N10007019WA0175101749
B1116081909091N10007025WA0174901746
B1116121909071N10007030WA0174701747
B1116161909050N10007037WA0174401741
B1116201909031N10007042WA0174201743
B1116241909009N10007048WA0173901738
B1116281908989N10007053WA0173701738
B1116321908969N10007059WA0173401736
B1116361908949N10007065WA0173201733
B1116401908929N10007070WA0173001728
B1116441908910N10007075WA0172701729
B1116481908898N10007100WA0173501734
B1116521908892N10007124WA0174201743
B1116561908892N10007146WA0175001752
B1117001908897N10007164WA0175701755
B1117041908905N10007176WA0176501768
B1117081908916N10007183WA0177201771
B1117121908928N10007183WA0178001778
B1117161908939N10007176WA0178701789
B1117201908948N10007164WA0179501797
B1117241908952N10007146WA0180201800
B1117281908952N10007124WA0180901810
B1117321908946N10007100WA0181701815
B1117361908935N10007075WA0182401823
B1117401908916N10007051WA0183201834
B1117441908893N10007029WA0183901838
B1117481908864N10007011WA0184601846
B1117521908831N10006999WA0185401853
B1117561908796N10006992WA0186101862
B1118001908761N10006992WA0186901869
B1118041908726N10006999WA0187601876
B1118081908693N10007011WA0188401884
B1118121908665N10007029WA0189101892
B1118161908641N10007051WA0189901896
B1118201908623N10007075WA0190601907
B1118241908611N10007100WA0191401914
B1118281908605N10007124WA0192101919
B1118321908605N10007146WA0192901929
B1118361908609N10007164WA0193601936
B1118401908618N10007176WA0194301945
B1118441908629N10007183WA0195101953
B1118481908641N10007183WA0195801960
B1118521908652N10007176WA0196601965
B1118561908660N10007164WA0197401972
B1119001908665N10007146WA0198101980
B1119041908665N10007124WA0198901990
B1119081908659N10007100WA0199601995
B1119121908647N10007075WA0200402005
B1119161908629N10007051WA0201102008
B1119201908605N10007029WA0201902017
B1119241908576N10007011WA0202602023
B1119281908544N10006999WA0203302036
B1119321908509N10006992WA0204102043
B1119361908473N10006992WA0204802046
B1119401908438N10006999WA0205602054
B1119441908406N10007011WA0206302063
B1119481908377N10007029WA0207102069
B1119521908353N10007051WA0207802077
B1119561908335N10007075WA0208602084
B1120001908323N10007100WA0209302094
B1120041908317N10007124WA0210102102
B1120081908317N10007146WA0210802110
B1120121908322N10007164WA0211602114
B1120161908331N10007176WA0212302121
B1120201908342N10007183WA0213102131
B1120241908353N10007183WA0213802138
B1120281908364N10007176WA0214602147
B1120321908373N10007164WA0215302154
B1120361908378N10007146WA0216102162
B1120401908377N10007124WA0216802169
B1120441908372N10007100WA0217502178
B1120481908360N10007075WA0218302183
B1120521908341N10007051WA0219002190
B1120561908318N10007029WA0219802197
B1121001908289N10007011WA0220602209
B1121041908256N10006999WA0221302212
B1121081908221N10006992WA0222102218
B1121121908186N10006992WA0222802225
B1121161908151N10006999WA0223502234
B1121201908118N10007011WA0224302240
B1121241908090N10007029WA0225102251
B1121281908066N10007051WA0225802261
B1121321908048N10007075WA0226602266
B1121361908036N10007100WA0227302275
B1121401908030N10007124WA0228102281
B1121441908030N10007146WA0228902291
B1121481908035N10007164WA0229602297
B1121521908043N10007176WA0230302302
B1121561908054N10007183WA0231102309
B1122001908066N10007183WA0231802318
B1122041908077N10007176WA0232602328
B1122081908085N10007164WA0233302332
B1122121908090N10007146WA0234102344
B1122161908090N10007124WA0234902349
B1122201908084N10007100WA0235602354
B1122241908072N10007075WA0236302362
B1122281908054N10007051WA0237102374
B1122321908030N10007029WA0237802379
B1122361908001N10007011WA0238602384
B1122401907969N10006999WA0239302391
B1122441907934N10006992WA0240102399
B1122481907898N10006992WA0240802407
B1122521907863N10006999WA0241602416
B1122561907831N10007011WA0242302424
B1123001907802N10007029WA0243102430
B1123041907778N10007051WA0243902438
B1123081907760N10007075WA0244602448
B1123121907748N10007100WA0245302453
B1123161907742N10007124WA0246102461
B1123201907742N10007146WA0246802471
B1123241907747N10007164WA0247602478
B1123281907756N10007176WA0248302484
B1123321907767N10007183WA0249102488
B1123361907778N10007183WA0249802497
B1123401907789N10007176WA0250602503
B1123441907798N10007164WA0251302513
B1123481907803N10007146WA0252102522
B1123521907802N10007124WA0252802526
B1123561907797N10007100WA0253502538
B1124001907785N10007075WA0254302543
B1124041907767N10007051WA0255002548
B1124081907743N10007029WA0255802560
B1124121907714N10007011WA0256602567
B1124161907681N10006999WA0257302572
B1124201907647N10006992WA0258102581
B1124241907611N10006992WA0258802590
B1124281907576N10006999WA0259602594
B1124321907543N10007011WA0260302604
B1124361907515N10007029WA0261102609
B1124401907491N10007051WA0261802621
B1124441907473N10007075WA0262602626
B1124481907464N10007084WA0262302622
B1124521907456N10007094WA0262102620
B1124561907446N10007102WA0261902618
B1125001907438N10007112WA0261702616
B1125041907429N10007121WA0261502616
B1125081907421N10007131WA0261302615
B1125121907413N10007141WA0261002609
B1125161907403N10007150WA0260802609
B1125201907394N10007159WA0260602608
B1125241907385N10007167WA0260402604
B1125281907377N10007179WA0260202603
B1125321907368N10007189WA0260002602
B1125361907359N10007199WA0259802600
B1125401907349N10007208WA0259602598
B1125441907340N10007217WA0259402593
B1125481907331N10007227WA0259202590
B1125521907323N10007237WA0259002592
B1125561907315N10007247WA0258702585
B1126001907306N10007258WA0258502587
B1126041907296N10007267WA0258302582
B1126081907287N10007276WA0258102579
B1126121907277N10007284WA0257902577
B1126161907269N10007293WA0257702580
B1126201907260N10007303WA0257502576
B1126241907251N10007312WA0257302573
B1126281907243N10007322WA0257102574
B1126321907234N10007331WA0256902569
B1126361907225N10007341WA0256702567
B1126401907217N10007349WA0256502566
B1126441907208N10007359WA0256202560
B1126481907199N10007368WA0256102560
B1126521907190N10007378WA0255902561
B1126561907182N10007388WA0255702559
B1127001907173N10007398WA0255402557
B1127041907164N10007407WA0255202552
B1127081907155N10007416WA0255002549
B1127121907147N10007426WA0254802549
B1127161907138N10007437WA0254602548
B1127201907129N10007446WA0254402544
B1127241907120N10007455WA0254202544
B1127281907111N10007465WA0254002539
B1127321907101N10007474WA0253802536
B1127361907093N10007485WA0253602537
B1127401907085N10007496WA0253402532
B1127441907077N10007507WA0253102530
B1127481907067N10007516WA0252902527
B1127521907059N10007526WA0252702527
B1127561907050N10007537WA0252502525
B1128001907041N10007547WA0252302520
B1128041907032N10007558WA0252002521
B1128081907024N10007568WA0251802517
B1128121907016N10007577WA0251602518
B1128161907007N10007586WA0251402512
B1128201906998N10007595WA0251202510
B1128241906989N10007605WA0251002508
B1128281906980N10007614WA0250802506
B1128321906971N10007625WA0250502505
B1128361906961N10007635WA0250302502
B1128401906953N10007645WA0250102500
B1128441906945N10007655WA0249902502
B1128481906936N10007663WA0249702496
B1128521906927N10007673WA0249502496
B1128561906919N10007684WA0249302490
B1129001906911N10007694WA0249102493
B1129041906902N10007702WA0248902491
B1129081906894N10007710WA0248702484
B1129121906884N10007719WA0248502487
B1129161906875N10007728WA0248302486
B1129201906867N10007738WA0248102480
B1129241906858N10007747WA0247902479
B1129281906848N10007756WA0247702479
B1129321906840N10007766WA0247502472
B1129361906831N10007775WA0247302474
B1129401906823N10007785WA0247102471
B1129441906814N10007795WA0246802469
B1129481906806N10007806WA0246602465
B1129521906797N10007816WA0246402465
B1129561906789N10007826WA0246202464
B1130001906780N10007836WA0246002459
B1130041906771N10007844WA0245802460
B1130081906763N10007855WA0245602456
B1130121906754N10007865WA0245402454
B1130161906746N10007875WA0245202453
B1130201906736N10007884WA0245002447
B1130241906727N10007895WA0244802446
B1130281906718N10007903WA0244602444
B1130321906709N10007914WA0244302445
B1130361906700N10007925WA0244102441
B1130401906691N10007934WA0243902442
B1130441906682N10007943WA0243702438
B1130481906674N10007952WA0243502437
B1130521906664N10007961WA0243302434
B1130561906655N10007969WA0243102434
B1131001906647N10007977WA0242902431
B1131041906639N10007988WA0242702425
B1131081906631N10007999WA0242502424
B1131121906621N10008008WA0242202421
B1131161906612N10008016WA0242102423
B1131201906603N10008025WA0241802416
B1131241906594N10008036WA0241602418
B1131281906585N10008045WA0241402414
B1131321906577N10008055WA0241202413
B1131361906568N10008066WA0240902407
B1131401906559N10008075WA0240702408
B1131441906550N10008085WA0240602407
B1131481906541N10008094WA0240402402
B1131521906531N10008102WA0240202400
B1131561906522N10008112WA0239902399
B1132001906514N10008122WA0239702395
B1132041906506N10008132WA0239502396
B1132081906497N10008140WA0239302391
B1132121906487N10008149WA0239102393
B1132161906479N10008158WA0238902387
B1132201906470N10008168WA0238602387
B1132241906461N10008177WA0238502385
B1132281906453N10008187WA0238302384
B1132321906444N10008196WA0238102380
B1132361906434N10008204WA0237902376
B1132401906426N10008215WA0237702379
B1132441906418N10008225WA0237402376
B1132481906409N10008233WA0237202370
B1132521906400N10008243WA0237002373
B1132561906390N10008252WA0236802370
B1133001906381N10008260WA0236602363
B1133041906372N10008269WA0236402365
B1133081906363N10008280WA0236202365
B1133121906354N10008288WA0236002358
B1133161906346N10008297WA0235802358
B1133201906337N10008308WA0235602353
B1133241906328N10008317WA0235402357
B1133281906319N10008328WA0235202352
B1133321906310N10008338WA0234902349
B1133361906301N10008347WA0234802350
B1133401906292N10008358WA0234502348
B1133441906283N10008368WA0234302344
B1133481906274N10008379WA0234102339
B1133521906265N10008388WA0233902338
B1133561906256N10008397WA0233702340
B1134001906247N10008407WA0233502336
B1134041906239N10008418WA0233302332
B1134081906229N10008427WA0233102330
B1134121906220N10008436WA0232902326
B1134161906212N10008445WA0232702326
B1134201906202N10008455WA0232502325
B1134241906194N10008464WA0232302323
B1134281906184N10008472WA0232102323
B1134321906176N10008481WA0231902318
B1134361906167N10008490WA0231702319
B1134401906159N10008499WA0231502314
B1134441906149N10008508WA0231302311
B1134481906141N10008519WA0231102309
B1134521906133N10008530WA0230902310
B1134561906124N10008538WA0230702306
B1135001906114N10008547WA0230502304
B1135041906105N10008556WA0230302301
B1135081906096N10008565WA0230102303
B1135121906087N10008575WA0229902299
B1135161906078N10008583WA0229702297
B1135201906069N10008593WA0229502297
B1135241906060N10008602WA0229302291
B1135281906051N10008611WA0229102290
B1135321906043N10008621WA0228802289
B1135361906034N10008630WA0228602285
B1135401906026N10008639WA0228402282
B1135441906017N10008650WA0228202284
B1135481906008N10008658WA0228002279
B1135521905999N10008669WA0227802275
B1135561905991N10008678WA0227602275
B1136001905982N10008688WA0227402271
B1136041905973N10008697WA0227202271
B1136081905964N10008707WA0227002267
B1136121905956N10008718WA0226802267
B1136161905947N10008728WA0226502263
B1136201905938N10008737WA0226302265
B1136241905929N10008747WA0226102263
B1136281905920N10008755WA0225902258
B1136321905911N10008763WA0225702255
B1136361905902N10008774WA0225502255
B1136401905894N10008783WA0225302254
B1136441905885N10008792WA0225102249
B1136481905876N10008802WA0224902249
B1136521905867N10008810WA0224702246
B1136561905859N10008820WA0224502247
B1137001905851N10008830WA0224302240
B1137041905842N10008839WA0224102240
B1137081905833N10008849WA0223902239
B1137121905825N10008858WA0223702239
B1137161905816N10008868WA0223502237
B1137201905807N10008878WA0223202233
B1137241905799N10008887WA0223002228
B1137281905789N10008895WA0222802229
B1137321905781N10008906WA0222602226
B1137361905773N10008915WA0222402227
B1137401905764N10008923WA0222202224
B1137441905755N10008934WA0222002221
B1137481905747N10008943WA0221802215
B1137521905738N10008953WA0221502213
B1137561905729N10008964WA0221302216
B1138001905720N10008974WA0221102211
B1138041905712N10008984WA0220902210
B1138081905703N10008995WA0220602204
B1138121905695N10009005WA0220402205
B1138161905687N10009015WA0220202203
B1138201905678N10009025WA0220002201
B1138241905669N10009033WA0219802198
B1138281905661N10009042WA0219602194
B1138321905652N10009053WA0219402192
B1138361905643N10009064WA0219202192
B1138401905634N10009075WA0219002188
B1138441905626N10009085WA0218702186
B1138481905617N10009095WA0218502182
B1138521905609N10009106WA0218202184
B1138561905600N10009115WA0218002180
B1139001905591N10009125WA0217802177
B1139041905583N10009133WA0217602178
B1139081905574N10009142WA0217402173
B1139121905564N10009151WA0217202174
B1139161905556N10009159WA0217002169
B1139201905547N10009168WA0216802171
B1139241905538N10009177WA0216702167
B1139281905529N10009187WA0216402166
B1139321905520N10009195WA0216302165
B1139361905511N10009206WA0216102158
B1139401905503N10009215WA0215802158
B1139441905494N10009224WA0215602158
B1139481905485N10009232WA0215402155
B1139521905477N10009243WA0215202155
B1139561905467N10009251WA0215002148
B1140001905459N10009261WA0214802146
B1140041905449N10009269WA0214602148
B1140081905440N10009278WA0214402145
B1140121905432N10009288WA0214202139
B1140161905422N10009299WA0213902137
B1140201905414N10009308WA0213702138
B1140241905406N10009317WA0213502134
B1140281905396N10009326WA0213302135
B1140321905387N10009335WA0213102134
B1140361905378N10009345WA0212902127
B1140401905369N10009354WA0212702124
B1140441905361N10009364WA0212402124
B1140481905352N10009373WA0212302122
B1140521905343N10009382WA0212102119
B1140561905333N10009391WA0211902118
B1141001905325N10009401WA0211702118
B1141041905316N10009410WA0211502115
B1141081905307N10009419WA0211302112
B1141121905295N10009444WA0212302122
B1141161905290N10009468WA0213302131
B1141201905289N10009490WA0214302145
B1141241905294N10009508WA0215302155
B1141281905303N10009520WA0216302163
B1141321905314N10009527WA0217302171
B1141361905325N10009527WA0218302185
B1141401905336N10009520WA0219402196
B1141441905345N10009508WA0220402204
B1141481905350N10009490WA0221402217
B1141521905350N10009468WA0222402224
B1141561905344N10009444WA0223402233
B1142001905332N10009419WA0224402247
B1142041905314N10009394WA0225402257
B1142081905290N10009373WA0226402264
B1142121905261N10009355WA0227502276
B1142161905229N10009342WA0228502282
B1142201905194N10009336WA0229502296
B1142241905158N10009336WA0230502303
B1142281905123N10009342WA0231502316
B1142321905091N10009355WA0232602323
B1142361905062N10009373WA0233602337
B1142401905038N10009394WA0234602348
B1142441905020N10009419WA0235602357
B1142481905008N10009444WA0236602367
B1142521905002N10009468WA0237602378
B1142561905002N10009490WA0238602386
B1143001905007N10009508WA0239602394
B1143041905015N10009520WA0240702405
B1143081905026N10009527WA0241702415
B1143121905038N10009527WA0242702426
B1143161905049N10009520WA0243702437
B1143201905057N10009508WA0244702448
B1143241905062N10009490WA0245702454
B1143281905062N10009468WA0246702466
B1143321905056N10009444WA0247702475
B1143361905044N10009419WA0248702489
B1143401905026N10009394WA0249702496
B1143441905002N10009373WA0250702509
B1143481904974N10009355WA0251802519
B1143521904941N10009342WA0252702526
B1143561904906N10009336WA0253702535
B1144001904871N10009336WA0254802547
B1144041904836N10009342WA0255802556
B1144081904803N10009355WA0256802568
B1144121904774N10009373WA0257802577
B1144161904751N10009394WA0258802586
B1144201904732N10009419WA0259802597
B1144241904720N10009444WA0260802608
B1144281904715N10009468WA0261802618
B1144321904714N10009490WA0262802628
B1144361904719N10009508WA0263802637
B1144401904728N10009520WA0264802648
B1144441904739N10009527WA0265902659
B1144481904751N10009527WA0266902671
B1144521904761N10009520WA0267902679
B1144561904770N10009508WA0268902691
B1145001904775N10009490WA0269902700
B1145041904775N10009468WA0270902710
B1145081904769N10009444WA0271902720
B1145121904757N10009419WA0272902731
B1145161904739N10009394WA0273902738
B1145201904715N10009373WA0274902748
B1145241904686N10009355WA0275902759
B1145281904654N10009342WA0276902769
B1145321904619N10009336WA0278002780
B1145361904583N10009336WA0279002787
B1145401904548N10009342WA0280002799
B1145441904516N10009355WA0281002807
B1145481904487N10009373WA0282002821
B1145521904463N10009394WA0283002833
B1145561904445N10009419WA0284002843
B1146001904433N10009444WA0285002849
B1146041904427N10009468WA0286102858
B1146081904427N10009490WA0287102869
B1146121904432N10009508WA0288102880
B1146161904440N10009520WA0289102891
B1146201904451N10009527WA0290102903
B1146241904463N10009527WA0291102911
B1146281904474N10009520WA0292102922
B1146321904483N10009508WA0293102930
B1146361904487N10009490WA0294102941
B1146401904487N10009468WA0295102953
B1146441904481N10009444WA0296102961
B1146481904469N10009419WA0297102971
B1146521904451N10009394WA0298102980
B1146561904427N10009373WA0299202989
B1147001904399N10009355WA0300203003
B1147041904366N10009342WA0301203012
B1147081904331N10009336WA0302203022
B1147121904296N10009336WA0303203034
B1147161904261N10009342WA0304203044
B1147201904228N10009355WA0305203053
B1147241904199N10009373WA0306203062
B1147281904176N10009394WA0307203075
B1147321904158N10009419WA0308203085
B1147361904154N10009417WA0308003082
B1147401904151N10009414WA0307703074
B1147441904148N10009411WA0307403073
B1147481904144N10009409WA0307103073
B1147521904142N10009406WA0306803071
B1147561904138N10009404WA0306603068
B1148001904135N10009402WA0306303066
B1148041904132N10009399WA0306003062
B1148081904128N10009397WA0305803058
B1148121904125N10009395WA0305503055
B1148161904124N10009392WA0305103049
B1148201904120N10009390WA0304903048
B1148241904117N10009387WA0304603043
B1148281904114N10009384WA0304303043
B1148321904112N10009381WA0304003042
B1148361904109N10009379WA0303703038
B1148401904106N10009376WA0303403032
B1148441904104N10009374WA0303203032
B1148481904100N10009371WA0302903027
B1148521904098N10009369WA0302603024
B1148561904096N10009366WA0302303023
B1149001904092N10009364WA0302003018
B1149041904090N10009361WA0301703015
B1149081904088N10009359WA0301403013
B1149121904086N10009356WA0301103008
B1149161904084N10009353WA0300803009
B1149201904081N10009350WA0300503005
B1149241904079N10009348WA0300203003
B1149281904075N10009346WA0300003001
B1149321904072N10009343WA0299702999
B1149361904070N10009339WA0299402992
B1149401904068N10009336WA0299002989
B1149441904067N10009334WA0298702989
B1149481904062N10009332WA0298502987
B1149521904059N10009330WA0298202982
B1149561904055N10009328WA0297902978
B1150001904052N10009326WA0297602975
B1150041904049N10009323WA0297302974
B1150081904045N10009321WA0297102968
B1150121904043N10009318WA0296802966
B1150161904042N10009316WA0296502963
B1150201904040N10009313WA0296202964
B1150241904035N10009311WA0295902957
B1150281904032N10009309WA0295602957
B1150321904028N10009307WA0295302956
B1150361904025N10009303WA0295102950
B1150401904023N10009301WA0294802946
B1150441904020N10009299WA0294502946
B1150481904018N10009296WA0294202941
B1150521904016N10009294WA0293902941
B1150561904013N10009291WA0293602937
B1151001904010N10009289WA0293302936
B1151041904006N10009286WA0293002933
B1151081904003N10009284WA0292702930
B1151121904001N10009282WA0292402921
B11511619031000N10009279WA0292102922
B1151201903996N10009277WA0291802917
B1151241903994N10009274WA0291502913
B1151281903991N10009271WA0291202911
B1151321903990N10009268WA0290902911
B1151361903987N10009266WA0290602905
B1151401903984N10009263WA0290302903
B1151441903981N10009261WA0290102900
B1151481903979N10009259WA0289702900
B1151521903977N10009257WA0289402892
B1151561903974N10009254WA0289102893
B1152001903972N10009251WA0288802889
B1152041903969N10009248WA0288502884
B1152081903967N10009245WA0288202879
B1152121903963N10009242WA0287902880
B1152161903960N10009240WA0287702877
B1152201903956N10009237WA0287402874
B1152241903953N10009236WA0287102872
B1152281903949N10009233WA0286902868
B1152321903947N10009231WA0286602863
B1152361903943N10009228WA0286302863
B1152401903940N10009226WA0286002860
B1152441903937N10009223WA0285802858
B1152481903933N10009221WA0285502854
B1152521903931N10009218WA0285102853
B1152561903927N10009216WA0284902849
B1153001903924N10009214WA0284602846
B1153041903922N10009211WA0284302844
B1153081903918N10009208WA0284002839
B1153121903915N10009206WA0283702836
B1153161903914N10009203WA0283402835
B1153201903911N10009201WA0283102833
B1153241903907N10009199WA0282802825
B1153281903904N10009197WA0282502823
B1153321903901N10009194WA0282202825
B1153361903898N10009191WA0281902817
B1153401903895N10009188WA0281702814
B1153441903892N10009186WA0281402815
B1153481903889N10009183WA0281102811
B1153521903887N10009180WA0280802808
B1153561903884N10009178WA0280502806
B1154001903881N10009175WA0280202804
B1154041903879N10009173WA0279902802
B1154081903876N10009171WA0279602796
B1154121903873N10009168WA0279302794
B1154161903871N10009166WA0279002790
B1154201903869N10009163WA0278702788
B1154241903867N10009160WA0278402783
B1154281903864N10009158WA0278102782
B1154321903862N10009155WA0277802775
B1154361903860N10009152WA0277502775
B1154401903857N10009149WA0277202774
B1154441903855N10009146WA0276802767
B1154481903851N10009144WA0276502766
B1154521903849N10009141WA0276202759
B1154561903846N10009138WA0275902759
B1155001903843N10009137WA0275602756
B1155041903839N10009134WA0275402751
B1155081903837N10009131WA0275002749
B1155121903835N10009128WA0274702746
B1155161903832N10009126WA0274402742
B1155201903830N10009122WA0274102741
B1155241903828N10009119WA0273802736
B1155281903826N10009116WA0273502733
B1155321903825N10009113WA0273202731
B1155361903822N10009110WA0272902731
B1155401903818N10009108WA0272602728
B1155441903816N10009105WA0272302725
B1155481903814N10009102WA0272002719
B1155521903812N10009099WA0271702718
B1155561903807N10009097WA0271402717
B1156001903806N10009094WA0271102709
B1156041903803N10009092WA0270802707
B1156081903801N10009088WA0270502706
B1156121903799N10009086WA0270202702
B1156161903796N10009084WA0269902700
B1156201903793N10009081WA0269602699
B1156241903790N10009078WA0269302693
B1156281903786N10009076WA0269102689
B1156321903784N10009073WA0268802688
B1156361903782N10009070WA0268502685
B1156401903779N10009068WA0268202680
B1156441903777N10009066WA0267902682
B1156481903774N10009063WA0267602675
B1156521903771N10009060WA0267402673
B1156561903769N10009057WA0267002670
B1157001903767N10009055WA0266802669
B1157041903763N10009053WA0266502668
B1157081903762N10009050WA0266202661
B1157121903759N10009046WA0265902656
B1157161903757N10009043WA0265602655
B1157201903754N10009041WA0265302654
B1157241903752N10009038WA0265002647
B1157281903748N10009036WA0264702645
B1157321903745N10009034WA0264402642
B1157361903743N10009030WA0264102642
B1157401903741N10009028WA0263802640
B1157441903737N10009025WA0263502636
B1157481903735N10009022WA0263202634
B1157521903733N10009019WA0262902626
B1157561903730N10009017WA0262602629
B1158001903726N10009014WA0262402624
B1158041903723N10009011WA0262102624
B1158081903720N10009010WA0261802618
B1158121903716N10009007WA0261502613
B1158161903714N10009005WA0261202613
B1158201903710N10009002WA0261002608
B1158241903707N10009000WA0260702608
B1158281903705N10008998WA0260402603
B1158321903703N10008995WA0260102598
B1158361903702N10008993WA0259702595
B1158401903700N10008990WA0259402591
B1158441903698N10008986WA0259102589
B1158481903695N10008984WA0258902591
B1158521903692N10008982WA0258602583
B1158561903688N10008980WA0258302585
B1159001903686N10008977WA0258002578
B1159041903682N10008976WA0257702580
B1159081903678N10008973WA0257502572
B1159121903675N10008971WA0257202571
B1159161903672N10008969WA0256902571
B1159201903669N10008967WA0256602568
B1159241903666N10008964WA0256302560
B1159281903665N10008962WA0256002563
B1159321903662N10008960WA0255702560
B1159361903660N10008956WA0255402552
B1159401903659N10008953WA0255002550
B1159441903655N10008951WA0254802546
B1159481903653N10008949WA0254502543
B1159521903650N10008946WA0254202541
B1159561903647N10008943WA0253902537
B1200001903644N10008940WA0253602535
B1200041903642N10008937WA0253302531
B1200081903638N10008935WA0253002530
B1200121903635N10008932WA0252702529
B1200161903633N10008930WA0252402526
B1200201903630N10008927WA0252102520
B1200241903627N10008925WA0251802517
B1200281903625N10008923WA0251502514
B1200321903623N10008921WA0251202512
B1200361903619N10008918WA0251002512
B1200401903617N10008916WA0250702504
B1200441903613N10008913WA0250402502
B1200481903610N10008911WA0250102503
B1200521903607N10008909WA0249802497
B1200561903605N10008906WA0249502495
B1201001903602N10008903WA0249302495
B1201041903599N10008901WA0249002489
B1201081903596N10008898WA0248702489
B1201121903594N10008895WA0248402486
B1201161903592N10008892WA0248002480
B1201201903590N10008889WA0247702477
B1201241903589N10008886WA0247402477
B1201281903586N10008883WA0247102468
B1201321903584N10008879WA0246802468
B1201361903581N10008876WA0246502464
B1201401903579N10008873WA0246202462
B1201441903576N10008871WA0245902459
B1201481903574N10008869WA0245502455
B1201521903571N10008866WA0245302456
B1201561903568N10008864WA0245002450
B1202001903566N10008862WA0244702446
B1202041903562N10008859WA0244402445
B1202081903561N10008856WA0244102441
B1202121903558N10008854WA0243802441
B1202161903555N10008852WA0243502434
B1202201903551N10008849WA0243302433
B1202241903548N10008847WA0243002430
B1202281903546N10008844WA0242702424
B1202321903544N10008841WA0242402426
B1202361903542N10008839WA0242002418
B1202401903540N10008836WA0241702420
B1202441903536N10008834WA0241402416
B1202481903532N10008832WA0241202413
B1202521903530N10008829WA0240902412
B1202561903526N10008827WA0240602407
B1203001903524N10008824WA0240302401
B1203041903520N10008823WA0240002399
B1203081903518N10008820WA0239702399
B1203121903514N10008818WA0239402394
B1203161903511N10008815WA0239102391
B1203201903507N10008812WA0238802389
B1203241903505N10008809WA0238602388
B1203281903501N10008807WA0238302383
B1203321903498N10008805WA0238002380
B1203361903495N10008802WA0237702378
B1203401903493N10008798WA0237402374
B1203441903490N10008796WA0237102374
B1203481903487N10008794WA0236902372
B1203521903484N10008791WA0236602364
B1203561903480N10008788WA0236302365
B1204001903475N10008785WA0236102358
B1204041903473N10008782WA0235802358
B1204081903471N10008779WA0235402357
B1204121903469N10008777WA0235102351
B1204161903466N10008774WA0234802350
B1204201903463N10008772WA0234502346
B1204241903461N10008768WA0234202344
B1204281903458N10008766WA0233902340
B1204321903456N10008763WA0233602336
B1204361903453N10008760WA0233302332
B1204401903451N10008757WA0233002330
B1204441903447N10008755WA0232802328
B1204481903445N10008752WA0232402327
B1204521903441N10008750WA0232202324
B1204561903439N10008747WA0231902320
B1205001903436N10008744WA0231602317
B1205041903434N10008742WA0231302314
B1205081903431N10008739WA0231002308
B1205121903429N10008736WA0230702307
B1205161903427N10008734WA0230402307
B1205201903425N10008731WA0230102302
B1205241903421N10008729WA0229802296
B1205281903418N10008727WA0229502296
B1205321903415N10008725WA0229202294
B1205361903412N10008722WA0229002290
B1205401903410N10008719WA0228702287
B1205441903407N10008717WA0228402285
B1205481903403N10008714WA0228102283
B1205521903399N10008712WA0227802276
B1205561903397N10008709WA0227502276
B1206001903394N10008706WA0227302271
B1206041903390N10008704WA0227002269
B1206081903386N10008702WA0226702267
B1206121903383N10008699WA0226502266
B1206161903381N10008697WA0226202263
B1206201903378N10008695WA0225902259
B1206241903376N10008692WA0225602253
B1206281903373N10008690WA0225302254
B1206321903371N10008688WA0225002249
B1206361903368N10008685WA0224702247
B1206401903363N10008684WA0224402243
B1206441903360N10008681WA0224102240
B1206481903356N10008680WA0223802236
B1206521903353N10008678WA0223602235
B1206561903349N10008675WA0223302231
B1207001903347N10008672WA0223002231
B1207041903335N10008697WA0223702235
B1207081903329N10008722WA0224302241
B1207121903329N10008743WA0225002248
B1207161903334N10008761WA0225702255
B1207201903342N10008774WA0226402262
B1207241903353N10008780WA0227002269
B1207281903365N10008780WA0227702280
B1207321903376N10008774WA0228402285
B1207361903384N10008761WA0229102290
B1207401903389N10008743WA0229702296
B1207441903389N10008722WA0230402305
B1207481903383N10008697WA0231102310
B1207521903371N10008672WA0231702314
B1207561903353N10008648WA0232402321
B1208001903329N10008626WA0233102333
B1208041903300N10008609WA0233702338
B1208081903268N10008596WA0234402343
B1208121903233N10008590WA0235102350
B1208161903197N10008590WA0235702360
B1208201903162N10008596WA0236402365
B1208241903130N10008609WA0237102370
B1208281903101N10008626WA0237702376
B1208321903077N10008648WA0238402385
B1208361903059N10008672WA0239102389
B1208401903047N10008697WA0239702396
B1208441903041N10008722WA0240402403
B1208481903041N10008743WA0241102413
B1208521903046N10008761WA0241802417
B1208561903055N10008774WA0242402424
B1209001903066N10008780WA0243102431
B1209041903077N10008780WA0243802438
B1209081903088N10008774WA0244502442
B1209121903097N10008761WA0245102454
B1209161903102N10008743WA0245802459
B1209201903101N10008722WA0246502466
B1209241903096N10008697WA0247102470
B1209281903084N10008672WA0247802481
B1209321903066N10008648WA0248502483
B1209361903042N10008626WA0249202489
B1209401903013N10008609WA0249902498
B1209441902980N10008596WA0250502506
B1209481902946N10008590WA0251202515
B1209521902910N10008590WA0251902521
B1209561902875N10008596WA0252602524
B1210001902842N10008609WA0253302530
B1210041902814N10008626WA0253902537
B1210081902790N10008648WA0254602545
B1210121902772N10008672WA0255302551
B1210161902760N10008697WA0256002557
B1210201902754N10008722WA0256702565
B1210241902754N10008743WA0257302575
B1210281902759N10008761WA0258002580
B1210321902767N10008774WA0258702585
B1210361902778N10008780WA0259402592
B1210401902790N10008780WA0260102603
B1210441902801N10008774WA0260702606
B1210481902809N10008761WA0261402612
B1210521902814N10008743WA0262102619
B1210561902814N10008722WA0262702628
B1211001902808N10008697WA0263402632
B1211041902796N10008672WA0264002639
B1211081902778N10008648WA0264702647
B1211121902754N10008626WA0265402656
B1211161902726N10008609WA0266102661
B1211201902693N10008596WA0266702670
B1211241902658N10008590WA0267402672
B1211281902622N10008590WA0268102679
B1211321902588N10008596WA0268802687
B1211361902555N10008609WA0269402692
B1211401902526N10008626WA0270102702
B1211441902502N10008648WA0270702709
B1211481902484N10008672WA0271402712
B1211521902473N10008664WA0271302712
B1211561902462N10008656WA0271202709
B1212001902450N10008648WA0271102709
B1212041902439N10008640WA0271002709
B1212081902428N10008631WA0270902709
B1212121902417N10008623WA0270702706
B1212161902405N10008615WA0270602707
B1212201902394N10008607WA0270502707
B1212241902383N10008599WA0270402703
B1212281902371N10008590WA0270302703
B1212321902360N10008582WA0270202701
B1212361902349N10008574WA0270102700
B1212401902337N10008566WA0270002697
B1212441902326N10008557WA0269902699
B1212481902315N10008549WA0269702699
B1212521902303N10008541WA0269602696
B1212561902292N10008533WA0269502697
B1213001902281N10008525WA0269402691
B1213041902270N10008516WA0269302694
B1213081902258N10008508WA0269202694
B1213121902247N10008500WA0269102688
B1213161902236N10008492WA0269002693
B1213201902224N10008484WA0268802687
B1213241902213N10008475WA0268702685
B1213281902202N10008467WA0268602687
B1213321902190N10008459WA0268502686
B1213361902179N10008451WA0268402686
B1213401902168N10008443WA0268302682
B1213441902157N10008434WA0268202682
B1213481902145N10008426WA0268102678
B1213521902134N10008418WA0268002679
B1213561902123N10008410WA0267802678
B1214001902111N10008402WA0267702678
B1214041902100N10008393WA0267602677
B1214081902089N10008385WA0267502673
B1214121902077N10008377WA0267402673
B1214161902066N10008369WA0267302674
B1214201902055N10008361WA0267202670
B1214241902044N10008352WA0267102673
B1214281902032N10008344WA0266902668
B1214321902021N10008336WA0266802669
B1214361902010N10008328WA0266702665
B1214401901998N10008320WA0266602665
B1214441901987N10008311WA0266502663
B1214481901976N10008303WA0266402664
B1214521901964N10008295WA0266302665
B1214561901953N10008287WA0266202661
B1215001901942N10008279WA0266102658
B1215041901931N10008270WA0266002659
B1215081901919N10008262WA0265802657
B1215121901908N10008254WA0265702656
B1215161901897N10008246WA0265602657
B1215201901885N10008238WA0265502657
B1215241901874N10008229WA0265402653
B1215281901863N10008221WA0265302652
B1215321901851N10008213WA0265102650
B1215361901840N10008205WA0265002650
B1215401901829N10008196WA0264902649
B1215441901818N10008188WA0264802650
B1215481901806N10008180WA0264702647
B1215521901795N10008172WA0264602648
B1215561901784N10008164WA0264502646
B1216001901772N10008155WA0264402646
B1216041901761N10008147WA0264302644
B1216081901750N10008139WA0264202644
B1216121901738N10008131WA0264102641
B1216161901727N10008123WA0263902640
B1216201901716N10008114WA0263802641
B1216241901704N10008106WA0263702639
B1216281901693N10008098WA0263602638
B1216321901682N10008090WA0263502638
B1216361901671N10008082WA0263402635
B1216401901659N10008073WA0263302632
B1216441901648N10008065WA0263202632
B1216481901637N10008057WA0263002630
B1216521901625N10008049WA0262902629
B1216561901614N10008041WA0262802626
B1217001901603N10008032WA0262702630
B1217041901591N10008024WA0262602627
B1217081901580N10008016WA0262502628
B1217121901569N10008008WA0262402621
B1217161901558N100071000WA0262302623
B1217201901546N10007991WA0262102624
B1217241901535N10007983WA0262002619
B1217281901524N10007975WA0261902622
B1217321901512N10007967WA0261802620
B1217361901501N10007959WA0261702619
B1217401901490N10007950WA0261602617
B1217441901478N10007942WA0261502615
B1217481901467N10007934WA0261402613
B1217521901456N10007926WA0261302612
B1217561901445N10007918WA0261202611
B1218001901433N10007909WA0261002609
B1218041901422N10007901WA0260902607
B1218081901411N10007893WA0260802608
B1218121901399N10007885WA0260702607
B1218161901388N10007877WA0260602604
B1218201901377N10007868WA0260502603
B1218241901365N10007860WA0260402605
B1218281901354N10007852WA0260302600
B1218321901343N10007844WA0260202601
B1218361901332N10007836WA0260002603
B1218401901320N10007827WA0260002599
B1218441901309N10007819WA0259802599
B1218481901298N10007811WA0259702594
B1218521901286N10007803WA0259602599
B1218561901275N10007794WA0259502595
B1219001901264N10007786WA0259402596
B1219041901252N10007778WA0259302593
B1219081901241N10007770WA0259102591
B1219121901230N10007762WA0259002592
B1219161901219N10007753WA0258902587
B1219201901207N10007745WA0258802588
B1219241901196N10007737WA0258702589
B1219281901185N10007729WA0258602587
B1219321901173N10007721WA0258502587
B1219361901162N10007712WA0258402582
B1219401901151N10007704WA0258302580
B1219441901139N10007696WA0258202582
B1219481901128N10007688WA0258102583
B1219521901117N10007680WA0258002577
B1219561901105N10007671WA0257802576
B1220001901094N10007663WA0257702575
B1220041901083N10007655WA0257602578
B1220081901072N10007647WA0257502574
B1220121901060N10007639WA0257402577
B1220161901049N10007630WA0257302576
B1220201901038N10007622WA0257202571
B1220241901026N10007614WA0257102573
B1220281901015N10007606WA0256902568
B1220321901004N10007598WA0256802570
B1220361900992N10007589WA0256702569
B1220401900981N10007581WA0256602566
B1220441900970N10007573WA0256502567
B1220481900959N10007565WA0256402566
B1220521900947N10007557WA0256302561
B1220561900936N10007548WA0256102564
B1221001900925N10007540WA0256002562
B1221041900913N10007532WA0255902562
B1221081900902N10007524WA0255802557
B1221121900891N10007516WA0255702559
B1221161900879N10007507WA0255602558
B1221201900868N10007499WA0255502557
B1221241900857N10007491WA0255402556
B1221281900846N10007483WA0255302553
B1221321900834N10007475WA0255102550
B1221361900823N10007466WA0255002551
B1221401900812N10007458WA0254902549
B1221441900800N10007450WA0254802547
B1221481900789N10007442WA0254702550
B1221501900789N10007440WA0254402542
B1221521900789N10007438WA0254002538
B1221541900789N10007437WA0253702535
B1221561900789N10007435WA0253302532
B1221581900789N10007433WA0253002528
B1222001900789N10007431WA0252602525
B1222021900789N10007430WA0252302523
B1222041900789N10007428WA0251902517
B1222061900789N10007426WA0251602515
B1222081900789N10007425WA0251202510
B1222101900789N10007423WA0250902511
B1222121900789N10007421WA0250502508
