AXXXABC FLIGHT RECORDER TEST
HFDTE200926
HFPLTPILOTINCHARGE:VIENTO-SE
HFGTYGLIDERTYPE:Test Wing
HFFTYFRTYPE:Test Vario
HOFTYFRTYPE:none
HODTM100GPSDATUM:WGS-1984
B1030041921057N10007359WA0210102103
B1030081921067N10007362WA0210202100
B1030121921076N10007366WA0210402104
B1030161921086N10007369WA0210502105
B1030201921095N10007372WA0210602105
B1030241921104N10007375WA0210702109
B1030281921113N10007378WA0210802105
B1030321921121N10007381WA0210902106
B1030361921131N10007384WA0211002110
B1030401921141N10007387WA0211102110
B1030441921150N10007390WA0211202115
B1030481921159N10007393WA0211402114
B1030521921169N10007396WA0211502113
B1030561921177N10007398WA0211602115
B1031001921186N10007401WA0211702118
B1031041921195N10007404WA0211802119
B1031081921204N10007407WA0212002121
B1031121921213N10007409WA0212102122
B1031161921221N10007411WA0212202120
B1031201921231N10007414WA0212302123
B1031241921239N10007416WA0212402123
B1031281921248N10007419WA0212502122
B1031321921257N10007421WA0212602128
B1031361921266N10007424WA0212802129
B1031401921275N10007425WA0212902130
B1031441921283N10007428WA0213002127
B1031481921291N10007429WA0213102132
B1031521921300N10007431WA0213302135
B1031561921308N10007433WA0213402132
B1032001921317N10007435WA0213502133
B1032041921326N10007437WA0213602136
B1032081921335N10007439WA0213702137
B1032121921344N10007441WA0213802140
B1032161921352N10007443WA0214002141
B1032201921360N10007444WA0214102143
B1032241921368N10007446WA0214202141
B1032281921377N10007447WA0214302142
B1032321921386N10007449WA0214402143
B1032361921395N10007451WA0214602148
B1032401921404N10007452WA0214702146
B1032441921403N10007451WA0214502144
B1032481921403N10007451WA0214302141
B1032521921402N10007450WA0214002139
B1032561921403N10007450WA0213902140
B1033001921402N10007449WA0213702135
B1033041921403N10007448WA0213502137
B1033081921403N10007448WA0213302134
B1033121921403N10007448WA0213102130
B1033161921402N10007447WA0212902126
B1033201921401N10007446WA0212702125
B1033241921401N10007446WA0212502126
B1033281921401N10007446WA0212302124
B1033321921401N10007445WA0212002122
B1033361921401N10007446WA0211902120
B1033401921400N10007445WA0211702119
B1033441921401N10007446WA0211502115
B1033481921400N10007445WA0211202114
B1033521921400N10007445WA0211002113
B1033561921400N10007446WA0210802109
B1034001921399N10007444WA0210602107
B1034041921399N10007443WA0210402104
B1034081921399N10007444WA0210302102
B1034121921398N10007443WA0210002100
B1034161921396N10007442WA0209802099
B1034201921396N10007442WA0209602096
B1034241921396N10007442WA0209402096
B1034281921395N10007441WA0209202094
B1034321921394N10007440WA0209002088
B1034361921392N10007438WA0208802090
B1034401921392N10007437WA0208502086
B1034441921391N10007437WA0208302083
B1034481921391N10007437WA0208102084
B1034521921390N10007435WA0207902082
B1034561921389N10007434WA0207702077
B1035001921389N10007435WA0207502077
B1035041921390N10007435WA0207402072
B1035081921389N10007433WA0207102071
B1035121921389N10007432WA0206902071
B1035161921388N10007430WA0206702066
B1035201921388N10007429WA0206502066
B1035241921387N10007429WA0206302065
B1035281921385N10007428WA0206102064
B1035321921384N10007427WA0205902056
B1035361921384N10007426WA0205702056
B1035401921383N10007425WA0205502054
B1035441921381N10007424WA0205202053
B1035481921380N10007422WA0205002049
B1035521921380N10007421WA0204802045
B1035561921379N10007421WA0204602045
B1036001921379N10007421WA0204402043
B1036041921378N10007420WA0204202040
B1036081921377N10007419WA0204002039
B1036121921377N10007419WA0203802040
B1036161921377N10007418WA0203602035
B1036201921377N10007417WA0203402035
B1036241921375N10007416WA0203202034
B1036281921375N10007416WA0203002032
B1036321921373N10007416WA0202802028
B1036361921373N10007415WA0202602027
B1036401921373N10007415WA0202402022
B1036441921373N10007414WA0202202022
B1036481921373N10007414WA0202002019
B1036521921372N10007413WA0201802019
B1036561921372N10007412WA0201602014
B1037001921371N10007410WA0201402013
B1037041921370N10007410WA0201202012
B1037081921369N10007409WA0201002008
B1037121921368N10007408WA0200802007
B1037161921367N10007407WA0200502007
B1037201921365N10007406WA0200302005
B1037241921364N10007405WA0200101998
B1037281921363N10007405WA0199901999
B1037321921363N10007404WA0199702000
B1037361921364N10007405WA0199501995
B1037401921363N10007404WA0199301995
B1037441921363N10007403WA0199101990
B1037481921363N10007403WA0198901987
B1037521921364N10007402WA0198701986
B1037561921363N10007402WA0198601984
B1038001921362N10007401WA0198401982
B1038041921362N10007401WA0198201981
B1038081921362N10007401WA0198001983
B1038121921362N10007400WA0197801975
B1038161921361N10007400WA0197601977
B1038201921361N10007400WA0197401977
B1038241921362N10007400WA0197201973
B1038281921361N10007399WA0197001970
B1038321921361N10007398WA0196801970
B1038361921360N10007397WA0196501964
B1038401921359N10007395WA0196301966
B1038441921358N10007395WA0196101959
B1038481921357N10007394WA0195901962
B1038521921356N10007393WA0195701959
B1038561921356N10007392WA0195501955
B1039001921355N10007392WA0195301954
B1039041921354N10007391WA0195101949
B1039081921354N10007391WA0194901950
B1039121921354N10007391WA0194701945
B1039161921354N10007392WA0194501947
B1039201921352N10007391WA0194301944
B1039241921352N10007391WA0194101941
B1039281921353N10007391WA0193901939
B1039321921352N10007389WA0193701934
B1039361921353N10007389WA0193501937
B1039401921353N10007390WA0193301931
B1039441921353N10007390WA0193201934
B1039481921352N10007389WA0192901930
B1039521921351N10007389WA0192701925
B1039561921351N10007389WA0192501925
B1040001921350N10007389WA0192301926
B1040041921349N10007389WA0192101923
B1040081921348N10007389WA0191901919
B1040121921349N10007389WA0191701918
B1040161921348N10007389WA0191501917
B1040201921349N10007390WA0191301913
B1040241921349N10007390WA0191201910
B1040281921350N10007390WA0191001907
B1040321921350N10007390WA0190701905
B1040361921349N10007388WA0190501905
B1040401921348N10007388WA0190301905
B1040441921348N10007388WA0190101899
B1040481921347N10007387WA0189901901
B1040521921346N10007386WA0189701898
B1040561921346N10007386WA0189501898
B1041001921346N10007384WA0189301894
B1041041921346N10007385WA0189101889
B1041081921345N10007385WA0188901890
B1041121921346N10007385WA0188701885
B1041161921345N10007385WA0188501883
B1041201921345N10007384WA0188301884
B1041241921344N10007383WA0188101882
B1041281921344N10007382WA0187901878
B1041321921344N10007382WA0187701880
B1041361921345N10007382WA0187501873
B1041401921344N10007382WA0187301873
B1041441921342N10007381WA0187101868
B1041481921343N10007381WA0186901870
B1041521921342N10007380WA0186701864
B1041561921342N10007381WA0186501864
B1042001921342N10007380WA0186301865
B1042041921342N10007380WA0186101861
B1042081921342N10007380WA0185901860
B1042121921342N10007379WA0185701857
B1042161921340N10007378WA0185501856
B1042201921339N10007377WA0185301851
B1042241921338N10007376WA0185101851
B1042281921337N10007376WA0184901849
B1042321921338N10007375WA0184701849
B1042361921338N10007374WA0184501844
B1042401921338N10007374WA0184301844
B1042441921337N10007374WA0184101844
B1042481921338N10007374WA0183901839
B1042521921337N10007374WA0183701839
B1042561921336N10007373WA0183401835
B1043001921336N10007372WA0183201832
B1043041921335N10007371WA0183001829
B1043081921334N10007371WA0182801829
B1043121921334N10007370WA0182601826
B1043161921332N10007369WA0182301826
B1043201921331N10007367WA0182101818
B1043241921329N10007366WA0181901821
B1043281921329N10007366WA0181701820
B1043321921329N10007366WA0181501814
B1043361921329N10007365WA0181301811
B1043401921328N10007365WA0181101808
B1043441921327N10007364WA0180901808
B1043481921327N10007362WA0180701807
B1043521921326N10007362WA0180501807
B1043561921327N10007362WA0180301800
B1044001921326N10007362WA0180101799
B1044041921325N10007361WA0179901796
B1044081921324N10007360WA0179601797
B1044121921324N10007359WA0179401794
B1044161921324N10007359WA0179201793
B1044201921324N10007358WA0179001792
B1044241921322N10007357WA0178801788
B1044281921322N10007357WA0178601785
B1044321921321N10007355WA0178301782
B1044361921320N10007354WA0178101779
B1044401921320N10007354WA0177901782
B1044441921320N10007354WA0177701780
B1044481921319N10007353WA0177501776
B1044521921319N10007354WA0177401771
B1044561921320N10007354WA0177201769
B1045001921320N10007354WA0177001771
B1045041921320N10007354WA0176801768
B1045081921319N10007353WA0176601767
B1045121921317N10007352WA0176301766
B1045161921316N10007351WA0176101763
B1045201921316N10007351WA0175901757
B1045241921316N10007350WA0175701757
B1045281921315N10007350WA0175501758
B1045321921315N10007349WA0175301755
B1045361921315N10007349WA0175101751
B1045401921314N10007347WA0174901750
B1045441921314N10007348WA0174701746
B1045481921313N10007347WA0174501748
B1045521921313N10007346WA0174301744
B1045561921312N10007345WA0174101741
B1046001921311N10007343WA0173901740
B1046041921311N10007343WA0173701738
B1046081921311N10007343WA0173501735
B1046121921311N10007344WA0173301732
B1046161921310N10007344WA0173101728
B1046201921309N10007342WA0172901730
B1046241921307N10007341WA0172701725
B1046281921307N10007341WA0172501723
B1046321921306N10007340WA0172301724
B1046361921305N10007339WA0172001721
B1046401921305N10007340WA0171901720
B1046441921305N10007341WA0171701716
B1046481921305N10007341WA0171501714
B1046521921304N10007340WA0171301715
B1046561921305N10007340WA0171101709
B1047001921306N10007340WA0170901712
B1047041921304N10007339WA0170701704
B1047081921303N10007338WA0170401704
B1047121921303N10007337WA0170201703
B1047161921303N10007336WA0170001700
B1047201921303N10007336WA0169801701
B1047241921303N10007336WA0169701695
B1047281921301N10007335WA0169501697
B1047321921300N10007335WA0169201692
B1047361921301N10007335WA0169001688
B1047401921301N10007335WA0168901687
B1047441921300N10007333WA0168601688
B1047481921299N10007333WA0168501682
B1047521921300N10007333WA0168301685
B1047561921299N10007331WA0168001678
B1048001921299N10007331WA0167901677
B1048041921299N10007332WA0167701675
B1048081921297N10007330WA0167501674
B1048121921296N10007329WA0167201670
B1048161921296N10007330WA0167101668
B1048201921294N10007328WA0166801670
B1048241921293N10007327WA0166601664
B1048281921292N10007327WA0166401663
B1048321921292N10007326WA0166201665
B1048361921290N10007325WA0166001659
B1048401921290N10007325WA0165801656
B1048441921288N10007323WA0165601658
B1048481921288N10007323WA0165401655
B1048521921288N10007323WA0165201650
B1048561921287N10007323WA0165001647
B1049001921286N10007323WA0164801645
B1049041921285N10007322WA0164601643
B1049081921284N10007321WA0164401641
B1049121921283N10007320WA0164201639
B1049161921282N10007319WA0164001641
B1049201921282N10007318WA0163801639
B1049241921281N10007318WA0163601634
B1049281921280N10007318WA0163401631
B1049321921280N10007317WA0163101629
B1049361921279N10007317WA0162901630
B1049401921279N10007317WA0162701625
B1049441921279N10007317WA0162501625
B1049481921278N10007315WA0162301624
B1049521921279N10007314WA0162101619
B1049561921277N10007313WA0161901617
B1050001921277N10007313WA0161701616
B1050041921276N10007311WA0161501613
B1050081921276N10007311WA0161301615
B1050121921275N10007311WA0161101612
B1050161921273N10007309WA0160801609
B1050201921272N10007309WA0160601605
B1050241921272N10007308WA0160401607
B1050281921272N10007307WA0160201603
B1050321921272N10007308WA0160001600
B1050361921271N10007307WA0159801596
B1050401921269N10007306WA0159601597
B1050441921269N10007306WA0159401596
B1050481921268N10007304WA0159201589
B1050521921268N10007304WA0159001591
B1050561921267N10007304WA0158801587
B1051001921268N10007304WA0158601584
B1051041921268N10007304WA0158401585
B1051081921267N10007303WA0158201580
B1051121921266N10007301WA0158001581
B1051161921266N10007301WA0157801577
B1051201921265N10007301WA0157601576
B1051241921265N10007299WA0157401571
B1051281921264N10007298WA0157101571
B1051321921264N10007297WA0156901568
B1051361921263N10007297WA0156701567
B1051401921263N10007297WA0156501562
B1051441921262N10007297WA0156301566
B1051481921262N10007297WA0156101563
B1051521921261N10007297WA0155901560
B1051561921262N10007297WA0155701555
B1052001921261N10007295WA0155501558
B1052041921262N10007296WA0155301553
B1052081921262N10007295WA0155101550
B1052121921261N10007294WA0154901550
B1052161921261N10007294WA0154701547
B1052201921260N10007294WA0154501547
B1052241921259N10007293WA0154301544
B1052281921260N10007293WA0154101540
B1052321921260N10007291WA0153901538
B1052361921259N10007291WA0153701540
B1052401921260N10007291WA0153501533
B1052441921259N10007291WA0153301534
B1052481921259N10007291WA0153101529
B1052521921258N10007289WA0152901527
B1052561921258N10007289WA0152701527
B1053001921259N10007290WA0152501527
B1053041921259N10007290WA0152401525
B1053081921257N10007289WA0152101523
B1053121921257N10007289WA0151901522
B1053161921256N10007288WA0151701516
B1053201921256N10007287WA0151501515
B1053241921254N10007286WA0151301513
B1053281921253N10007285WA0151101509
B1053321921252N10007285WA0150801507
B1053361921250N10007283WA0150601505
B1053401921251N10007283WA0150501502
B1053441921250N10007282WA0150201504
B1053481921250N10007282WA0150101503
B1053521921249N10007282WA0149901499
B1053561921248N10007282WA0149701498
B1054001921247N10007281WA0149501497
B1054041921248N10007282WA0149301492
B1054081921248N10007282WA0149101490
B1054121921247N10007280WA0148901489
B1054161921247N10007281WA0148701489
B1054201921248N10007281WA0148601483
B1054241921248N10007281WA0148401486
B1054281921248N10007281WA0148201482
B1054321921247N10007280WA0148001479
B1054361921246N10007280WA0147801475
B1054401921245N10007278WA0147501476
B1054441921245N10007278WA0147401475
B1054481921244N10007277WA0147201470
B1054521921242N10007276WA0147001472
B1054561921242N10007276WA0146801465
B1055001921242N10007274WA0146501465
B1055041921241N10007274WA0146301464
B1055081921241N10007274WA0146201464
B1055121921241N10007274WA0146001461
B1055161921248N10007306WA0147001468
B1055201921260N10007337WA0148001482
B1055241921278N10007366WA0149001492
B1055281921301N10007390WA0150101501
B1055321921328N10007410WA0151101513
B1055361921358N10007423WA0152101519
B1055401921388N10007430WA0153101528
B1055441921417N10007430WA0154101539
B1055481921444N10007424WA0155101550
B1055521921467N10007413WA0156101560
B1055561921485N10007398WA0157101574
B1056001921498N10007380WA0158101584
B1056041921504N10007362WA0159201590
B1056081921504N10007344WA0160201603
B1056121921499N10007329WA0161201609
B1056161921488N10007318WA0162201622
B1056201921474N10007312WA0163201631
B1056241921458N10007313WA0164201644
B1056281921440N10007319WA0165201653
B1056321921424N10007333WA0166201661
B1056361921409N10007352WA0167301675
B1056401921399N10007376WA0168301681
B1056441921394N10007405WA0169301693
B1056481921394N10007436WA0170301705
B1056521921400N10007468WA0171301715
B1056561921413N10007499WA0172301723
B1057001921431N10007527WA0173301733
B1057041921454N10007552WA0174301745
B1057081921481N10007571WA0175301755
B1057121921510N10007584WA0176401763
B1057161921540N10007591WA0177401774
B1057201921569N10007591WA0178401785
B1057241921596N10007586WA0179401792
B1057281921619N10007575WA0180401806
B1057321921638N10007559WA0181401814
B1057361921650N10007542WA0182501825
B1057401921656N10007524WA0183501837
B1057441921657N10007506WA0184501843
B1057481921651N10007491WA0185501855
B1057521921641N10007480WA0186501867
B1057561921627N10007474WA0187501874
B1058001921610N10007474WA0188501888
B1058041921593N10007481WA0189601893
B1058081921576N10007494WA0190601908
B1058121921562N10007514WA0191601913
B1058161921551N10007538WA0192601928
B1058201921546N10007567WA0193601935
B1058241921546N10007598WA0194601948
B1058281921553N10007629WA0195601957
B1058321921565N10007660WA0196601966
B1058361921583N10007689WA0197601973
B1058401921606N10007713WA0198601988
B1058441921633N10007733WA0199701994
B1058481921663N10007746WA0200702008
B1058521921693N10007753WA0201702017
B1058561921722N10007753WA0202702026
B1059001921749N10007747WA0203702038
B1059041921772N10007736WA0204702048
B1059081921790N10007721WA0205702055
B1059121921803N10007704WA0206702065
B1059161921809N10007685WA0207702080
B1059201921809N10007668WA0208702085
B1059241921804N10007653WA0209802095
B1059281921793N10007641WA0210802109
B1059321921779N10007636WA0211802116
B1059361921762N10007636WA0212802128
B1059401921745N10007643WA0213802139
B1059441921729N10007656WA0214802146
B1059481921714N10007675WA0215802156
B1059521921704N10007700WA0216802169
B1059561921698N10007728WA0217802178
B1100001921699N10007759WA0218802190
B1100041921696N10007771WA0218602184
B1100081921694N10007782WA0218402185
B1100121921691N10007794WA0218202182
B1100161921688N10007806WA0218002181
B1100201921687N10007818WA0217802176
B1100241921685N10007830WA0217602176
B1100281921683N10007841WA0217402177
B1100321921680N10007853WA0217202175
B1100361921677N10007865WA0217002173
B1100401921677N10007876WA0216802166
B1100441921675N10007887WA0216602164
B1100481921672N10007899WA0216302166
B1100521921671N10007911WA0216102159
B1100561921668N10007923WA0215902158
B1101001921667N10007934WA0215702158
B1101041921665N10007945WA0215502157
B1101081921662N10007957WA0215302153
B1101121921659N10007969WA0215102151
B1101161921658N10007980WA0214902151
B1101201921655N10007992WA0214702149
B1101241921652N10008004WA0214402147
B1101281921650N10008016WA0214202144
B1101321921648N10008027WA0214002140
B1101361921646N10008038WA0213802137
B1101401921644N10008050WA0213602136
B1101441921641N10008062WA0213402135
B1101481921639N10008074WA0213202132
B1101521921637N10008085WA0213002130
B1101561921637N10008097WA0212802128
B1102001921636N10008108WA0212602128
B1102041921633N10008120WA0212402123
B1102081921631N10008131WA0212202124
B1102121921629N10008142WA0212002117
B1102161921627N10008154WA0211702117
B1102201921624N10008167WA0211502114
B1102241921623N10008178WA0211302113
B1102281921621N10008190WA0211102109
B1102321921619N10008202WA0210902109
B1102361921618N10008213WA0210702109
B1102401921615N10008225WA0210502107
B1102441921613N10008237WA0210302100
B1102481921610N10008249WA0210002103
B1102521921608N10008262WA0209802096
B1102561921608N10008272WA0209602094
B1103001921605N10008285WA0209402097
B1103041921603N10008296WA0209202093
B1103081921601N10008308WA0209002088
B1103121921599N10008319WA0208802088
B1103161921598N10008331WA0208602088
B1103201921596N10008343WA0208402084
B1103241921593N10008354WA0208202083
B1103281921591N10008366WA0208002077
B1103321921589N10008377WA0207802080
B1103361921588N10008389WA0207602075
B1103401921587N10008400WA0207402075
B1103441921585N10008412WA0207202069
B1103481921582N10008423WA0207002072
B1103521921580N10008435WA0206802066
B1103561921578N10008447WA0206602067
B1104001921578N10008457WA0206502064
B1104041921576N10008469WA0206302065
B1104081921575N10008480WA0206102061
B1104121921573N10008492WA0205802057
B1104161921571N10008503WA0205702055
B1104201921569N10008514WA0205502057
B1104241921567N10008525WA0205202051
B1104281921564N10008537WA0205002051
B1104321921562N10008550WA0204802047
B1104361921560N10008560WA0204602046
B1104401921559N10008572WA0204402046
B1104441921557N10008583WA0204202042
B1104481921556N10008595WA0204002042
B1104521921555N10008606WA0203902036
B1104561921552N10008618WA0203702038
B1105001921550N10008630WA0203502035
B1105041921549N10008641WA0203302034
B1105081921548N10008653WA0203102033
B1105121921546N10008665WA0202902031
B1105161921544N10008675WA0202602024
B1105201921541N10008687WA0202402025
B1105241921538N10008699WA0202202020
B1105281921536N10008711WA0202002019
B1105321921533N10008723WA0201802016
B1105361921532N10008733WA0201602016
B1105401921530N10008744WA0201402016
B1105441921529N10008756WA0201202012
B1105481921528N10008768WA0201002012
B1105521921525N10008779WA0200802005
B1105561921523N10008790WA0200602005
B1106001921521N10008802WA0200402001
B1106041921520N10008813WA0200202000
B1106081921516N10008825WA0200002002
B1106121921515N10008836WA0199801996
B1106161921513N10008847WA0199601997
B1106201921510N10008859WA0199401994
B1106241921509N10008870WA0199201992
B1106281921506N10008883WA0199001992
B1106321921504N10008895WA0198801986
B1106361921501N10008906WA0198501986
B1106401921499N10008918WA0198401984
B1106441921497N10008930WA0198101983
B1106481921496N10008940WA0198001977
B1106521921494N10008952WA0197701978
B1106561921492N10008963WA0197501975
B1107001921490N10008975WA0197301974
B1107041921487N10008987WA0197101973
B1107081921485N10008998WA0196901967
B1107121921483N10009009WA0196701965
B1107161921480N10009021WA0196501963
B1107201921478N10009033WA0196301966
B1107241921476N10009044WA0196101959
B1107281921474N10009056WA0195901958
B1107321921471N10009068WA0195701958
B1107361921468N10009081WA0195401957
B1107401921466N10009092WA0195201954
B1107441921464N10009104WA0195001949
B1107481921462N10009117WA0194801947
B1107521921458N10009128WA0194601943
B1107561921456N10009140WA0194401941
B1108001921453N10009151WA0194201940
B1108041921452N10009162WA0194001940
B1108081921451N10009174WA0193801938
B1108121921449N10009185WA0193601936
B1108161921446N10009197WA0193401932
B1108201921443N10009209WA0193101932
B1108241921441N10009221WA0192901931
B1108281921438N10009232WA0192701930
B1108321921436N10009243WA0192501928
B1108361921434N10009255WA0192301922
B1108401921432N10009266WA0192101923
B1108441921430N10009279WA0191901917
B1108481921427N10009291WA0191601919
B1108521921426N10009302WA0191401916
B1108561921424N10009314WA0191201915
B1109001921421N10009326WA0191001912
B1109041921419N10009338WA0190801909
B1109081921416N10009350WA0190601907
B1109121921414N10009362WA0190401904
B1109161921412N10009374WA0190201901
B1109201921411N10009384WA0190101903
B1109241921409N10009396WA0189801896
B1109281921408N10009407WA0189701895
B1109321921407N10009419WA0189501896
B1109361921405N10009430WA0189301892
B1109401921403N10009442WA0189101891
B1109441921400N10009454WA0188801887
B1109481921398N10009467WA0188601888
B1109521921396N10009479WA0188401886
B1109561921395N10009491WA0188201883
B1110001921393N10009503WA0188001878
B1110041921392N10009514WA0187801880
B1110081921390N10009525WA0187601876
B1110121921387N10009537WA0187301873
B1110161921384N10009549WA0187101869
B1110201921382N10009561WA0186901869
B1110241921380N10009572WA0186701864
B1110281921379N10009583WA0186501866
B1110321921377N10009594WA0186301863
B1110361921374N10009606WA0186101862
B1110401921372N10009617WA0185901856
B1110441921371N10009629WA0185701854
B1110481921370N10009640WA0185501855
B1110521921368N10009652WA0185301854
B1110561921365N10009664WA0185101852
B1111001921364N10009675WA0184901850
B1111041921361N10009687WA0184701845
B1111081921358N10009699WA0184401846
B1111121921356N10009711WA0184201841
B1111161921353N10009723WA0184001840
B1111201921349N10009735WA0183801840
B1111241921347N10009746WA0183501833
B1111281921345N10009758WA0183401835
B1111321921344N10009769WA0183201829
B1111361921341N10009781WA0182901832
B1111401921340N10009793WA0182701826
B1111441921338N10009806WA0182501825
B1111481921336N10009816WA0182301821
B1111521921333N10009829WA0182101823
B1111561921330N10009841WA0181901817
B1112001921329N10009853WA0181701818
B1112041921327N10009864WA0181501818
B1112081921325N10009877WA0181301813
B1112121921323N10009889WA0181101811
B1112161921322N10009900WA0180901810
B1112201921320N10009912WA0180701806
B1112241921317N10009924WA0180501806
B1112281921315N10009935WA0180301806
B1112321921314N10009947WA0180101799
B1112361921311N10009959WA0179801798
B1112401921309N10009969WA0179701796
B1112441921307N10009981WA0179501794
B1112481921305N10009993WA0179301794
B1112521921303N10010004WA0179101792
B1112561921301N10010016WA0178901790
B1113001921298N10010028WA0178601785
B1113041921296N10010040WA0178401785
B1113081921293N10010052WA0178201779
B1113121921291N10010063WA0178001779
B1113161921289N10010075WA0177801776
B1113201921287N10010086WA0177601774
B1113241921285N10010097WA0177501777
B1113281921285N10010108WA0177301772
B1113321921283N10010120WA0177101771
B1113361921281N10010131WA0176901771
B1113401921279N10010143WA0176701769
B1113441921277N10010155WA0176501763
B1113481921275N10010167WA0176201763
B1113521921271N10010180WA0176001760
B1113561921269N10010191WA0175801755
B1114001921266N10010203WA0175601755
B1114041921265N10010215WA0175401756
B1114081921263N10010227WA0175101751
B1114121921260N10010239WA0174901751
B1114161921258N10010251WA0174701749
B1114201921256N10010263WA0174501744
B1114241921255N10010273WA0174301742
B1114281921253N10010285WA0174101740
B1114321921250N10010297WA0173901740
B1114361921249N10010309WA0173701739
B1114401921247N10010320WA0173501734
B1114441921245N10010331WA0173301731
B1114481921243N10010343WA0173001733
B1114521921240N10010355WA0172801728
B1114561921239N10010367WA0172601725
B1115001921236N10010378WA0172401722
B1115041921235N10010389WA0172201720
B1115081921233N10010401WA0172001719
B1115121921231N10010412WA0171801717
B1115161921228N10010424WA0171601714
B1115201921225N10010435WA0171401713
B1115241921222N10010448WA0171201714
B1115281921219N10010460WA0171001710
B1115321921216N10010472WA0170801705
B1115361921213N10010484WA0170501705
B1115401921211N10010496WA0170301702
B1115441921211N10010507WA0170101704
B1115481921207N10010520WA0169901700
B1115521921205N10010532WA0169701699
B1115561921202N10010544WA0169501696
B1116001921200N10010555WA0169301691
B1116041921198N10010566WA0169101692
B1116081921196N10010578WA0168901692
B1116121921194N10010589WA0168701684
B1116161921192N10010602WA0168501687
B1116201921190N10010614WA0168301680
B1116241921188N10010626WA0168001682
B1116281921187N10010637WA0167801676
B1116321921184N10010649WA0167601675
B1116361921182N10010661WA0167401675
B1116401921180N10010673WA0167201672
B1116441921178N10010684WA0167001668
B1116481921176N10010695WA0166801669
B1116521921174N10010706WA0166601665
B1116561921172N10010718WA0166401662
B1117001921170N10010730WA0166101662
B1117041921167N10010743WA0165901662
B1117081921166N10010754WA0165701658
B1117121921163N10010767WA0165501655
B1117161921160N10010779WA0165201655
B1117201921159N10010791WA0165001650
B1117241921158N10010802WA0164901649
B1117281921156N10010814WA0164701648
B1117321921153N10010825WA0164401645
B1117361921152N10010837WA0164201642
B1117401921149N10010848WA0164001642
B1117441921147N10010860WA0163801636
B1117481921146N10010871WA0163601637
B1117521921145N10010883WA0163401636
B1117561921144N10010894WA0163201635
B1118001921141N10010906WA0163001628
B1118041921140N10010917WA0162801626
B1118081921137N10010929WA0162601627
B1118121921135N10010941WA0162401627
B1118161921132N10010953WA0162201620
B1118201921130N10010965WA0161901620
B1118241921127N10010977WA0161701615
B1118281921124N10010988WA0161501615
B1118321921123N100101000WA0161301612
B1118361921120N10011011WA0161101612
B1118401921119N10011022WA0160901610
B1118441921117N10011033WA0160701604
B1118481921114N10011045WA0160501603
B1118521921112N10011057WA0160201605
B1118561921110N10011068WA0160001599
B1119001921108N10011080WA0159801597
B1119041921107N10011091WA0159601596
B1119081921105N10011103WA0159401591
B1119121921102N10011115WA0159201590
B1119161921099N10011127WA0159001589
B1119201921098N10011139WA0158801587
B1119241921096N10011151WA0158601584
B1119281921094N10011162WA0158401583
B1119321921092N10011174WA0158201581
B1119361921089N10011186WA0158001582
B1119401921088N10011197WA0157801576
B1119441921087N10011208WA0157601574
B1119481921085N10011220WA0157401572
B1119521921082N10011232WA0157201574
B1119561921080N10011244WA0157001568
B1120001921078N10011254WA0156801565
B1120041921077N10011265WA0156601567
B1120081921075N10011277WA0156401561
B1120121921073N10011289WA0156201564
B1120161921071N10011300WA0156001561
B1120201921068N10011313WA0155701556
B1120241921065N10011325WA0155501557
B1120281921064N10011336WA0155301554
B1120321921061N10011348WA0155101550
B1120361921059N10011360WA0154901546
B1120401921056N10011372WA0154701545
B1120441921054N10011384WA0154501543
B1120481921060N10011416WA0155501554
B1120521921073N10011447WA0156401565
B1120561921091N10011475WA0157501575
B1121001921114N10011500WA0158401587
B1121041921141N10011519WA0159401597
B1121081921170N10011532WA0160401607
B1121121921200N10011539WA0161401613
B1121161921229N10011539WA0162401622
B1121201921256N10011533WA0163401634
B1121241921279N10011522WA0164401647
B1121281921298N10011507WA0165401651
B1121321921310N10011490WA0166401665
B1121361921316N10011471WA0167401675
B1121401921317N10011454WA0168401682
B1121441921311N10011439WA0169401693
B1121481921301N10011428WA0170401703
B1121521921287N10011422WA0171401712
B1121561921270N10011422WA0172401724
B1122001921253N10011429WA0173401732
B1122041921236N10011442WA0174401746
B1122081921222N10011461WA0175301756
B1122121921211N10011486WA0176401763
B1122161921206N10011514WA0177301776
B1122201921206N10011546WA0178401784
B1122241921213N10011577WA0179301791
B1122281921225N10011608WA0180401805
B1122321921243N10011637WA0181301816
B1122361921266N10011661WA0182301824
B1122401921293N10011681WA0183301834
B1122441921322N10011694WA0184301845
B1122481921353N10011701WA0185301855
B1122521921382N10011701WA0186201861
B1122561921409N10011695WA0187301875
B1123001921432N10011684WA0188201882
B1123041921450N10011669WA0189201890
B1123081921463N10011651WA0190201901
B1123121921469N10011633WA0191201910
B1123161921469N10011615WA0192201919
B1123201921464N10011600WA0193201932
B1123241921453N10011589WA0194201939
B1123281921439N10011584WA0195201951
B1123321921422N10011584WA0196101961
B1123361921405N10011591WA0197201970
B1123401921389N10011604WA0198201984
B1123441921374N10011623WA0199201991
B1123481921364N10011648WA0200202000
B1123521921358N10011676WA0201202014
B1123561921359N10011707WA0202202022
B1124001921365N10011739WA0203202031
B1124041921377N10011770WA0204102043
B1124081921396N10011798WA0205102049
B1124121921419N10011823WA0206102060
B1124161921446N10011842WA0207102070
B1124201921475N10011856WA0208102081
B1124241921505N10011862WA0209102091
B1124281921534N10011862WA0210102104
B1124321921561N10011857WA0211102113
B1124361921584N10011846WA0212102120
B1124401921602N10011831WA0213102133
B1124441921615N10011813WA0214102140
B1124481921621N10011795WA0215102148
B1124521921622N10011777WA0216102161
B1124561921616N10011762WA0217102170
B1125001921606N10011751WA0218102182
B1125041921591N10011745WA0219102193
B1125081921575N10011745WA0220102198
B1125121921558N10011752WA0221102210
B1125161921541N10011765WA0222102222
B1125201921527N10011785WA0223102230
B1125241921516N10011809WA0224102238
B1125281921511N10011838WA0225102248
B1125321921511N10011869WA0226102261
B1125361921521N10011885WA0225802260
B1125401921529N10011901WA0225602258
B1125441921539N10011919WA0225402252
B1125481921548N10011936WA0225102252
B1125521921556N10011952WA0224902248
B1125561921565N10011969WA0224602248
B1126001921574N10011985WA0224402246
B1126041921583N10012001WA0224202240
B1126081921592N10012018WA0224002242
B1126121921601N10012035WA0223702234
B1126161921610N10012052WA0223402237
B1126201921618N10012067WA0223202235
B1126241921627N10012084WA0223002232
B1126281921636N10012101WA0222802228
B1126321921645N10012117WA0222602226
B1126361921654N10012134WA0222302221
B1126401921663N10012152WA0222002222
B1126441921672N10012169WA0221802216
B1126481921681N10012185WA0221602215
B1126521921690N10012203WA0221302214
B1126561921699N10012220WA0221102211
B1127001921707N10012236WA0220902207
B1127041921716N10012252WA0220602207
B1127081921724N10012267WA0220402205
B1127121921733N10012283WA0220202205
B1127161921742N10012300WA0220002201
B1127201921751N10012318WA0219702197
B1127241921760N10012334WA0219502192
B1127281921769N10012352WA0219202191
B1127321921779N10012368WA0219002191
B1127361921787N10012385WA0218702186
B1127401921796N10012402WA0218502184
B1127441921804N10012419WA0218302182
B1127481921813N10012436WA0218002178
B1127521921821N10012451WA0217802180
B1127561921830N10012468WA0217502178
B1128001921839N10012486WA0217302171
B1128041921848N10012503WA0217002173
B1128081921856N10012519WA0216802168
B1128121921865N10012537WA0216602163
B1128161921873N10012554WA0216302163
B1128201921882N10012571WA0216102163
B1128241921891N10012586WA0215902159
B1128281921899N10012602WA0215602157
B1128321921907N10012618WA0215402153
B1128361921916N10012634WA0215202152
B1128401921924N10012652WA0214902149
B1128441921933N10012668WA0214702147
B1128481921943N10012685WA0214402145
B1128521921952N10012701WA0214202145
B1128561921960N10012718WA0214002137
B1129001921969N10012735WA0213802138
B1129041921977N10012752WA0213502137
B1129081921986N10012768WA0213302132
B1129121921996N10012784WA0213102129
B1129161922004N10012801WA0212902131
B1129201922012N10012817WA0212602128
B1129241922022N10012835WA0212402126
B1129281922031N10012852WA0212102119
B1129321922040N10012869WA0211902121
B1129361922050N10012887WA0211702114
B1129401922058N10012902WA0211402115
B1129441922067N10012919WA0211202109
B1129481922075N10012937WA0210902111
B1129521922084N10012953WA0210702106
B1129561922093N10012971WA0210402107
B1130001922102N10012989WA0210202104
B1130041922111N10013007WA0209902098
B1130081922120N10013022WA0209702096
B1130121922129N10013038WA0209502094
B1130161922137N10013055WA0209302095
B1130201922146N10013071WA0209102090
B1130241922155N10013087WA0208902088
B1130281922164N10013105WA0208602084
B1130321922173N10013121WA0208402082
B1130361922182N10013138WA0208102083
B1130401922190N10013155WA0207902078
B1130441922199N10013171WA0207702075
B1130481922208N10013186WA0207502073
B1130521922217N10013204WA0207202072
B1130561922226N10013220WA0207002072
B1131001922235N10013237WA0206802069
B1131041922244N10013253WA0206502064
B1131081922253N10013270WA0206302065
B1131121922262N10013287WA0206102063
B1131161922271N10013305WA0205802056
B1131201922279N10013322WA0205602055
B1131241922287N10013339WA0205402055
B1131281922297N10013357WA0205102049
B1131321922306N10013374WA0204902047
B1131361922315N10013389WA0204602048
B1131401922323N10013407WA0204402045
B1131441922332N10013422WA0204202040
B1131481922341N10013439WA0203902040
B1131521922350N10013456WA0203702036
B1131561922358N10013474WA0203402035
B1132001922367N10013491WA0203202031
B1132041922375N10013506WA0203002030
B1132081922384N10013523WA0202702027
B1132121922392N10013538WA0202502027
B1132161922402N10013555WA0202302023
B1132201922411N10013572WA0202002023
B1132241922421N10013591WA0201702015
B1132281922429N10013608WA0201502016
B1132321922437N10013623WA0201302011
B1132361922446N10013639WA0201102009
B1132401922455N10013656WA0200802007
B1132441922463N10013672WA0200602007
B1132481922472N10013689WA0200302004
B1132521922481N10013705WA0200101998
B1132561922489N10013721WA0199901996
B1133001922498N10013736WA0199701998
B1133041922507N10013752WA0199501994
B1133081922515N10013767WA0199201994
B1133121922523N10013783WA0199001990
B1133161922532N10013800WA0198801990
B1133201922540N10013817WA0198501983
B1133241922550N10013834WA0198301981
B1133281922559N10013851WA0198001982
B1133321922568N10013866WA0197801977
B1133361922577N10013883WA0197601975
B1133401922586N10013899WA0197401971
B1133441922595N10013915WA0197101969
B1133481922604N10013932WA0196901969
B1133521922613N10013950WA0196601967
B1133561922622N10013968WA0196401965
B1134001922632N10013984WA0196101962
B1134041922640N10014002WA0195901961
B1134081922649N10014018WA0195701959
B1134121922658N10014033WA0195501953
B1134161922667N10014050WA0195201954
B1134201922676N10014067WA0195001947
B1134241922685N10014083WA0194801947
B1134281922694N10014099WA0194601948
B1134321922702N10014116WA0194301945
B1134361922711N10014132WA0194101942
B1134401922720N10014147WA0193901938
B1134441922728N10014163WA0193601934
B1134481922737N10014181WA0193401932
B1134521922746N10014198WA0193101931
B1134561922755N10014215WA0192901930
B1135001922763N10014231WA0192701928
B1135041922772N10014247WA0192401924
B1135081922781N10014265WA0192201919
B1135121922789N10014282WA0191901922
B1135161922798N10014300WA0191701914
B1135201922807N10014317WA0191401911
B1135241922815N10014333WA0191201910
B1135281922825N10014350WA0191001910
B1135321922834N10014366WA0190701908
B1135361922843N10014384WA0190501903
B1135401922851N10014400WA0190201902
B1135441922860N10014418WA0190001899
B1135481922869N10014434WA0189801899
B1135521922878N10014450WA0189501896
B1135561922886N10014467WA0189201892
B1136001922895N10014483WA0189001892
B1136041922905N10014501WA0188801890
B1136081922913N10014517WA0188501884
B1136121922922N10014535WA0188301882
B1136161922931N10014551WA0188001880
B1136201922940N10014568WA0187801879
B1136241922949N10014583WA0187601876
B1136281922958N10014601WA0187401871
B1136321922967N10014617WA0187101874
B1136361922975N10014634WA0186901870
B1136401922984N10014650WA0186701868
B1136441922992N10014665WA0186501868
B1136481923002N10014683WA0186201861
B1136521923011N10014699WA0186001860
B1136561923020N10014716WA0185801856
B1137001923029N10014732WA0185501858
B1137041923038N10014748WA0185301850
B1137081923046N10014764WA0185101853
B1137121923055N10014780WA0184801850
B1137161923064N10014797WA0184601846
B1137201923072N10014814WA0184401843
B1137241923080N10014829WA0184201839
B1137281923089N10014845WA0183901839
B1137321923098N10014861WA0183701836
B1137361923106N10014878WA0183501832
B1137401923115N10014896WA0183201832
B1137441923124N10014912WA0183001828
B1137481923133N10014929WA0182701826
B1137521923141N10014947WA0182501824
B1137561923150N10014963WA0182301822
B1138001923159N10014981WA0182001822
B1138041923167N10014997WA0181801818
B1138081923176N10015013WA0181501815
B1138121923184N10015030WA0181301813
B1138161923194N10015046WA0181101809
B1138201923203N10015062WA0180901807
B1138241923211N10015078WA0180701805
B1138281923221N10015095WA0180401804
B1138321923229N10015113WA0180201804
B1138361923238N10015129WA0180001798
B1138401923247N10015146WA0179701797
B1138441923255N10015163WA0179501795
B1138481923264N10015178WA0179301796
B1138521923272N10015193WA0179101789
B1138561923281N10015210WA0178801786
B1139001923291N10015226WA0178601787
B1139041923300N10015244WA0178301786
B1139081923308N10015260WA0178101779
B1139121923317N10015276WA0177901778
B1139161923326N10015292WA0177601777
B1139201923334N10015307WA0177401777
B1139241923344N10015325WA0177201774
B1139281923352N10015342WA0176901772
B1139321923361N10015358WA0176701767
B1139361923370N10015375WA0176501767
B1139401923379N10015392WA0176201762
B1139441923388N10015409WA0176001761
B1139481923397N10015426WA0175701755
B1139521923406N10015443WA0175501757
B1139561923415N10015459WA0175301756
B1140001923423N10015474WA0175101750
B1140041923432N10015490WA0174901748
B1140081923442N10015506WA0174601747
B1140121923450N10015523WA0174401742
B1140161923459N10015540WA0174101743
B1140201923468N10015558WA0173901737
B1140241923477N10015576WA0173601734
B1140281923485N10015592WA0173401733
B1140321923493N10015608WA0173201734
B1140361923502N10015626WA0172901729
B1140401923510N10015642WA0172701724
B1140441923519N10015660WA0172401721
B1140481923528N10015678WA0172101721
B1140521923537N10015696WA0171901721
B1140561923546N10015713WA0171601719
B1141001923555N10015730WA0171401716
B1141041923563N10015747WA0171101711
B1141081923571N10015764WA0170901707
B1141121923580N10015780WA0170701705
B1141161923589N10015795WA0170501702
B1141201923598N10015811WA0170301700
B1141241923607N10015828WA0170001700
B1141281923616N10015845WA0169701695
B1141321923625N10015861WA0169501692
B1141361923634N10015876WA0169301691
B1141401923642N10015891WA0169101689
B1141441923652N10015908WA0168901692
B1141481923661N10015926WA0168601686
B1141521923669N10015942WA0168401681
B1141561923679N10015959WA0168101681
B1142001923685N10015991WA0168801690
B1142041923698N10016022WA0169401695
B1142081923716N10016051WA0170001698
B1142121923739N10016075WA0170601705
B1142161923766N10016094WA0171201710
B1142201923795N10016108WA0171801718
B1142241923825N10016114WA0172501725
B1142281923854N10016115WA0173101734
B1142321923881N10016109WA0173701739
B1142361923904N10016098WA0174401747
B1142401923923N10016083WA0175001752
B1142441923935N10016065WA0175601759
B1142481923941N10016047WA0176201761
B1142521923942N10016029WA0176801769
B1142561923936N10016014WA0177501774
B1143001923926N10016003WA0178101780
B1143041923912N10015997WA0178701788
B1143081923895N10015997WA0179401791
B1143121923878N10016004WA0180001797
B1143161923861N10016017WA0180601808
B1143201923847N10016037WA0181201813
B1143241923836N10016061WA0181801817
B1143281923831N10016090WA0182501826
B1143321923831N10016121WA0183101828
B1143361923838N10016153WA0183701838
B1143401923850N10016184WA0184401845
B1143441923868N10016212WA0185001847
B1143481923891N10016237WA0185601856
B1143521923918N10016256WA0186201861
B1143561923947N10016269WA0186901869
B1144001923978N10016276WA0187501873
B1144041924007N10016276WA0188101880
B1144081924034N10016270WA0188701887
B1144121924057N10016259WA0189301896
B1144161924075N10016244WA0189901902
B1144201924088N10016227WA0190601907
B1144241924094N10016208WA0191201912
B1144281924094N10016191WA0191801915
B1144321924089N10016176WA0192401922
B1144361924078N10016165WA0193101928
B1144401924064N10016159WA0193701940
B1144441924047N10016159WA0194301946
B1144481924030N10016166WA0194901949
B1144521924014N10016179WA0195601958
B1144561923999N10016198WA0196201963
B1145001923989N10016223WA0196801966
B1145041923983N10016251WA0197401974
B1145081923984N10016282WA0198101980
B1145121923990N10016314WA0198701985
B1145161924002N10016345WA0199301993
B1145201924021N10016374WA0200001999
B1145241924044N10016398WA0200602007
B1145281924071N10016418WA0201202012
B1145321924100N10016431WA0201802016
B1145361924130N10016438WA0202402024
B1145401924159N10016438WA0203102031
B1145441924186N10016432WA0203702036
B1145481924209N10016421WA0204302043
B1145521924227N10016406WA0204902048
B1145561924240N10016388WA0205502057
B1146001924246N10016370WA0206202062
B1146041924247N10016352WA0206802069
B1146081924241N10016337WA0207402073
B1146121924231N10016326WA0208002079
B1146161924216N10016320WA0208702088
B1146201924200N10016321WA0209302090
B1146241924183N10016327WA0209902100
B1146281924166N10016341WA0210502107
B1146321924152N10016360WA0211202109
B1146361924141N10016384WA0211802120
B1146401924136N10016413WA0212402123
B1146441924136N10016444WA0213002131
B1146481924153N10016449WA0212702128
B1146521924170N10016453WA0212402123
B1146561924185N10016459WA0212102119
B1147001924201N10016464WA0211802116
B1147041924216N10016469WA0211502114
B1147081924233N10016474WA0211202109
B1147121924248N10016480WA0210902107
B1147161924265N10016485WA0210602107
B1147201924281N10016491WA0210402105
B1147241924295N10016497WA0210102103
B1147281924312N10016502WA0209802097
B1147321924328N10016507WA0209502095
B1147361924344N10016512WA0209102090
B1147401924359N10016518WA0208902087
B1147441924375N10016523WA0208602088
B1147481924392N10016527WA0208302081
B1147521924406N10016532WA0208002079
B1147561924424N10016538WA0207702074
B1148001924441N10016542WA0207402076
B1148041924457N10016548WA0207002069
B1148081924473N10016554WA0206702068
B1148121924490N10016559WA0206402063
B1148161924506N10016564WA0206102061
B1148201924522N10016569WA0205802061
B1148241924538N10016574WA0205502057
B1148281924555N10016579WA0205202050
B1148321924571N10016585WA0204902051
B1148361924587N10016591WA0204602049
B1148401924603N10016595WA0204402041
B1148441924619N10016601WA0204102041
B1148481924635N10016607WA0203802038
B1148521924650N10016613WA0203502038
B1148561924667N10016617WA0203202034
B1149001924684N10016623WA0202902030
B1149041924699N10016628WA0202702029
B1149081924714N10016634WA0202402021
B1149121924729N10016639WA0202102018
B1149161924745N10016644WA0201802016
B1149201924761N10016649WA0201502017
B1149241924776N10016654WA0201202015
B1149281924792N10016659WA0201002007
B1149321924808N10016664WA0200702006
B1149361924825N10016670WA0200302005
B1149401924841N10016675WA0200101998
B1149441924856N10016681WA0199802000
B1149481924871N10016686WA0199501992
B1149521924886N10016691WA0199301991
B1149561924901N10016696WA0199001987
B1150001924916N10016701WA0198801990
B1150041924932N10016706WA0198501984
B1150081924948N10016711WA0198201980
B1150121924965N10016716WA0197901978
B1150161924981N10016721WA0197601975
B1150201924997N10016726WA0197301973
B1150241925012N10016732WA0197001973
B1150281925029N10016737WA0196701966
B1150321925044N10016742WA0196401963
B1150361925058N10016747WA0196201961
B1150401925075N10016752WA0195901960
B1150441925091N10016757WA0195601958
B1150481925108N10016762WA0195301953
B1150521925123N10016767WA0195001952
B1150561925138N10016773WA0194701946
B1151001925154N10016779WA0194401944
B1151041925169N10016783WA0194201941
B1151081925185N10016788WA0193901937
B1151121925200N10016793WA0193601937
B1151161925218N10016799WA0193301931
B1151201925234N10016805WA0193001928
B1151241925251N10016810WA0192701929
B1151281925266N10016815WA0192401927
B1151321925282N10016820WA0192101921
B1151361925298N10016826WA0191801921
B1151401925314N10016832WA0191501913
B1151441925330N10016837WA0191301913
B1151481925347N10016842WA0191001907
B1151521925363N10016847WA0190701907
B1151561925378N10016853WA0190401905
B1152001925395N10016858WA0190101898
B1152041925410N10016862WA0189801898
B1152081925426N10016868WA0189501895
B1152121925441N10016873WA0189201894
B1152161925457N10016878WA0188901888
B1152201925472N10016884WA0188701885
B1152241925486N10016889WA0188401882
B1152281925502N10016894WA0188101882
B1152321925519N10016899WA0187801880
B1152361925534N10016904WA0187501874
B1152401925550N10016909WA0187201873
B1152441925565N10016915WA0186901871
B1152481925581N10016921WA0186701865
B1152521925596N10016926WA0186401862
B1152561925613N10016932WA0186101860
B1153001925630N10016937WA0185801859
B1153041925645N10016942WA0185501858
B1153081925661N10016947WA0185201854
B1153121925677N10016952WA0184901849
B1153161925694N10016958WA0184601848
B1153201925711N10016963WA0184301845
B1153241925726N10016968WA0184001838
B1153281925742N10016973WA0183701836
B1153321925758N10016978WA0183401835
B1153361925774N10016983WA0183101831
B1153401925790N10016989WA0182901826
B1153441925806N10016994WA0182601827
B1153481925820N10017000WA0182301822
B1153521925836N10017006WA0182001823
B1153561925851N10017011WA0181701817
B1154001925866N10017016WA0181501816
B1154041925881N10017022WA0181201813
B1154081925896N10017027WA0180901811
B1154121925912N10017032WA0180601807
B1154161925927N10017037WA0180401806
B1154201925942N10017043WA0180101799
B1154241925959N10017048WA0179801801
B1154281925976N10017052WA0179501792
B1154321925992N10017057WA0179201790
B1154361926007N10017062WA0179001792
B1154401926023N10017067WA0178701790
B1154441926038N10017072WA0178401786
B1154481926053N10017078WA0178101783
B1154521926069N10017083WA0177801777
B1154561926085N10017089WA0177501777
B1155001926100N10017095WA0177201772
B1155041926116N10017101WA0177001767
B1155081926130N10017106WA0176701765
B1155121926147N10017111WA0176401766
B1155161926163N10017116WA0176101759
B1155201926178N10017122WA0175801760
B1155241926195N10017127WA0175501757
B1155281926211N10017132WA0175301751
B1155321926228N10017138WA0175001752
B1155361926244N10017144WA0174601749
B1155401926260N10017149WA0174301746
B1155441926274N10017155WA0174101741
B1155481926291N10017160WA0173801741
B1155521926307N10017164WA0173501732
B1155561926323N10017169WA0173201733
B1156001926339N10017175WA0172901727
B1156041926354N10017180WA0172601726
B1156081926371N10017186WA0172301721
B1156121926387N10017191WA0172001723
B1156161926403N10017196WA0171701716
B1156201926419N10017200WA0171401715
B1156241926434N10017206WA0171201714
B1156281926449N10017212WA0170901710
B1156321926464N10017217WA0170601708
B1156361926480N10017222WA0170301703
B1156401926494N10017227WA0170001701
B1156441926510N10017231WA0169701697
B1156481926525N10017237WA0169501695
B1156521926540N10017241WA0169201693
B1156561926557N10017247WA0168901688
B1157001926573N10017252WA0168601686
B1157041926590N10017257WA0168301686
B1157081926604N10017262WA0168001677
B1157121926621N10017268WA0167701679
B1157161926638N10017272WA0167401674
B1157201926654N10017278WA0167101671
B1157241926669N10017283WA0166801670
B1157281926686N10017288WA0166501664
B1157321926702N10017294WA0166201661
B1157361926716N10017299WA0166001659
B1157401926731N10017304WA0165701659
B1157441926747N10017309WA0165401656
B1157481926762N10017315WA0165101650
B1157521926776N10017321WA0164901646
B1157561926791N10017327WA0164601649
B1158001926806N10017332WA0164301641
B1158041926822N10017337WA0164001638
B1158081926838N10017342WA0163701636
B1158121926854N10017347WA0163401637
B1158161926869N10017352WA0163201629
B1158201926885N10017357WA0162901631
B1158241926901N10017362WA0162601627
B1158281926918N10017367WA0162301623
B1158321926933N10017372WA0162001621
B1158361926948N10017378WA0161801619
B1158401926965N10017383WA0161501616
B1158441926980N10017388WA0161201611
B1158481926994N10017394WA0160901608
B1158521927011N10017399WA0160601606
B1158561927027N10017404WA0160301600
B1159001927043N10017409WA0160001601
B1159041927059N10017413WA0159701598
B1159081927075N10017418WA0159401596
B1159121927092N10017423WA0159101592
B1159161927106N10017428WA0158801589
B1159201927121N10017434WA0158601585
B1159241927137N10017439WA0158301580
B1159281927154N10017444WA0158001580
B1159321927170N10017450WA0157701578
B1159361927185N10017455WA0157401577
B1159401927201N10017461WA0157201572
B1159441927215N10017466WA0156901566
B1159481927230N10017472WA0156601564
B1159521927246N10017476WA0156301565
B1159561927262N10017482WA0156001562
B1200001927278N10017488WA0155701560
B1200041927295N10017493WA0155401552
B1200081927311N10017498WA0155101551
B1200121927328N10017503WA0154801549
B1200161927344N10017508WA0154501543
B1200201927360N10017513WA0154201542
B1200241927377N10017519WA0153901538
B1200281927393N10017524WA0153601534
B1200321927409N10017529WA0153301530
B1200361927424N10017535WA0153001533
B1200401927440N10017540WA0152701526
B1200441927454N10017546WA0152501523
B1200481927470N10017551WA0152201519
B1200521927485N10017556WA0151901522
B1200561927502N10017561WA0151601514
B1201001927519N10017566WA0151301515
B1201041927535N10017572WA0151001511
B1201081927552N10017578WA0150701510
B1201121927567N10017583WA0150401505
B1201161927583N10017588WA0150101499
B1201201927600N10017593WA0149801500
B1201241927616N10017599WA0149501496
B1201281927632N10017604WA0149201492
B1201321927649N10017609WA0148901486
B1201361927665N10017615WA0148601484
B1201401927682N10017620WA0148301485
B1201441927698N10017625WA0148001479
B1201481927714N10017630WA0147701480
B1201521927731N10017635WA0147401473
B1201561927746N10017641WA0147101469
B1202001927761N10017646WA0146901471
B1202041927777N10017651WA0146601465
B1202081927792N10017656WA0146301465
B1202121927808N10017662WA0146001460
B1202161927824N10017667WA0145701455
B1202201927841N10017672WA0145401453
B1202241927857N10017678WA0145101454
B1202281927873N10017684WA0144801450
B1202321927888N10017690WA0144501443
B1202361927904N10017695WA0144301441
B1202401927919N10017700WA0144001438
B1202441927934N10017705WA0143801436
B1202481927951N10017710WA0143401434
B1202521927966N10017714WA0143201434
B1202561927981N10017720WA0142901430
B1203001927997N10017725WA0142601426
B1203041928012N10017730WA0142301425
B1203081928027N10017736WA0142101422
B1203121928042N10017742WA0141801421
B1203161928059N10017748WA0141501413
B1203201928075N10017754WA0141201414
B1203241928090N10017759WA0140901408
B1203281928107N10017765WA0140601403
B1203321928122N10017770WA0140301401
B1203361928138N10017775WA0140101398
B1203401928154N10017780WA0139701400
B1203441928170N10017785WA0139501395
B1203481928186N10017791WA0139201391
B1203521928203N10017796WA0138901388
B1203561928219N10017801WA0138601387
B1204001928234N10017807WA0138301381
B1204041928250N10017812WA0138101380
B1204081928266N10017818WA0137801375
B1204121928281N10017823WA0137501376
B1204161928297N10017829WA0137201372
B1204201928313N10017834WA0136901367
B1204241928328N10017840WA0136601367
B1204281928343N10017846WA0136301361
B1204321928360N10017851WA0136001359
B1204361928375N10017856WA0135701359
B1204401928391N10017862WA0135501353
B1204441928407N10017867WA0135201351
B1204481928422N10017872WA0135001348
B1204521928438N10017878WA0134701349
B1204561928455N10017883WA0134401344
B1205001928470N10017889WA0134101339
B1205041928484N10017894WA0133801341
B1205081928499N10017899WA0133601337
B1205121928514N10017904WA0133301332
B1205161928530N10017910WA0133001327
B1205201928545N10017915WA0132701326
B1205241928561N10017920WA0132401322
B1205281928576N10017925WA0132101321
B1205321928593N10017930WA0131801317
B1205361928609N10017935WA0131501316
B1205401928626N10017939WA0131201312
B1205441928641N10017945WA0131001308
B1205481928658N10017951WA0130701304
B1205521928673N10017956WA0130401301
B1205561928690N10017961WA0130101301
B1206001928707N10017966WA0129701298
B1206041928723N10017972WA0129401293
B1206081928729N10018004WA0130101304
B1206121928742N10018035WA0130801308
B1206161928760N10018063WA0131501313
B1206201928783N10018088WA0132201324
B1206241928810N10018107WA0132901330
B1206281928839N10018121WA0133601333
B1206321928869N10018127WA0134201340
B1206361928899N10018127WA0134901350
B1206401928926N10018122WA0135601357
B1206441928949N10018111WA0136301362
B1206481928967N10018096WA0136901370
B1206521928979N10018078WA0137601376
B1206561928986N10018060WA0138301385
B1207001928986N10018042WA0139001388
B1207041928980N10018027WA0139701395
B1207081928970N10018016WA0140401403
B1207121928956N10018010WA0141101413
B1207161928939N10018010WA0141701415
B1207201928922N10018017WA0142401421
B1207241928905N10018030WA0143101431
B1207281928891N10018050WA0143701440
B1207321928881N10018074WA0144401447
B1207361928875N10018103WA0145101454
B1207401928876N10018134WA0145801460
B1207441928882N10018166WA0146501467
B1207481928894N10018197WA0147201474
B1207521928913N10018225WA0147801481
B1207561928936N10018250WA0148501486
B1208001928963N10018269WA0149201494
B1208041928992N10018282WA0149901498
B1208081929022N10018289WA0150501508
B1208121929051N10018289WA0151201515
B1208161929078N10018283WA0151901520
B1208201929101N10018272WA0152601524
B1208241929119N10018257WA0153301530
B1208281929132N10018240WA0153901538
B1208321929138N10018221WA0154601549
B1208361929138N10018204WA0155301555
B1208401929133N10018189WA0156001562
B1208441929123N10018178WA0156701569
B1208481929108N10018172WA0157301576
B1208521929092N10018172WA0158001582
B1208561929074N10018179WA0158701588
B1209001929058N10018192WA0159301595
B1209041929044N10018211WA0160001599
B1209081929033N10018236WA0160701604
B1209121929028N10018264WA0161401614
B1209161929028N10018295WA0162101620
B1209201929034N10018327WA0162801629
B1209241929047N10018358WA0163401637
B1209281929065N10018387WA0164101640
B1209321929088N10018411WA0164801646
B1209361929115N10018431WA0165501657
B1209401929144N10018444WA0166201663
B1209441929174N10018451WA0166801671
B1209481929204N10018451WA0167501677
B1209521929230N10018445WA0168201685
B1209561929254N10018434WA0168901689
B1210001929272N10018419WA0169601694
B1210041929284N10018401WA0170301701
B1210081929291N10018383WA0170901710
B1210121929291N10018365WA0171601714
B1210161929285N10018350WA0172301723
B1210201929275N10018339WA0173001731
B1210241929261N10018333WA0173701735
B1210281929244N10018334WA0174301746
B1210321929227N10018340WA0175001750
B1210361929210N10018354WA0175701758
B1210401929196N10018373WA0176301763
B1210441929186N10018398WA0177001772
B1210481929180N10018426WA0177701777
B1210521929180N10018457WA0178401781
B1210561929186N10018456WA0178301783
B1211001929191N10018454WA0178201781
B1211041929197N10018453WA0178001779
B1211081929202N10018451WA0177901781
B1211121929207N10018450WA0177801779
B1211161929213N10018448WA0177701777
B1211201929218N10018447WA0177601775
B1211241929224N10018445WA0177501773
B1211281929229N10018444WA0177401774
B1211321929234N10018443WA0177301772
B1211361929240N10018441WA0177101770
B1211401929245N10018440WA0177001769
B1211441929251N10018438WA0176901769
B1211481929256N10018437WA0176801767
B1211521929261N10018435WA0176701769
B1211561929267N10018434WA0176601763
B1212001929272N10018432WA0176501762
B1212041929278N10018431WA0176401762
B1212081929283N10018429WA0176301761
B1212121929289N10018428WA0176201763
B1212161929294N10018426WA0176001758
B1212201929299N10018425WA0175901760
B1212241929305N10018424WA0175801761
B1212281929310N10018422WA0175701758
B1212321929316N10018421WA0175601754
B1212361929321N10018419WA0175501752
B1212401929326N10018418WA0175301754
B1212441929332N10018416WA0175201753
B1212481929337N10018415WA0175101751
B1212521929343N10018413WA0175001748
B1212561929348N10018412WA0174901751
B1213001929353N10018410WA0174801750
B1213041929359N10018409WA0174701745
B1213081929364N10018407WA0174601748
B1213121929370N10018406WA0174501743
B1213161929375N10018405WA0174401747
B1213201929380N10018403WA0174301742
B1213241929386N10018402WA0174201742
B1213281929391N10018400WA0174101740
B1213321929397N10018399WA0174001741
B1213361929402N10018397WA0173801738
B1213401929407N10018396WA0173701736
B1213441929413N10018394WA0173601737
B1213481929418N10018393WA0173501734
B1213521929424N10018391WA0173401733
B1213561929429N10018390WA0173301732
B1214001929434N10018389WA0173201733
B1214041929440N10018387WA0173001733
B1214081929445N10018386WA0172901728
B1214121929451N10018384WA0172801728
B1214161929456N10018383WA0172701728
B1214201929461N10018381WA0172601729
B1214241929467N10018380WA0172501722
B1214281929472N10018378WA0172401726
B1214321929478N10018377WA0172201720
B1214361929483N10018375WA0172101724
B1214401929488N10018374WA0172001721
B1214441929494N10018372WA0171901721
B1214481929499N10018371WA0171801717
B1214521929505N10018370WA0171701716
B1214561929510N10018368WA0171601718
B1215001929516N10018367WA0171501714
B1215041929521N10018365WA0171401713
B1215081929526N10018364WA0171301714
B1215121929532N10018362WA0171201710
B1215161929537N10018361WA0171001709
B1215201929543N10018359WA0170901708
B1215241929548N10018358WA0170801709
B1215281929553N10018356WA0170701707
B1215321929559N10018355WA0170601704
B1215361929564N10018354WA0170501703
B1215401929570N10018352WA0170401702
B1215441929575N10018351WA0170201699
B1215481929580N10018349WA0170101702
B1215521929586N10018348WA0170001701
B1215561929591N10018346WA0169901699
B1216001929597N10018345WA0169801699
B1216041929602N10018343WA0169701699
B1216081929607N10018342WA0169601696
B1216121929613N10018340WA0169501693
B1216161929618N10018339WA0169401697
B1216201929624N10018337WA0169301694
B1216241929629N10018336WA0169101694
B1216281929634N10018335WA0169001688
B1216321929640N10018333WA0168901688
B1216361929645N10018332WA0168801687
B1216401929651N10018330WA0168701688
B1216441929656N10018329WA0168601685
B1216481929661N10018327WA0168401684
B1216521929667N10018326WA0168301681
B1216561929672N10018324WA0168201680
B1217001929678N10018323WA0168101684
B1217041929683N10018321WA0168001681
B1217081929688N10018320WA0167901680
B1217121929694N10018318WA0167801677
B1217161929699N10018317WA0167701677
B1217201929705N10018316WA0167601678
B1217241929710N10018314WA0167501677
B1217281929716N10018313WA0167401672
B1217321929721N10018311WA0167201675
B1217361929726N10018310WA0167101671
B1217401929732N10018308WA0167001668
B1217441929737N10018307WA0166901667
B1217481929743N10018305WA0166801666
B1217521929748N10018304WA0166701667
B1217561929753N10018302WA0166501663
B1218001929759N10018301WA0166401667
B1218041929764N10018300WA0166301660
B1218081929770N10018298WA0166201663
B1218121929775N10018297WA0166101662
B1218161929780N10018295WA0166001658
B1218201929786N10018294WA0165901657
B1218241929791N10018292WA0165701658
B1218281929797N10018291WA0165601658
B1218321929802N10018289WA0165501655
B1218361929807N10018288WA0165401651
B1218401929813N10018286WA0165301655
B1218441929818N10018285WA0165101649
B1218481929824N10018283WA0165001649
B1218521929829N10018282WA0164901652
B1218561929834N10018281WA0164801645
B1219001929840N10018279WA0164701646
B1219041929845N10018278WA0164601646
B1219081929851N10018276WA0164501645
B1219121929856N10018275WA0164401641
B1219161929861N10018273WA0164201645
B1219201929867N10018272WA0164101642
B1219241929872N10018270WA0164001639
B1219281929878N10018269WA0163901637
B1219321929883N10018267WA0163801635
B1219361929888N10018266WA0163701637
B1219401929894N10018264WA0163601636
B1219441929899N10018263WA0163501635
B1219481929905N10018262WA0163401632
B1219521929910N10018260WA0163301634
B1219561929916N10018259WA0163201630
B1220001929921N10018257WA0163101628
B1220041929926N10018256WA0163001632
B1220081929932N10018254WA0162901626
B1220121929937N10018253WA0162801625
B1220161929943N10018251WA0162601625
B1220201929948N10018250WA0162501628
B1220241929953N10018248WA0162401627
B1220281929959N10018247WA0162301625
B1220321929964N10018246WA0162201625
B1220361929970N10018244WA0162101623
B1220401929975N10018243WA0162001622
B1220441929980N10018241WA0161901620
B1220481929986N10018240WA0161801618
B1220521929991N10018238WA0161701620
B1220541929991N10018237WA0161301611
B1220561929991N10018235WA0161001607
B1220581929991N10018233WA0160601607
B1221001929991N10018231WA0160301604
B1221021929991N10018230WA0159901602
B1221041929991N10018228WA0159601597
B1221061929991N10018226WA0159201595
B1221081929991N10018225WA0158901587
B1221101929991N10018223WA0158501586
B1221121929991N10018221WA0158201581
B1221141929991N10018219WA0157801577
B1221161929991N10018218WA0157501576
