AXXXABC FLIGHT RECORDER TEST
HFDTE200926
HFPLTPILOTINCHARGE:VIENTO-O
HFGTYGLIDERTYPE:Test Wing
HFFTYFRTYPE:Test Vario
HOFTYFRTYPE:none
HODTM100GPSDATUM:WGS-1984
B1030041921053N10007343WA0210102104
B1030081921057N10007329WA0210202100
B1030121921062N10007315WA0210302106
B1030161921066N10007301WA0210502102
B1030201921071N10007288WA0210602104
B1030241921076N10007273WA0210702106
B1030281921081N10007260WA0210802107
B1030321921086N10007246WA0210902106
B1030361921090N10007231WA0211002113
B1030401921095N10007217WA0211102112
B1030441921099N10007203WA0211202113
B1030481921103N10007189WA0211402116
B1030521921108N10007175WA0211502114
B1030561921111N10007161WA0211602116
B1031001921115N10007146WA0211702116
B1031041921119N10007132WA0211902120
B1031081921124N10007117WA0212002121
B1031121921128N10007103WA0212102118
B1031161921132N10007088WA0212202125
B1031201921136N10007073WA0212302123
B1031241921141N10007059WA0212402124
B1031281921145N10007044WA0212602127
B1031321921149N10007030WA0212702130
B1031361921153N10007016WA0212802130
B1031401921157N10007000WA0212902131
B1031441921161N10006985WA0213002127
B1031481921165N10006971WA0213102133
B1031521921168N10006956WA0213202131
B1031561921172N10006940WA0213402132
B1032001921176N10006926WA0213502134
B1032041921180N10006910WA0213602134
B1032081921184N10006895WA0213702138
B1032121921187N10006880WA0213802136
B1032161921192N10006865WA0213902138
B1032201921195N10006849WA0214002138
B1032241921199N10006833WA0214102143
B1032281921202N10006818WA0214202142
B1032321921206N10006802WA0214402144
B1032361921209N10006787WA0214502146
B1032401921212N10006772WA0214602145
B1032441921204N10006749WA0214402142
B1032481921197N10006726WA0214202144
B1032521921190N10006703WA0214002140
B1032561921182N10006679WA0213802135
B1033001921174N10006656WA0213602136
B1033041921168N10006633WA0213402134
B1033081921161N10006610WA0213202131
B1033121921154N10006586WA0213002129
B1033161921147N10006562WA0212802127
B1033201921140N10006539WA0212602126
B1033241921132N10006515WA0212402125
B1033281921125N10006492WA0212202123
B1033321921118N10006469WA0212002121
B1033361921110N10006446WA0211802119
B1033401921104N10006422WA0211602116
B1033441921098N10006400WA0211402112
B1033481921091N10006378WA0211202113
B1033521921085N10006354WA0211002108
B1033561921078N10006331WA0210702107
B1034001921071N10006309WA0210602103
B1034041921064N10006286WA0210402101
B1034081921057N10006263WA0210202101
B1034121921049N10006239WA0209902098
B1034161921043N10006217WA0209702098
B1034201921036N10006194WA0209502096
B1034241921029N10006170WA0209302091
B1034281921022N10006148WA0209102091
B1034321921016N10006125WA0209002090
B1034361921010N10006104WA0208802086
B1034401921004N10006081WA0208602086
B1034441920997N10006057WA0208402083
B1034481920991N10006034WA0208202084
B1034521920983N10006010WA0207902082
B1034561920977N10005988WA0207702076
B1035001920970N10005965WA0207502077
B1035041920963N10005942WA0207302071
B1035081920956N10005919WA0207102074
B1035121920949N10005896WA0207002072
B1035161920942N10005873WA0206802067
B1035201920935N10005850WA0206502064
B1035241920929N10005826WA0206302060
B1035281920921N10005803WA0206102063
B1035321920914N10005779WA0205902060
B1035361920907N10005756WA0205702060
B1035401920900N10005732WA0205502053
B1035441920894N10005709WA0205302054
B1035481920886N10005684WA0205102051
B1035521920879N10005661WA0204902051
B1035561920873N10005638WA0204702046
B1036001920865N10005614WA0204402046
B1036041920859N10005592WA0204302040
B1036081920853N10005569WA0204002039
B1036121920845N10005546WA0203802036
B1036161920839N10005523WA0203602038
B1036201920831N10005499WA0203402036
B1036241920824N10005476WA0203202031
B1036281920816N10005452WA0203002028
B1036321920809N10005429WA0202802030
B1036361920801N10005406WA0202502026
B1036401920795N10005383WA0202402023
B1036441920789N10005360WA0202202024
B1036481920783N10005338WA0202002020
B1036521920776N10005315WA0201702015
B1036561920769N10005292WA0201602017
B1037001920761N10005269WA0201302016
B1037041920755N10005247WA0201202011
B1037081920748N10005224WA0201002008
B1037121920742N10005201WA0200802010
B1037161920735N10005177WA0200502007
B1037201920728N10005154WA0200302006
B1037241920721N10005131WA0200102004
B1037281920715N10005109WA0200001999
B1037321920708N10005085WA0199801999
B1037361920701N10005061WA0199501994
B1037401920694N10005040WA0199301996
B1037441920687N10005016WA0199101992
B1037481920680N10004993WA0198901991
B1037521920674N10004969WA0198701990
B1037561920666N10004945WA0198501986
B1038001920660N10004923WA0198301982
B1038041920653N10004899WA0198101984
B1038081920646N10004875WA0197901979
B1038121920639N10004852WA0197701976
B1038161920634N10004829WA0197501976
B1038201920626N10004806WA0197301973
B1038241920619N10004783WA0197101969
B1038281920612N10004760WA0196901968
B1038321920606N10004738WA0196701964
B1038361920600N10004715WA0196501968
B1038401920593N10004692WA0196301966
B1038441920587N10004670WA0196101964
B1038481920580N10004648WA0195901959
B1038521920574N10004624WA0195701957
B1038561920568N10004602WA0195501955
B1039001920561N10004578WA0195301952
B1039041920554N10004556WA0195101951
B1039081920547N10004532WA0194901950
B1039121920540N10004508WA0194701945
B1039161920534N10004485WA0194501946
B1039201920526N10004462WA0194301944
B1039241920519N10004438WA0194101943
B1039281920511N10004415WA0193801941
B1039321920504N10004392WA0193601937
B1039361920496N10004368WA0193401935
B1039401920491N10004346WA0193201935
B1039441920484N10004322WA0193001930
B1039481920477N10004299WA0192801928
B1039521920470N10004277WA0192601925
B1039561920463N10004253WA0192401922
B1040001920457N10004230WA0192201921
B1040041920449N10004207WA0192001921
B1040081920442N10004185WA0191801919
B1040121920435N10004161WA0191601913
B1040161920429N10004138WA0191401911
B1040201920422N10004115WA0191201910
B1040241920415N10004092WA0191001911
B1040281920408N10004070WA0190801908
B1040321920401N10004047WA0190601906
B1040361920395N10004024WA0190401907
B1040401920387N10004000WA0190201901
B1040441920380N10003978WA0190001902
B1040481920373N10003954WA0189801899
B1040521920366N10003931WA0189601894
B1040561920359N10003907WA0189401891
B1041001920353N10003884WA0189201892
B1041041920346N10003861WA0189001888
B1041081920338N10003838WA0188801889
B1041121920331N10003815WA0188601886
B1041161920324N10003791WA0188401885
B1041201920317N10003768WA0188201881
B1041241920309N10003744WA0188001880
B1041281920303N10003720WA0187801879
B1041321920298N10003698WA0187601873
B1041361920291N10003676WA0187401876
B1041401920285N10003653WA0187201870
B1041441920278N10003630WA0187001868
B1041481920272N10003607WA0186801869
B1041521920265N10003584WA0186601867
B1041561920259N10003561WA0186401865
B1042001920252N10003539WA0186201859
B1042041920245N10003515WA0186001859
B1042081920237N10003492WA0185801857
B1042121920230N10003469WA0185601856
B1042161920224N10003446WA0185401852
B1042201920217N10003422WA0185201854
B1042241920209N10003398WA0185001851
B1042281920202N10003375WA0184801848
B1042321920195N10003352WA0184501843
B1042361920188N10003329WA0184301845
B1042401920181N10003306WA0184101841
B1042441920174N10003283WA0183901839
B1042481920168N10003260WA0183701837
B1042521920160N10003236WA0183501835
B1042561920153N10003214WA0183301833
B1043001920146N10003190WA0183101829
B1043041920138N10003167WA0182901827
B1043081920132N10003144WA0182701825
B1043121920124N10003121WA0182501824
B1043161920117N10003098WA0182301824
B1043201920111N10003075WA0182101818
B1043241920104N10003052WA0181901818
B1043281920098N10003030WA0181701817
B1043321920091N10003007WA0181501812
B1043361920084N10002984WA0181301814
B1043401920077N10002961WA0181101809
B1043441920070N10002939WA0180901806
B1043481920064N10002916WA0180701807
B1043521920057N10002893WA0180501805
B1043561920049N10002869WA0180201805
B1044001920042N10002846WA0180101799
B1044041920035N10002824WA0179901798
B1044081920028N10002799WA0179601799
B1044121920020N10002776WA0179401797
B1044161920013N10002753WA0179201795
B1044201920006N10002729WA0179001792
B10442419191000N10002706WA0178801789
B1044281919992N10002682WA0178601788
B1044321919984N10002659WA0178401783
B1044361919978N10002636WA0178201779
B1044401919970N10002612WA0178001781
B1044441919964N10002589WA0177801777
B1044481919956N10002565WA0177601778
B1044521919949N10002543WA0177401776
B1044561919941N10002519WA0177201774
B1045001919934N10002496WA0177001770
B1045041919927N10002473WA0176801767
B1045081919921N10002450WA0176601764
B1045121919914N10002427WA0176401763
B1045161919907N10002403WA0176201764
B1045201919900N10002380WA0176001761
B1045241919893N10002357WA0175801760
B1045281919887N10002334WA0175601756
B1045321919881N10002311WA0175401752
B1045361919875N10002289WA0175201754
B1045401919867N10002267WA0175001753
B1045441919860N10002243WA0174801749
B1045481919853N10002220WA0174601745
B1045521919846N10002198WA0174401744
B1045561919839N10002174WA0174201743
B1046001919833N10002150WA0174001738
B1046041919826N10002128WA0173801736
B1046081919820N10002106WA0173601735
B1046121919814N10002083WA0173401736
B1046161919807N10002059WA0173201731
B1046201919801N10002036WA0173001728
B1046241919793N10002012WA0172801726
B1046281919786N10001989WA0172601729
B1046321919778N10001965WA0172401722
B1046361919771N10001941WA0172201724
B1046401919765N10001918WA0172001723
B1046441919758N10001894WA0171701720
B1046481919751N10001870WA0171501715
B1046521919744N10001847WA0171301714
B1046561919737N10001824WA0171201710
B1047001919730N10001800WA0170901708
B1047041919724N10001777WA0170701704
B1047081919716N10001754WA0170501703
B1047121919709N10001731WA0170301704
B1047161919701N10001707WA0170101703
B1047201919694N10001685WA0169901700
B1047241919688N10001663WA0169701697
B1047281919682N10001641WA0169501692
B1047321919675N10001618WA0169301694
B1047361919667N10001595WA0169101690
B1047401919660N10001573WA0168901690
B1047441919654N10001549WA0168701689
B1047481919647N10001527WA0168501684
B1047521919641N10001504WA0168301686
B1047561919634N10001481WA0168201681
B1048001919629N10001458WA0168001680
B1048041919622N10001436WA0167801681
B1048081919615N10001412WA0167601674
B1048121919609N10001390WA0167401675
B1048161919602N10001366WA0167201670
B1048201919595N10001343WA0167001670
B1048241919589N10001321WA0166801667
B1048281919581N10001298WA0166601668
B1048321919573N10001273WA0166401662
B1048361919567N10001251WA0166201661
B1048401919559N10001228WA0166001661
B1048441919553N10001205WA0165801661
B1048481919546N10001182WA0165601653
B1048521919539N10001158WA0165301654
B1048561919532N10001135WA0165101649
B1049001919525N10001112WA0165001651
B1049041919518N10001089WA0164701648
B1049081919510N10001065WA0164501647
B1049121919503N10001043WA0164301644
B1049161919496N10001019WA0164101640
B1049201919489N10000996WA0163901640
B1049241919482N10000973WA0163701637
B1049281919474N10000949WA0163501633
B1049321919467N10000925WA0163301631
B1049361919460N10000903WA0163101633
B1049401919452N10000878WA0162901627
B1049441919445N10000855WA0162601627
B1049481919438N10000833WA0162401622
B1049521919431N10000809WA0162201619
B1049561919424N10000786WA0162001620
B1050001919417N10000764WA0161801619
B1050041919410N10000741WA0161701614
B1050081919403N10000717WA0161401613
B1050121919398N10000695WA0161301614
B1050161919392N10000672WA0161101612
B1050201919384N10000648WA0160901606
B1050241919378N10000625WA0160601606
B1050281919370N10000600WA0160401602
B1050321919363N10000578WA0160201605
B1050361919356N10000556WA0160001599
B1050401919349N10000532WA0159801600
B1050441919341N10000507WA0159601596
B1050481919334N10000484WA0159301596
B1050521919327N10000461WA0159101593
B1050561919321N10000439WA0158901591
B1051001919314N10000415WA0158701589
B1051041919309N10000393WA0158601586
B1051081919301N10000370WA0158301582
B1051121919295N10000347WA0158201582
B1051161919288N10000325WA0158001581
B1051201919282N10000303WA0157801580
B1051241919276N10000281WA0157601578
B1051281919270N10000259WA0157401575
B1051321919263N10000236WA0157201574
B1051361919255N10000212WA0157001568
B1051401919246N10000188WA0156801571
B1051441919240N10000165WA0156601566
B1051481919232N10000142WA0156401563
B1051521919225N10000118WA0156101559
B1051561919218N10000095WA0155901560
B1052001919211N10000072WA0155701557
B1052041919206N10000049WA0155501552
B1052081919200N10000026WA0155301552
B1052121919193N10000002WA0155101553
B1052161919185N09959979WA0154901551
B1052201919179N09959956WA0154701545
B1052241919173N09959934WA0154501545
B1052281919167N09959911WA0154301543
B1052321919161N09959888WA0154101541
B1052361919153N09959865WA0153901542
B1052401919153N09959874WA0154901546
B1052441919159N09959882WA0155801557
B1052481919171N09959888WA0156701569
B1052521919187N09959890WA0157601575
B1052561919208N09959887WA0158601586
B1053001919231N09959878WA0159501593
B1053041919255N09959862WA0160501604
B1053081919278N09959839WA0161401613
B1053121919298N09959811WA0162401623
B1053161919315N09959777WA0163301631
B1053201919327N09959740WA0164201643
B1053241919333N09959700WA0165201654
B1053281919333N09959659WA0166101664
B1053321919327N09959618WA0167001672
B1053361919315N09959581WA0168001677
B1053401919298N09959547WA0168901692
B1053441919278N09959519WA0169801696
B1053481919255N09959496WA0170801706
B1053521919231N09959480WA0171701720
B1053561919208N09959471WA0172601726
B1054001919187N09959468WA0173601736
B1054041919171N09959470WA0174501743
B1054081919159N09959476WA0175401755
B1054121919153N09959484WA0176401766
B1054161919153N09959493WA0177301774
B1054201919159N09959502WA0178201785
B1054241919171N09959508WA0179201789
B1054281919187N09959509WA0180101799
B1054321919208N09959506WA0181101813
B1054361919231N09959497WA0182001819
B1054401919255N09959481WA0183001829
B1054441919278N09959459WA0183901841
B1054481919298N09959430WA0184801846
B1054521919315N09959397WA0185701856
B1054561919327N09959359WA0186701867
B1055001919333N09959319WA0187601876
B1055041919333N09959278WA0188601886
B1055081919327N09959238WA0189501898
B1055121919315N09959200WA0190501907
B1055161919298N09959166WA0191401914
B1055201919278N09959138WA0192301921
B1055241919255N09959116WA0193301932
B1055281919231N09959100WA0194201942
B1055321919208N09959090WA0195101951
B1055361919187N09959087WA0196101960
B1055401919171N09959089WA0197001970
B1055441919159N09959095WA0198001981
B1055481919153N09959103WA0198901986
B1055521919153N09959113WA0199801996
B1055561919159N09959121WA0200802009
B1056001919171N09959127WA0201702018
B1056041919187N09959129WA0202702026
B1056081919208N09959125WA0203602036
B1056121919231N09959116WA0204502044
B1056161919255N09959100WA0205402057
B1056201919278N09959078WA0206402063
B1056241919298N09959049WA0207302071
B1056281919315N09959016WA0208202082
B1056321919327N09958978WA0209202094
B1056361919333N09958938WA0210102101
B1056401919333N09958897WA0211002112
B1056441919327N09958857WA0212002120
B1056481919315N09958819WA0212902131
B1056521919298N09958786WA0213902137
B1056561919278N09958757WA0214802149
B1057001919255N09958735WA0215702156
B1057041919231N09958719WA0216702166
B1057081919208N09958710WA0217602174
B1057121919187N09958706WA0218502188
B1057161919171N09958708WA0219502196
B1057201919159N09958714WA0220402202
B1057241919153N09958722WA0221402216
B1057281919146N09958715WA0221102209
B1057321919139N09958706WA0220902208
B1057361919133N09958699WA0220702204
B1057401919126N09958690WA0220502204
B1057441919119N09958682WA0220302206
B1057481919113N09958675WA0220102199
B1057521919107N09958666WA0219902197
B1057561919101N09958658WA0219702199
B1058001919095N09958649WA0219502192
B1058041919088N09958641WA0219302193
B1058081919080N09958634WA0219002191
B1058121919073N09958627WA0218802189
B1058161919067N09958618WA0218602186
B1058201919060N09958610WA0218402182
B1058241919053N09958602WA0218202181
B1058281919046N09958594WA0218002181
B1058321919039N09958586WA0217802179
B1058361919033N09958577WA0217602176
B1058401919027N09958569WA0217402175
B1058441919021N09958560WA0217102169
B1058481919015N09958551WA0216902168
B1058521919009N09958544WA0216702166
B1058561919002N09958537WA0216502166
B1059001918996N09958527WA0216302166
B1059041918990N09958519WA0216102162
B1059081918984N09958512WA0215902158
B1059121918977N09958504WA0215702154
B1059161918970N09958497WA0215502152
B1059201918964N09958489WA0215202150
B1059241918956N09958480WA0215002148
B1059281918951N09958471WA0214902151
B1059321918944N09958464WA0214602144
B1059361918937N09958455WA0214402147
B1059401918931N09958447WA0214202141
B1059441918925N09958439WA0214102143
B1059481918920N09958430WA0213902136
B1059521918913N09958421WA0213702136
B1059561918908N09958412WA0213502137
B1100001918901N09958404WA0213302135
B1100041918894N09958396WA0213102128
B1100081918887N09958389WA0212802131
B1100121918881N09958381WA0212602129
B1100161918873N09958373WA0212402122
B1100201918867N09958366WA0212202121
B1100241918860N09958357WA0212002118
B1100281918853N09958349WA0211802116
B1100321918848N09958340WA0211602115
B1100361918842N09958331WA0211402111
B1100401918835N09958323WA0211202111
B1100441918828N09958314WA0210902108
B1100481918822N09958305WA0210802108
B1100521918814N09958297WA0210502107
B1100561918807N09958289WA0210302105
B1101001918800N09958282WA0210102100
B1101041918794N09958273WA0209902098
B1101081918788N09958266WA0209702096
B1101121918781N09958258WA0209502094
B1101161918775N09958249WA0209302096
B1101201918769N09958241WA0209102089
B1101241918762N09958232WA0208902087
B1101281918757N09958223WA0208702090
B1101321918751N09958214WA0208502084
B1101361918745N09958207WA0208302083
B1101401918739N09958197WA0208102084
B1101441918731N09958190WA0207902078
B1101481918724N09958181WA0207702079
B1101521918717N09958173WA0207502077
B1101561918710N09958165WA0207302072
B1102001918703N09958157WA0207002070
B1102041918697N09958148WA0206802071
B1102081918690N09958140WA0206602063
B1102121918683N09958132WA0206402064
B1102161918675N09958124WA0206202061
B1102201918668N09958116WA0206002060
B1102241918662N09958108WA0205802058
B1102281918655N09958100WA0205502055
B1102321918649N09958091WA0205302056
B1102361918642N09958083WA0205102051
B1102401918636N09958075WA0204902049
B1102441918630N09958066WA0204702048
B1102481918623N09958058WA0204502045
B1102521918617N09958050WA0204302046
B1102561918611N09958042WA0204102040
B1103001918605N09958032WA0204002040
B1103041918599N09958024WA0203802037
B1103081918592N09958016WA0203502033
B1103121918584N09958008WA0203302036
B1103161918577N09958001WA0203102029
B1103201918570N09957994WA0202802031
B1103241918564N09957985WA0202702028
B1103281918558N09957976WA0202502026
B1103321918552N09957967WA0202302025
B1103361918546N09957958WA0202102022
B1103401918538N09957951WA0201802016
B1103441918532N09957943WA0201602015
B1103481918526N09957935WA0201402017
B1103521918519N09957926WA0201202013
B1103561918513N09957917WA0201002010
B1104001918507N09957908WA0200802008
B1104041918500N09957899WA0200602008
B1104081918494N09957891WA0200402004
B1104121918488N09957882WA0200202002
B1104161918482N09957872WA0200002001
B1104201918476N09957864WA0199801998
B1104241918470N09957855WA0199601999
B1104281918464N09957847WA0199401997
B1104321918457N09957838WA0199201991
B1104361918451N09957828WA0199101992
B1104401918445N09957818WA0198901986
B1104441918438N09957810WA0198701987
B1104481918431N09957802WA0198401987
B1104521918423N09957795WA0198201982
B1104561918416N09957787WA0198001982
B1105001918410N09957778WA0197801979
B1105041918404N09957769WA0197601977
B1105081918397N09957761WA0197401974
B1105121918390N09957753WA0197101972
B1105161918384N09957744WA0197001968
B1105201918378N09957736WA0196801967
B1105241918372N09957727WA0196601966
B1105281918364N09957719WA0196301966
B1105321918358N09957710WA0196101963
B1105361918352N09957701WA0195901961
B1105401918345N09957693WA0195701958
B1105441918339N09957685WA0195501957
B1105481918333N09957676WA0195301951
B1105521918326N09957668WA0195101951
B1105561918320N09957661WA0194901952
B1106001918314N09957652WA0194701948
B1106041918308N09957643WA0194501943
B1106081918301N09957635WA0194301944
B1106121918295N09957627WA0194101942
B1106161918290N09957617WA0193901939
B1106201918284N09957609WA0193701937
B1106241918278N09957600WA0193501936
B1106281918272N09957591WA0193301934
B1106321918266N09957581WA0193101929
B1106361918258N09957573WA0192901929
B1106401918252N09957564WA0192701925
B1106441918246N09957556WA0192501924
B1106481918240N09957547WA0192301923
B1106521918233N09957538WA0192101922
B1106561918227N09957531WA0191901921
B1107001918222N09957522WA0191701917
B1107041918215N09957515WA0191501912
B1107081918208N09957506WA0191301914
B1107121918202N09957499WA0191101910
B1107161918195N09957490WA0190901909
B1107201918189N09957481WA0190701906
B1107241918184N09957472WA0190501904
B1107281918177N09957464WA0190301900
B1107321918171N09957455WA0190101900
B1107361918165N09957447WA0189901897
B1107401918158N09957439WA0189701898
B1107441918151N09957429WA0189501897
B1107481918145N09957420WA0189301891
B1107521918138N09957413WA0189101889
B1107561918132N09957405WA0188901887
B1108001918126N09957396WA0188701889
B1108041918118N09957388WA0188501885
B1108081918112N09957379WA0188301880
B1108121918105N09957371WA0188101879
B1108161918099N09957363WA0187901876
B1108201918093N09957355WA0187701879
B1108241918086N09957347WA0187501877
B1108281918081N09957338WA0187301876
B1108321918074N09957330WA0187101869
B1108361918068N09957322WA0186901871
B1108401918062N09957313WA0186701865
B1108441918055N09957305WA0186501867
B1108481918048N09957298WA0186301861
B1108521918041N09957290WA0186001860
B1108561918034N09957282WA0185801859
B1109001918026N09957274WA0185601859
B1109041918019N09957265WA0185401855
B1109081918014N09957256WA0185201852
B1109121918008N09957248WA0185001853
B1109161918002N09957240WA0184801846
B1109201917995N09957232WA0184601847
B1109241917989N09957223WA0184401842
B1109281917982N09957215WA0184201840
B1109321917976N09957206WA0184001841
B1109361917970N09957196WA0183801841
B1109401917964N09957189WA0183601833
B1109441917956N09957182WA0183401835
B1109481917950N09957173WA0183201833
B1109521917943N09957165WA0182901827
B1109561917937N09957156WA0182701826
B1110001917931N09957148WA0182501825
B1110041917925N09957140WA0182301825
B1110081917918N09957132WA0182101819
B1110121917912N09957123WA0181901819
B1110161917906N09957115WA0181701818
B1110201917900N09957108WA0181501817
B1110241917893N09957099WA0181301812
B1110281917886N09957090WA0181101809
B1110321917880N09957082WA0180901807
B1110361917873N09957074WA0180601806
B1110401917868N09957065WA0180401805
B1110441917862N09957056WA0180201803
B1110481917856N09957047WA0180101803
B1110521917849N09957040WA0179801798
B1110561917843N09957032WA0179601794
B1111001917837N09957023WA0179401796
B1111041917831N09957015WA0179201790
B1111081917825N09957005WA0179101793
B1111121917819N09956997WA0178901789
B1111161917812N09956988WA0178701788
B1111201917805N09956980WA0178501787
B1111241917799N09956972WA0178201780
B1111281917792N09956964WA0178001779
B1111321917785N09956955WA0177801776
B1111361917778N09956948WA0177601775
B1111401917773N09956938WA0177401773
B1111441917766N09956930WA0177201770
B1111481917759N09956921WA0177001770
B1111521917753N09956913WA0176801765
B1111561917747N09956904WA0176601764
B1112001917740N09956895WA0176401763
B1112041917733N09956888WA0176101761
B1112081917726N09956880WA0175901757
B1112121917720N09956872WA0175701757
B1112161917714N09956864WA0175501754
B1112201917707N09956856WA0175301755
B1112241917700N09956848WA0175101752
B1112281917693N09956840WA0174901750
B1112321917685N09956832WA0174601748
B1112361917679N09956824WA0174401744
B1112401917673N09956816WA0174201745
B1112441917666N09956808WA0174001743
B1112481917660N09956801WA0173801735
B1112521917652N09956793WA0173601738
B1112561917647N09956784WA0173401735
B1113001917640N09956776WA0173201730
B1113041917633N09956768WA0173001728
B1113081917627N09956759WA0172801727
B1113121917621N09956750WA0172601726
B1113161917616N09956741WA0172401721
B1113201917608N09956733WA0172201725
B1113241917602N09956725WA0172001717
B1113281917595N09956717WA0171701717
B1113321917588N09956709WA0171501715
B1113361917582N09956700WA0171301713
B1113401917576N09956692WA0171101712
B1113441917570N09956683WA0170901709
B1113481917564N09956674WA0170701709
B1113521917557N09956666WA0170501702
B1113561917552N09956657WA0170301702
B1114001917544N09956649WA0170101700
B1114041917538N09956641WA0169901697
B1114081917533N09956632WA0169701696
B1114121917527N09956623WA0169501697
B1114161917520N09956615WA0169301693
B1114201917514N09956606WA0169101689
B1114241917508N09956597WA0168901689
B1114281917501N09956589WA0168701687
B1114321917495N09956580WA0168501687
B1114361917489N09956572WA0168301686
B1114401917482N09956563WA0168101679
B1114441917476N09956554WA0167901676
B1114481917468N09956546WA0167701677
B1114521917462N09956538WA0167401672
B1114561917456N09956529WA0167301673
B1115001917456N09956538WA0168101679
B1115041917462N09956547WA0168801689
B1115081917474N09956553WA0169601695
B1115121917491N09956554WA0170401701
B1115161917511N09956551WA0171201709
B1115201917534N09956542WA0172001723
B1115241917558N09956526WA0172801727
B1115281917581N09956504WA0173601735
B1115321917601N09956475WA0174401745
B1115361917618N09956441WA0175201751
B1115401917630N09956404WA0176001757
B1115441917636N09956364WA0176801766
B1115481917636N09956323WA0177501776
B1115521917630N09956283WA0178401784
B1115561917618N09956245WA0179101789
B1116001917601N09956211WA0179901800
B1116041917581N09956183WA0180701809
B1116081917558N09956161WA0181501816
B1116121917534N09956145WA0182301821
B1116161917511N09956135WA0183101830
B1116201917491N09956132WA0183901838
B1116241917474N09956134WA0184701846
B1116281917462N09956140WA0185501853
B1116321917456N09956148WA0186301860
B1116361917456N09956158WA0187101873
B1116401917462N09956166WA0187901880
B1116441917474N09956172WA0188701890
B1116481917491N09956174WA0189501896
B1116521917511N09956170WA0190301903
B1116561917534N09956161WA0191101911
B1117001917558N09956145WA0191901919
B1117041917581N09956123WA0192701929
B1117081917601N09956094WA0193501935
B1117121917618N09956061WA0194301944
B1117161917630N09956023WA0195001950
B1117201917636N09955983WA0195801959
B1117241917636N09955942WA0196601964
B1117281917630N09955902WA0197401976
B1117321917618N09955864WA0198201984
B1117361917601N09955831WA0199001992
B1117401917581N09955802WA0199802001
B1117441917558N09955780WA0200602007
B1117481917534N09955764WA0201402014
B1117521917511N09955755WA0202202021
B1117561917491N09955751WA0203002029
B1118001917474N09955753WA0203802040
B1118041917462N09955759WA0204602048
B1118081917456N09955768WA0205402053
B1118121917456N09955777WA0206202063
B1118161917462N09955785WA0207002070
B1118201917474N09955791WA0207802077
B1118241917491N09955793WA0208602084
B1118281917511N09955790WA0209402095
B1118321917534N09955780WA0210202100
B1118361917558N09955764WA0211002108
B1118401917581N09955742WA0211802120
B1118441917601N09955714WA0212602124
B1118481917618N09955680WA0213402136
B1118521917630N09955642WA0214202139
B1118561917636N09955602WA0215002150
B1119001917636N09955561WA0215802157
B1119041917630N09955521WA0216602165
B1119081917618N09955484WA0217402173
B1119121917601N09955450WA0218202183
B1119161917581N09955422WA0219002191
B1119201917558N09955399WA0219802195
B1119241917534N09955383WA0220502207
B1119281917511N09955374WA0221302215
B1119321917491N09955371WA0222102223
B1119361917474N09955373WA0222902232
B1119401917462N09955378WA0223702235
B1119441917456N09955387WA0224502246
B1119481917456N09955396WA0225302252
B1119521917462N09955405WA0226102259
B1119561917474N09955410WA0226902270
B1120001917491N09955412WA0227702277
B1120041917511N09955409WA0228502286
B1120081917534N09955400WA0229302294
B1120121917558N09955384WA0230102300
B1120161917581N09955361WA0230902309
B1120201917601N09955333WA0231702319
B1120241917618N09955299WA0232502326
B1120281917630N09955262WA0233302333
B1120321917636N09955222WA0234102338
B1120361917636N09955181WA0234902350
B1120401917630N09955140WA0235702357
B1120441917618N09955103WA0236502365
B1120481917601N09955069WA0237202371
B1120521917581N09955041WA0238002380
B1120561917558N09955018WA0238902388
B1121001917534N09955003WA0239702395
B1121041917511N09954993WA0240402406
B1121081917491N09954990WA0241202410
B1121121917474N09954992WA0242102422
B1121161917462N09954998WA0242802429
B1121201917456N09955006WA0243702437
B1121241917459N09955000WA0243502435
B1121281917463N09954994WA0243302432
B1121321917466N09954987WA0243102434
B1121361917470N09954982WA0242902432
B1121401917473N09954975WA0242702427
B1121441917476N09954968WA0242502427
B1121481917479N09954961WA0242302422
B1121521917483N09954955WA0242102421
B1121561917487N09954948WA0241902421
B1122001917491N09954941WA0241702416
B1122041917495N09954935WA0241502416
B1122081917498N09954929WA0241302416
B1122121917501N09954924WA0241102414
B1122161917504N09954918WA0240902406
B1122201917507N09954910WA0240802407
B1122241917510N09954903WA0240602405
B1122281917514N09954898WA0240302404
B1122321917517N09954892WA0240102400
B1122361917521N09954885WA0240002397
B1122401917524N09954879WA0239802396
B1122441917526N09954872WA0239602394
B1122481917530N09954865WA0239402392
B1122521917533N09954859WA0239202391
B1122561917537N09954853WA0239002392
B1123001917540N09954846WA0238802387
B1123041917543N09954839WA0238702387
B1123081917546N09954832WA0238502386
B1123121917549N09954826WA0238302385
B1123161917553N09954821WA0238102380
B1123201917556N09954814WA0237902380
B1123241917560N09954808WA0237702375
B1123281917564N09954802WA0237502375
B1123321917567N09954795WA0237302372
B1123361917571N09954789WA0237102372
B1123401917575N09954784WA0236902368
B1123441917579N09954778WA0236702366
B1123481917582N09954772WA0236502366
B1123521917585N09954766WA0236402361
B1123561917588N09954760WA0236102361
B1124001917592N09954754WA0235902361
B1124041917596N09954749WA0235702360
B1124081917599N09954743WA0235502352
B1124121917602N09954737WA0235302354
B1124161917605N09954730WA0235102354
B1124201917609N09954722WA0235002350
B1124241917612N09954717WA0234802350
B1124281917616N09954710WA0234602345
B1124321917620N09954703WA0234402342
B1124361917623N09954696WA0234202341
B1124401917626N09954689WA0234102340
B1124441917629N09954683WA0233902337
B1124481917632N09954676WA0233702336
B1124521917635N09954669WA0233502338
B1124561917638N09954661WA0233302331
B1125001917642N09954655WA0233102333
B1125041917645N09954648WA0233002333
B1125081917649N09954642WA0232802329
B1125121917653N09954636WA0232602326
B1125161917657N09954631WA0232402326
B1125201917661N09954625WA0232202320
B1125241917665N09954619WA0232002323
B1125281917668N09954613WA0231802316
B1125321917671N09954607WA0231602318
B1125361917675N09954601WA0231402316
B1125401917679N09954596WA0231202312
B1125441917682N09954589WA0231002311
B1125481917685N09954583WA0230802306
B1125521917688N09954576WA0230602307
B1125561917691N09954569WA0230402302
B1126001917694N09954563WA0230302305
B1126041917698N09954557WA0230102302
B1126081917701N09954551WA0229902299
B1126121917704N09954543WA0229702297
B1126161917709N09954538WA0229502292
B1126201917712N09954531WA0229302295
B1126241917715N09954523WA0229202289
B1126281917718N09954516WA0229002293
B1126321917722N09954510WA0228802289
B1126361917725N09954505WA0228602284
B1126401917728N09954499WA0228402284
B1126441917731N09954493WA0228202285
B1126481917734N09954487WA0228002282
B1126521917738N09954481WA0227802278
B1126561917741N09954475WA0227602277
B1127001917744N09954469WA0227402276
B1127041917747N09954462WA0227302272
B1127081917751N09954454WA0227102269
B1127121917754N09954447WA0226902266
B1127161917758N09954441WA0226702264
B1127201917762N09954435WA0226502265
B1127241917765N09954430WA0226302265
B1127281917769N09954423WA0226102259
B1127321917772N09954417WA0225902261
B1127361917775N09954411WA0225702258
B1127401917778N09954403WA0225602258
B1127441917782N09954397WA0225402254
B1127481917785N09954390WA0225202250
B1127521917788N09954384WA0225002251
B1127561917792N09954376WA0224802246
B1128001917795N09954371WA0224602244
B1128041917799N09954364WA0224502245
B1128081917803N09954359WA0224202243
B1128121917807N09954353WA0224002240
B1128161917810N09954346WA0223902241
B1128201917813N09954338WA0223702235
B1128241917818N09954334WA0223502235
B1128281917821N09954328WA0223302230
B1128321917825N09954322WA0223102232
B1128361917828N09954315WA0222902227
B1128401917831N09954308WA0222702226
B1128441917834N09954301WA0222502228
B1128481917838N09954296WA0222302223
B1128521917841N09954289WA0222202223
B1128561917846N09954284WA0222002219
B1129001917849N09954278WA0221802219
B1129041917853N09954273WA0221602214
B1129081917857N09954267WA0221402215
B1129121917859N09954261WA0221202212
B1129161917863N09954254WA0221002213
B1129201917867N09954247WA0220802207
B1129241917870N09954239WA0220602208
B1129281917873N09954233WA0220402207
B1129321917877N09954226WA0220302203
B1129361917880N09954220WA0220102203
B1129401917884N09954215WA0219802199
B1129441917888N09954209WA0219602197
B1129481917891N09954203WA0219402193
B1129521917895N09954198WA0219202194
B1129561917899N09954192WA0219002191
B1130001917902N09954186WA0218802191
B1130041917905N09954180WA0218602183
B1130081917908N09954175WA0218402186
B1130121917912N09954168WA0218202185
B1130161917915N09954161WA0218002179
B1130201917919N09954155WA0217802176
B1130241917922N09954149WA0217602173
B1130281917926N09954143WA0217402173
B1130321917930N09954137WA0217202173
B1130361917933N09954131WA0217002173
B1130401917937N09954124WA0216902166
B1130441917940N09954119WA0216702165
B1130481917944N09954113WA0216502162
B1130521917947N09954106WA0216302163
B1130561917951N09954101WA0216102161
B1131001917955N09954095WA0215902160
B1131041917959N09954088WA0215702158
B1131081917962N09954082WA0215502154
B1131121917965N09954076WA0215302152
B1131161917969N09954070WA0215102149
B1131201917974N09954065WA0214802146
B1131241917976N09954057WA0214702150
B1131281917979N09954052WA0214502147
B1131321917983N09954045WA0214302144
B1131361917986N09954038WA0214102139
B1131401917989N09954031WA0214002137
B1131441917993N09954025WA0213802139
B1131481917997N09954019WA0213602136
B11315219171000N09954012WA0213402135
B1131561918003N09954006WA0213202134
B1132001918006N09954000WA0213002131
B1132041918010N09953995WA0212802125
B1132081918014N09953989WA0212602126
B1132121918017N09953983WA0212402127
B1132161918021N09953976WA0212202123
B1132201918024N09953970WA0212002120
B1132241918028N09953964WA0211802119
B1132281918031N09953957WA0211702115
B1132321918034N09953950WA0211502118
B1132361918038N09953944WA0211302114
B1132401918041N09953937WA0211102110
B1132441918045N09953930WA0210902110
B1132481918047N09953922WA0210702107
B1132521918051N09953917WA0210502105
B1132561918053N09953910WA0210302102
B1133001918057N09953904WA0210102099
B1133041918060N09953898WA0209902101
B1133081918063N09953892WA0209702096
B1133121918066N09953886WA0209502093
B1133161918070N09953880WA0209302094
B1133201918073N09953874WA0209102092
B1133241918076N09953867WA0209002091
B1133281918079N09953861WA0208802087
B1133321918082N09953855WA0208602085
B1133361918086N09953848WA0208402086
B1133401918089N09953841WA0208202080
B1133441918093N09953833WA0208002083
B1133481918096N09953828WA0207802076
B1133521918100N09953822WA0207602076
B1133561918103N09953815WA0207402075
B1134001918107N09953808WA0207202072
B1134041918111N09953802WA0207002073
B1134081918114N09953795WA0206902067
B1134121918117N09953789WA0206702070
B1134161918120N09953783WA0206502065
B1134201918123N09953776WA0206302061
B1134241918126N09953768WA0206102060
B1134281918129N09953762WA0205902060
B1134321918132N09953754WA0205702055
B1134361918135N09953747WA0205602058
B1134401918139N09953741WA0205402051
B1134441918142N09953733WA0205202050
B1134481918144N09953726WA0205002049
B1134521918148N09953721WA0204802047
B1134561918152N09953716WA0204602044
B1135001918154N09953708WA0204402041
B1135041918158N09953703WA0204202043
B1135081918161N09953697WA0204002038
B1135121918165N09953692WA0203802037
B1135161918168N09953685WA0203602039
B1135201918171N09953679WA0203402033
B1135241918174N09953673WA0203202031
B1135281918177N09953667WA0203002032
B1135321918180N09953661WA0202802030
B1135361918184N09953655WA0202702025
B1135401918187N09953648WA0202502022
B1135441918190N09953643WA0202302020
B1135481918194N09953637WA0202102018
B1135521918197N09953631WA0201902016
B1135561918200N09953624WA0201702014
B1136001918203N09953617WA0201502017
B1136041918206N09953610WA0201302015
B1136081918210N09953605WA0201102010
B1136121918213N09953599WA0200902007
B1136161918217N09953593WA0200802005
B1136201918220N09953588WA0200502006
B1136241918223N09953581WA0200402001
B1136281918227N09953574WA0200202001
B1136321918231N09953568WA0200002001
B1136361918235N09953561WA0199801996
B1136401918238N09953555WA0199601993
B1136441918241N09953548WA0199401993
B1136481918245N09953542WA0199201990
B1136521918248N09953536WA0199001992
B1136561918251N09953531WA0198801989
B1137001918255N09953525WA0198601986
B1137041918258N09953520WA0198401983
B1137081918263N09953514WA0198201984
B1137121918267N09953507WA0198001981
B1137161918269N09953501WA0197801978
B1137201918273N09953495WA0197601974
B1137241918276N09953490WA0197401976
B1137281918276N09953499WA0198001983
B1137321918282N09953507WA0198601984
B1137361918294N09953513WA0199201992
B1137401918311N09953515WA0199801999
B1137441918331N09953512WA0200402002
B1137481918354N09953502WA0201002008
B1137521918378N09953487WA0201602017
B1137561918401N09953464WA0202202024
B1138001918421N09953436WA0202802029
B1138041918438N09953402WA0203402035
B1138081918450N09953365WA0204002042
B1138121918456N09953324WA0204602045
B1138161918456N09953283WA0205202054
B1138201918450N09953243WA0205802057
B1138241918438N09953206WA0206302065
B1138281918421N09953172WA0207002070
B1138321918401N09953144WA0207602074
B1138361918378N09953121WA0208202084
B1138401918354N09953105WA0208802087
B1138441918331N09953096WA0209402096
B1138481918311N09953093WA0210002099
B1138521918294N09953095WA0210602105
B1138561918282N09953101WA0211202112
B1139001918276N09953109WA0211802115
B1139041918276N09953118WA0212402124
B1139081918282N09953127WA0213002130
B1139121918294N09953133WA0213602135
B1139161918311N09953134WA0214202142
B1139201918331N09953131WA0214802149
B1139241918354N09953122WA0215402156
B1139281918378N09953106WA0216002161
B1139321918401N09953084WA0216602166
B1139361918421N09953055WA0217202169
B1139401918438N09953021WA0217802178
B1139441918450N09952984WA0218402185
B1139481918456N09952944WA0219002192
B1139521918456N09952903WA0219602195
B1139561918450N09952863WA0220202202
B1140001918438N09952825WA0220802207
B1140041918421N09952791WA0221302211
B1140081918401N09952763WA0222002219
B1140121918378N09952741WA0222602224
B1140161918354N09952725WA0223102233
B1140201918331N09952715WA0223802236
B1140241918311N09952712WA0224402246
B1140281918294N09952714WA0225002248
B1140321918282N09952720WA0225602258
B1140361918276N09952728WA0226202260
B1140401918276N09952737WA0226802265
B1140441918282N09952746WA0227402274
B1140481918294N09952752WA0228002277
B1140521918311N09952754WA0228602288
B1140561918331N09952750WA0229202293
B1141001918354N09952741WA0229802295
B1141041918378N09952725WA0230402304
B1141081918401N09952703WA0231002309
B1141121918421N09952674WA0231602318
B1141161918438N09952641WA0232202323
B1141201918450N09952603WA0232802329
B1141241918456N09952563WA0233402331
B1141281918456N09952522WA0234002340
B1141321918450N09952482WA0234602346
B1141361918438N09952444WA0235202350
B1141401918421N09952411WA0235802357
B1141441918401N09952382WA0236402364
B1141481918378N09952360WA0237002373
B1141521918354N09952344WA0237602377
B1141561918331N09952335WA0238202381
B1142001918311N09952331WA0238802387
B1142041918294N09952333WA0239402393
B1142081918282N09952339WA0240002403
B1142121918276N09952347WA0240602409
B1142161918286N09952331WA0240402406
B1142201918295N09952316WA0240102402
B1142241918304N09952301WA0239902398
B1142281918313N09952285WA0239702395
B1142321918321N09952270WA0239502395
B1142361918331N09952255WA0239202391
B1142401918340N09952239WA0239002389
B1142441918350N09952224WA0238702390
B1142481918360N09952208WA0238502384
B1142521918370N09952192WA0238202383
B1142561918379N09952176WA0237902377
B1143001918390N09952160WA0237702379
B1143041918400N09952145WA0237402373
B1143081918409N09952129WA0237202369
B1143121918418N09952113WA0237002371
B1143161918428N09952098WA0236702366
B1143201918438N09952082WA0236502367
B1143241918446N09952066WA0236302363
B1143281918456N09952050WA0236002361
B1143321918465N09952034WA0235802360
B1143361918475N09952020WA0235502354
B1143401918485N09952004WA0235302355
B1143441918494N09951988WA0235002351
B1143481918504N09951973WA0234802347
B1143521918514N09951959WA0234502346
B1143561918524N09951943WA0234302344
B1144001918534N09951927WA0234002339
B1144041918544N09951911WA0233702339
B1144081918554N09951896WA0233502333
B1144121918563N09951880WA0233202332
B1144161918572N09951865WA0233002331
B1144201918582N09951849WA0232802326
B1144241918590N09951833WA0232602325
B1144281918598N09951818WA0232302322
B1144321918607N09951803WA0232102323
B1144361918616N09951787WA0231902317
B1144401918626N09951771WA0231702318
B1144441918635N09951756WA0231402315
B1144481918646N09951741WA0231202312
B1144521918656N09951726WA0230902308
B1144561918665N09951710WA0230702309
B1145001918675N09951695WA0230402306
B1145041918685N09951680WA0230202300
B1145081918695N09951664WA0230002297
B1145121918704N09951649WA0229702295
B1145161918714N09951634WA0229502298
B1145201918723N09951618WA0229302291
B1145241918733N09951602WA0229002289
B1145281918743N09951587WA0228702288
B1145321918754N09951571WA0228502282
B1145361918763N09951556WA0228202281
B1145401918771N09951541WA0228002278
B1145441918780N09951526WA0227802280
B1145481918791N09951511WA0227502275
B1145521918800N09951495WA0227302270
B1145561918810N09951480WA0227002267
B1146001918821N09951464WA0226802270
B1146041918830N09951448WA0226502264
B1146081918840N09951433WA0226302263
B1146121918849N09951418WA0226002257
B1146161918858N09951403WA0225802260
B1146201918868N09951388WA0225602253
B1146241918878N09951372WA0225302251
B1146281918887N09951357WA0225102254
B1146321918896N09951341WA0224902247
B1146361918904N09951326WA0224602246
B1146401918913N09951310WA0224402246
B1146441918922N09951294WA0224202242
B1146481918931N09951278WA0223902237
B1146521918940N09951263WA0223702238
B1146561918950N09951248WA0223402234
B1147001918959N09951232WA0223202233
B1147041918967N09951217WA0223002228
B1147081918976N09951203WA0222702227
B1147121918984N09951188WA0222502228
B1147161918994N09951172WA0222302225
B1147201919004N09951157WA0222002223
B1147241919013N09951141WA0221802216
B1147281919024N09951125WA0221502213
B1147321919034N09951110WA0221202215
B1147361919045N09951095WA0221002208
B1147401919055N09951079WA0220702206
B1147441919064N09951063WA0220502206
B1147481919074N09951047WA0220302205
B1147521919083N09951032WA0220002200
B1147561919094N09951016WA0219702198
B1148001919103N09951001WA0219502197
B1148041919113N09950986WA0219302195
B1148081919123N09950970WA0219002193
B1148121919132N09950955WA0218702190
B1148161919141N09950939WA0218502184
B1148201919150N09950923WA0218302182
B1148241919159N09950908WA0218002180
B1148281919170N09950893WA0217702178
B1148321919181N09950878WA0217502175
B1148361919190N09950862WA0217202173
B1148401919199N09950847WA0217002170
B1148441919208N09950831WA0216802170
B1148481919218N09950816WA0216502165
B1148521919228N09950800WA0216302166
B1148561919238N09950784WA0216002158
B1149001919249N09950769WA0215802158
B1149041919259N09950754WA0215502154
B1149081919268N09950739WA0215302153
B1149121919277N09950723WA0215102148
B1149161919287N09950708WA0214802148
B1149201919297N09950693WA0214602148
B1149241919307N09950677WA0214302145
B1149281919317N09950662WA0214002138
B1149321919327N09950647WA0213802141
B1149361919337N09950632WA0213502133
B1149401919346N09950616WA0213302130
B1149441919356N09950601WA0213102133
B1149481919366N09950585WA0212802129
B1149521919375N09950571WA0212602123
B1149561919385N09950555WA0212302123
B1150001919394N09950540WA0212102123
B1150041919404N09950525WA0211802118
B1150081919413N09950509WA0211602117
B1150121919422N09950494WA0211402111
B1150161919430N09950478WA0211102114
B1150201919441N09950463WA0210902108
B1150241919449N09950448WA0210702108
B1150281919459N09950433WA0210402102
B1150321919467N09950417WA0210202104
B1150361919477N09950402WA0210002098
B1150401919486N09950387WA0209802098
B1150441919495N09950371WA0209502095
B1150481919503N09950355WA0209302095
B1150521919513N09950339WA0209102091
B1150561919524N09950324WA0208802087
B1151001919533N09950308WA0208602085
B1151041919542N09950292WA0208402086
B1151081919554N09950276WA0208102080
B1151121919563N09950261WA0207802079
B1151161919573N09950246WA0207602075
B1151201919581N09950230WA0207402073
B1151241919590N09950215WA0207102073
B1151281919599N09950199WA0206902069
B1151321919610N09950184WA0206702069
B1151361919618N09950169WA0206502062
B1151401919628N09950153WA0206202064
B1151441919637N09950139WA0206002060
B1151481919646N09950123WA0205802059
B1151521919656N09950108WA0205502057
B1151561919664N09950093WA0205302055
B1152001919674N09950077WA0205002047
B1152041919684N09950061WA0204702048
B1152081919693N09950046WA0204502043
B1152121919702N09950031WA0204302042
B1152161919712N09950015WA0204002038
B1152201919721N09949999WA0203802038
B1152241919729N09949984WA0203602037
B1152281919738N09949969WA0203402033
B1152321919747N09949954WA0203102033
B1152361919757N09949938WA0202902026
B1152401919766N09949922WA0202602025
B1152441919776N09949906WA0202402021
B1152481919785N09949891WA0202102019
B1152521919795N09949875WA0201802021
B1152561919805N09949860WA0201602015
B1153001919813N09949844WA0201402016
B1153041919824N09949829WA0201102012
B1153081919833N09949813WA0200902010
B1153121919843N09949798WA0200702009
B1153161919852N09949783WA0200402003
B1153201919862N09949767WA0200202002
B1153241919871N09949752WA0199901999
B1153281919881N09949737WA0199701999
B1153321919889N09949721WA0199501992
B1153361919899N09949706WA0199201993
B1153401919909N09949690WA0199001990
B1153441919919N09949674WA0198701988
B1153481919929N09949658WA0198501986
B1153521919938N09949643WA0198201980
B1153561919947N09949628WA0198001978
B1154001919957N09949612WA0197701975
B1154041919965N09949597WA0197501978
B1154081919975N09949581WA0197301970
B1154121919985N09949566WA0197001969
B1154161919996N09949550WA0196701969
B1154201920007N09949535WA0196501968
B1154241920015N09949520WA0196201964
B1154281920026N09949505WA0196001958
B1154321920035N09949490WA0195701957
B1154361920046N09949474WA0195501952
B1154401920056N09949459WA0195201950
B1154441920064N09949443WA0195001948
B1154481920074N09949427WA0194801947
B1154521920084N09949412WA0194501945
B1154561920093N09949396WA0194301942
B1155001920103N09949381WA0194001939
B1155041920113N09949365WA0193801938
B1155081920123N09949349WA0193501937
B1155121920132N09949334WA0193201935
B1155161920143N09949318WA0193001933
B1155201920152N09949302WA0192701926
B1155241920161N09949287WA0192501927
B1155281920172N09949272WA0192201921
B1155321920182N09949257WA0192001922
B1155361920191N09949242WA0191701919
B1155401920200N09949226WA0191501917
B1155441920210N09949211WA0191301915
B1155481920219N09949196WA0191001911
B1155521920229N09949181WA0190801908
B1155561920239N09949166WA0190601905
B1156001920248N09949151WA0190301901
B1156041920256N09949134WA0190101903
B1156081920266N09949120WA0189801896
B1156121920275N09949104WA0189601895
B1156161920284N09949089WA0189401895
B1156201920292N09949073WA0189201891
B1156241920301N09949058WA0188901889
B1156281920312N09949043WA0188701886
B1156321920322N09949028WA0188401885
B1156361920332N09949013WA0188201884
B1156401920342N09948998WA0187901880
B1156441920353N09948983WA0187601875
B1156481920362N09948968WA0187401876
B1156521920371N09948952WA0187201872
B1156561920381N09948936WA0186901868
B1157001920391N09948921WA0186601864
B1157041920400N09948906WA0186401863
B1157081920409N09948891WA0186201859
B1157121920417N09948874WA0185901860
B1157161920427N09948858WA0185701856
B1157201920437N09948843WA0185401855
B1157241920447N09948827WA0185201849
B1157281920456N09948812WA0185001847
B1157321920465N09948797WA0184701847
B1157361920474N09948782WA0184501846
B1157401920484N09948766WA0184201844
B1157441920493N09948751WA0184001841
B1157481920502N09948735WA0183701836
B1157521920513N09948720WA0183501836
B1157561920522N09948705WA0183201831
B1158001920532N09948690WA0182901829
B1158041920542N09948674WA0182701829
B1158081920551N09948659WA0182401822
B1158121920560N09948643WA0182201823
B1158161920569N09948628WA0182001817
B1158201920579N09948613WA0181701820
B1158241920589N09948598WA0181501814
B1158281920599N09948583WA0181201812
B1158321920607N09948567WA0181001807
B1158361920618N09948552WA0180701809
B1158401920628N09948537WA0180501803
B1158441920637N09948522WA0180201804
B1158481920646N09948507WA0180001803
B1158521920655N09948492WA0179801797
B1158561920664N09948477WA0179501795
B1159001920673N09948462WA0179301794
B1159041920684N09948446WA0179001789
B1159081920693N09948431WA0178801789
B1159121920703N09948415WA0178601788
B1159161920713N09948400WA0178301782
B1159201920724N09948384WA0178001780
B1159241920732N09948368WA0177801777
B1159281920741N09948354WA0177601775
B1159321920750N09948338WA0177301774
B1159361920759N09948322WA0177101773
B1159401920769N09948307WA0176901770
B1159441920780N09948292WA0176601765
B1159481920790N09948276WA0176301764
B1159521920800N09948261WA0176101758
B1159561920808N09948245WA0175901758
B1200001920817N09948230WA0175601754
B1200041920826N09948214WA0175401752
B1200081920834N09948199WA0175201754
B1200121920843N09948183WA0175001749
B1200161920851N09948169WA0174701747
B1200201920859N09948153WA0174501747
B1200241920870N09948138WA0174301745
B1200281920880N09948123WA0174001739
B1200321920890N09948108WA0173801738
B1200361920900N09948093WA0173501735
B1200401920910N09948077WA0173201730
B1200441920919N09948062WA0173001728
B1200481920929N09948047WA0172701730
B1200521920939N09948032WA0172501724
B1200561920939N09948041WA0173501736
B1201001920945N09948049WA0174501746
B1201041920957N09948055WA0175501753
B1201081920974N09948057WA0176501764
B1201121920994N09948054WA0177501776
B1201161921017N09948044WA0178501785
B1201201921041N09948029WA0179501798
B1201241921064N09948006WA0180501806
B1201281921084N09947978WA0181501816
B1201321921101N09947944WA0182501826
B1201361921113N09947906WA0183501836
B1201401921119N09947866WA0184501844
B1201441921119N09947825WA0185501858
B1201481921113N09947785WA0186501864
B1201521921101N09947748WA0187501877
B1201561921084N09947714WA0188601888
B1202001921064N09947685WA0189601896
B1202041921041N09947663WA0190501903
B1202081921017N09947647WA0191601915
B1202121920994N09947638WA0192601924
B1202161920974N09947635WA0193601935
B1202201920957N09947636WA0194601945
B1202241920945N09947642WA0195601957
B1202281920939N09947651WA0196601965
B1202321920939N09947660WA0197601973
B1202361920945N09947668WA0198601989
B1202401920957N09947674WA0199601999
B1202441920974N09947676WA0200602009
B1202481920994N09947673WA0201702015
B1202521921017N09947664WA0202602024
B1202561921041N09947648WA0203702038
B1203001921064N09947625WA0204702047
B1203041921084N09947597WA0205702057
B1203081921101N09947563WA0206702064
B1203121921113N09947526WA0207702076
B1203161921119N09947485WA0208702089
B1203201921119N09947444WA0209702095
B1203241921113N09947404WA0210702108
B1203281921101N09947367WA0211702120
B1203321921084N09947333WA0212702124
B1203361921064N09947305WA0213702137
B1203401921041N09947282WA0214702150
B1203441921017N09947266WA0215702158
B1203481920994N09947257WA0216702168
B1203521920974N09947254WA0217702177
B1203561920957N09947256WA0218702187
B1204001920945N09947262WA0219802200
B1204041920939N09947270WA0220802207
B1204081920939N09947279WA0221802221
B1204121920945N09947288WA0222802225
B1204161920957N09947294WA0223702236
B1204201920974N09947295WA0224802245
B1204241920994N09947292WA0225802255
B1204281921017N09947283WA0226802265
B1204321921041N09947267WA0227802276
B1204361921064N09947245WA0228802286
B1204401921084N09947216WA0229802297
B1204441921101N09947182WA0230802308
B1204481921113N09947145WA0231802317
B1204521921119N09947105WA0232802328
B1204561921119N09947064WA0233802340
B1205001921113N09947024WA0234802346
B1205041921101N09946986WA0235802361
B1205081921084N09946952WA0236802367
B1205121921064N09946924WA0237902377
B1205161921041N09946901WA0238902389
B1205201921017N09946886WA0239902398
B1205241920994N09946876WA0240902407
B1205281920974N09946873WA0241902418
B1205321920957N09946875WA0242902432
B1205361920945N09946881WA0243902441
B1205401920939N09946889WA0244902447
B1205441920939N09946898WA0245902461
B1205481920945N09946907WA0246902471
B1205521920957N09946913WA0247902481
B1205561920974N09946915WA0248902492
B1206001920994N09946911WA0249902498
B1206041921017N09946902WA0250902508
B1206081921041N09946886WA0251902519
B1206121921064N09946864WA0252902529
B1206161921084N09946835WA0253902538
B1206201921101N09946802WA0254902549
B1206241921113N09946764WA0256002562
B1206281921119N09946724WA0256902570
B1206321921119N09946683WA0257902580
B1206361921113N09946643WA0258902590
B1206401921101N09946605WA0259902600
B1206441921084N09946571WA0260902610
B1206481921064N09946543WA0261902617
B1206521921041N09946521WA0262902631
B1206561921017N09946505WA0263902638
B1207001920994N09946495WA0265002648
B1207041920974N09946492WA0266002661
B1207081920957N09946494WA0267002673
B1207121920945N09946500WA0268002680
B1207161920939N09946508WA0269002688
B1207201920939N09946518WA0270002702
B1207241920945N09946526WA0271002709
B1207281920957N09946532WA0272002721
B1207321920974N09946534WA0273002731
B1207361920994N09946530WA0274002742
B1207401921017N09946521WA0275002750
B1207441921041N09946505WA0276002763
B1207481921064N09946483WA0277002771
B1207521921084N09946454WA0278102780
B1207561921101N09946421WA0279002791
B1208001921113N09946383WA0280002799
B1208041921119N09946343WA0281002809
B1208081921119N09946302WA0282002819
B1208121921113N09946262WA0283002831
B1208161921101N09946224WA0284002838
B1208201921084N09946191WA0285002852
B1208241921064N09946162WA0286002863
B1208281921041N09946140WA0287002868
B1208321921017N09946124WA0288002879
B1208361920994N09946115WA0289002892
B1208401920974N09946111WA0290002898
B1208441920957N09946113WA0291002910
B1208481920945N09946119WA0292002919
B1208521920939N09946127WA0293002929
B1208561920943N09946104WA0292902927
B1209001920946N09946081WA0292802928
B1209041920950N09946058WA0292702926
B1209081920953N09946034WA0292602925
B1209121920956N09946011WA0292502927
B1209161920960N09945988WA0292402925
B1209201920963N09945965WA0292202923
B1209241920967N09945941WA0292102920
B1209281920970N09945918WA0292002919
B1209321920974N09945895WA0291902920
B1209361920977N09945872WA0291802915
B1209401920981N09945848WA0291702917
B1209441920984N09945825WA0291602914
B1209481920988N09945802WA0291502917
B1209521920991N09945779WA0291402915
B1209561920995N09945755WA0291202912
B1210001920998N09945732WA0291102912
B1210041921002N09945709WA0291002909
B1210081921005N09945686WA0290902906
B1210121921009N09945662WA0290802907
B1210161921012N09945639WA0290702908
B1210201921016N09945616WA0290602904
B1210241921019N09945593WA0290502907
B1210281921023N09945569WA0290302906
B1210321921026N09945546WA0290202901
B1210361921030N09945523WA0290102899
B1210401921033N09945500WA0290002901
B1210441921036N09945476WA0289902897
B1210481921040N09945453WA0289802897
B1210521921043N09945430WA0289602895
B1210561921047N09945407WA0289502898
B1211001921050N09945383WA0289402895
B1211041921054N09945360WA0289302896
B1211081921057N09945337WA0289202891
B1211121921061N09945314WA0289102888
B1211161921064N09945290WA0288902887
B1211201921068N09945267WA0288802886
B1211241921071N09945244WA0288702885
B1211281921075N09945221WA0288602888
B1211321921078N09945197WA0288502886
B1211361921082N09945174WA0288402885
B1211401921085N09945151WA0288302883
B1211441921089N09945128WA0288202879
B1211481921092N09945104WA0288102880
B1211521921096N09945081WA0288002880
B1211561921099N09945058WA0287902881
B1212001921103N09945035WA0287802878
B1212041921106N09945011WA0287702879
B1212081921110N09944988WA0287602875
B1212121921113N09944965WA0287502874
B1212161921117N09944942WA0287402876
B1212201921120N09944918WA0287302871
B1212241921123N09944895WA0287202873
B1212281921127N09944872WA0287002870
B1212321921130N09944849WA0286902869
B1212361921134N09944825WA0286802869
B1212401921137N09944802WA0286702864
B1212441921141N09944779WA0286602865
B1212481921144N09944756WA0286502863
B1212521921148N09944732WA0286402867
B1212561921151N09944709WA0286302863
B1213001921155N09944686WA0286202860
B1213041921158N09944663WA0286102858
B1213081921162N09944639WA0286002859
B1213121921165N09944616WA0285902860
B1213161921169N09944593WA0285702855
B1213201921172N09944570WA0285602859
B1213241921176N09944546WA0285502853
B1213281921179N09944523WA0285402851
B1213321921183N09944500WA0285302853
B1213361921186N09944477WA0285202853
B1213401921190N09944453WA0285102848
B1213441921193N09944430WA0284902852
B1213481921197N09944407WA0284802850
B1213521921200N09944384WA0284702850
B1213561921203N09944360WA0284602848
B1214001921207N09944337WA0284502847
B1214041921210N09944314WA0284402843
B1214081921214N09944291WA0284302841
B1214121921217N09944267WA0284202840
B1214161921221N09944244WA0284102840
B1214201921224N09944221WA0284002843
B1214241921228N09944198WA0283902841
B1214281921231N09944174WA0283702836
B1214321921235N09944151WA0283602837
B1214361921238N09944128WA0283502834
B1214401921242N09944105WA0283402836
B1214441921245N09944081WA0283302831
B1214481921249N09944058WA0283202833
B1214521921252N09944035WA0283102832
B1214561921256N09944012WA0283002828
B1215001921259N09943988WA0282802827
B1215041921263N09943965WA0282702829
B1215081921266N09943942WA0282602826
B1215121921270N09943919WA0282502826
B1215161921273N09943895WA0282402822
B1215201921277N09943872WA0282302826
B1215241921280N09943849WA0282202822
B1215281921284N09943826WA0282102819
B1215321921287N09943802WA0282002819
B1215361921290N09943779WA0281902818
B1215401921294N09943756WA0281802816
B1215441921297N09943733WA0281702817
B1215481921301N09943709WA0281602816
B1215521921304N09943686WA0281402814
B1215561921308N09943663WA0281302815
B1216001921311N09943640WA0281202810
B1216041921315N09943616WA0281102810
B1216081921318N09943593WA0281002811
B1216121921322N09943570WA0280902807
B1216161921325N09943547WA0280802808
B1216201921329N09943523WA0280702809
B1216241921332N09943500WA0280602805
B1216281921336N09943477WA0280502807
B1216321921339N09943454WA0280402803
B1216361921343N09943430WA0280202805
B1216401921346N09943407WA0280102804
B1216441921350N09943384WA0280002800
B1216481921353N09943361WA0279902797
B1216521921357N09943337WA0279802796
B1216561921360N09943314WA0279702796
B1217001921364N09943291WA0279602795
B1217041921367N09943268WA0279402794
B1217081921371N09943244WA0279402791
B1217121921374N09943221WA0279302791
B1217161921377N09943198WA0279102789
B1217201921381N09943175WA0279002788
B1217241921384N09943151WA0278902789
B1217281921388N09943128WA0278802790
B1217321921391N09943105WA0278702787
B1217361921395N09943082WA0278602788
B1217401921398N09943058WA0278502783
B1217441921402N09943035WA0278402786
B1217481921405N09943012WA0278302782
B1217521921409N09942989WA0278102784
B1217561921412N09942965WA0278002779
B1218001921416N09942942WA0277902779
B1218041921419N09942919WA0277802779
B1218081921423N09942896WA0277702777
B1218121921426N09942872WA0277602778
B1218161921430N09942849WA0277502776
B1218201921433N09942826WA0277402776
B1218241921437N09942803WA0277302774
B1218281921440N09942779WA0277102772
B1218321921444N09942756WA0277002769
B1218361921447N09942733WA0276902769
B1218401921451N09942710WA0276802768
B1218441921454N09942686WA0276702767
B1218481921457N09942663WA0276602769
B1218521921461N09942640WA0276502763
B1218541921461N09942638WA0276102762
B1218561921461N09942636WA0275802761
B1218581921461N09942635WA0275402753
B1219001921461N09942633WA0275102751
B1219021921461N09942631WA0274702749
B1219041921461N09942630WA0274402741
B1219061921461N09942628WA0274002739
B1219081921461N09942626WA0273702735
B1219101921461N09942624WA0273302736
B1219121921461N09942623WA0273002728
B1219141921461N09942621WA0272602728
B1219161921461N09942619WA0272302722
